{
  "type": "FeatureCollection",
  "features": [
    {
      "type": "Feature",
      "properties": {},
      "geometry": {
        "type": "LineString",
        "coordinates": [
          [
            44.94944287756916,
            41.566297107111346
          ],
          [
            44.9494734466935,
            41.566277702204395
          ],
          [
            44.94950269805207,
            41.56625882442572
          ],
          [
            44.94953184748785,
            41.56624137286438
          ],
          [
            44.94955927757469,
            41.566223033455564
          ],
          [
            44.949587492995065,
            41.566206004003156
          ],
          [
            44.94961684883706,
            41.56618803935658
          ],
          [
            44.94964780008233,
            41.56616881533438
          ],
          [
            44.94968315768481,
            41.56614789487682
          ],
          [
            44.94971695351247,
            41.566126427893046
          ],
          [
            44.94974883724719,
            41.566107378716275
          ],
          [
            44.94977724446046,
            41.56609081024916
          ],
          [
            44.94980158847333,
            41.566075714786024
          ],
          [
            44.94982537458431,
            41.56606181270825
          ],
          [
            44.949852948600885,
            41.56604716488566
          ],
          [
            44.94988439356954,
            41.56603083132738
          ],
          [
            44.94992359339668,
            41.56601592561775
          ],
          [
            44.949964435967736,
            41.56600201829514
          ],
          [
            44.94999730723903,
            41.565993138552244
          ],
          [
            44.9500246117917,
            41.56598827764176
          ],
          [
            44.950051344111195,
            41.565983931177996
          ],
          [
            44.95008097268972,
            41.565981670308275
          ],
          [
            44.95011249799761,
            41.56598000000013
          ],
          [
            44.9501429199491,
            41.56598000000011
          ],
          [
            44.950173826199034,
            41.56598100000007
          ],
          [
            44.95020309239634,
            41.56598300000011
          ],
          [
            44.950230509527024,
            41.5659874252756
          ],
          [
            44.950262163468366,
            41.565995232693766
          ],
          [
            44.95030266477855,
            41.566005871068704
          ],
          [
            44.95033318904518,
            41.56601722655604
          ],
          [
            44.950358715651504,
            41.566027584130296
          ],
          [
            44.95038298373955,
            41.566039157181585
          ],
          [
            44.950406823907564,
            41.56605148061283
          ],
          [
            44.950431044734806,
            41.56606666483136
          ],
          [
            44.95045868703673,
            41.56608526527801
          ],
          [
            44.95048170042092,
            41.566101482162985
          ],
          [
            44.950500760065,
            41.56611776006548
          ],
          [
            44.95052094670507,
            41.566133652034914
          ],
          [
            44.95054225544826,
            41.566149640326266
          ],
          [
            44.95056443730624,
            41.56616595820432
          ],
          [
            44.95058879648334,
            41.56618304426057
          ],
          [
            44.9506145906987,
            41.56619917817648
          ],
          [
            44.950641692572155,
            41.56621460369307
          ],
          [
            44.95067234211425,
            41.56623167105737
          ],
          [
            44.95070323178064,
            41.56624711589054
          ],
          [
            44.95073134411422,
            41.56626256058694
          ],
          [
            44.9507599290555,
            41.566276683881206
          ],
          [
            44.95078789104752,
            41.5662910098758
          ],
          [
            44.95081722661466,
            41.56630689125443
          ],
          [
            44.95084828271077,
            41.5663231522289
          ],
          [
            44.950879553462116,
            41.56633873060947
          ],
          [
            44.95090561653902,
            41.56635244298141
          ],
          [
            44.95093130343878,
            41.56636529309961
          ],
          [
            44.95095297232408,
            41.566378580627045
          ],
          [
            44.950974325804324,
            41.5663891629024
          ],
          [
            44.950994143731215,
            41.56640030061214
          ],
          [
            44.951014464027,
            41.56641252481917
          ],
          [
            44.951040040352176,
            41.566431142496405
          ],
          [
            44.95105599747952,
            41.56644399747976
          ],
          [
            44.9510647982099,
            41.56645439761337
          ],
          [
            44.95107408316697,
            41.5664645164339
          ],
          [
            44.95108245434081,
            41.566475090675496
          ],
          [
            44.951078540973484,
            41.566470618255494
          ],
          [
            44.95108613249362,
            41.56647981198998
          ],
          [
            44.951093448323164,
            41.56649082765262
          ],
          [
            44.951099028131345,
            41.5665040843943
          ],
          [
            44.95110919003826,
            41.56653024613071
          ],
          [
            44.95111255633559,
            41.566546225342535
          ],
          [
            44.951115,
            41.56656450831212
          ],
          [
            44.951110134139874,
            41.56658564229371
          ],
          [
            44.95110234953829,
            41.56660530092367
          ],
          [
            44.951091054081274,
            41.56662652428634
          ],
          [
            44.95107798807631,
            41.56664101669316
          ],
          [
            44.95106675805002,
            41.56665280150054
          ],
          [
            44.95105304930479,
            41.56666186149747
          ],
          [
            44.95104114372178,
            41.56667114237697
          ],
          [
            44.951027418446195,
            41.56667936347117
          ],
          [
            44.9510119870616,
            41.566686670979514
          ],
          [
            44.95099636120991,
            41.56669348954632
          ],
          [
            44.95098103245199,
            41.566698587019346
          ],
          [
            44.95096553190874,
            41.56670209361827
          ],
          [
            44.950949467229265,
            41.56670400000012
          ],
          [
            44.95093318204171,
            41.56670600000005
          ],
          [
            44.95091394925663,
            41.56670582487615
          ],
          [
            44.950884783337514,
            41.56670287954655
          ],
          [
            44.95085124880628,
            41.56669722705574
          ],
          [
            44.950821030843805,
            41.56668801028143
          ],
          [
            44.950797599634015,
            41.56667879981703
          ],
          [
            44.95077581745539,
            41.566669257273304
          ],
          [
            44.950754348138155,
            41.56665717406928
          ],
          [
            44.950728030142216,
            41.5666409210998
          ],
          [
            44.95069976815004,
            41.56662093078363
          ],
          [
            44.95067954248307,
            41.566601542483454
          ],
          [
            44.95066050617244,
            41.56658067489668
          ],
          [
            44.95064246060797,
            41.566555336972996
          ],
          [
            44.950623423358145,
            41.566529115746526
          ],
          [
            44.95060786513569,
            41.56650786513572
          ],
          [
            44.95059202710514,
            41.5664896101504
          ],
          [
            44.9505769181941,
            41.56647145456323
          ],
          [
            44.95055760764397,
            41.566448933599816
          ],
          [
            44.950530569827976,
            41.56642056982806
          ],
          [
            44.95049817795953,
            41.566391024571914
          ],
          [
            44.950462892453736,
            41.56636626163622
          ],
          [
            44.950422533188664,
            41.56634076659437
          ],
          [
            44.95037506964709,
            41.56631945344564
          ],
          [
            44.95033324751088,
            41.566303802682626
          ],
          [
            44.95029403335352,
            41.56629155129006
          ],
          [
            44.950255615182336,
            41.56628212303669
          ],
          [
            44.95021135802781,
            41.56627500000021
          ],
          [
            44.95016816178199,
            41.56627181078642
          ],
          [
            44.950125379562124,
            41.56627134939205
          ],
          [
            44.95008439895302,
            41.566275906736564
          ],
          [
            44.950045196151606,
            41.5662818008883
          ],
          [
            44.95000586847286,
            41.56628947554567
          ],
          [
            44.949967890833705,
            41.566300038987976
          ],
          [
            44.94992922506171,
            41.566313759591864
          ],
          [
            44.94989591086589,
            41.56632718812871
          ],
          [
            44.949865591407686,
            41.56634252770389
          ],
          [
            44.94983902924115,
            41.56635623294291
          ],
          [
            44.9498142401675,
            41.56637083988865
          ],
          [
            44.9497883465576,
            41.566387747958146
          ],
          [
            44.94976282767876,
            41.56640111077797
          ],
          [
            44.94973840101674,
            41.566416359391454
          ],
          [
            44.9497106981167,
            41.56643272641277
          ],
          [
            44.94968325245073,
            41.56644905199643
          ],
          [
            44.94965629456802,
            41.56646562326046
          ],
          [
            44.94962977219933,
            41.56648211390072
          ],
          [
            44.949602993448934,
            41.56649800327585
          ],
          [
            44.94957901975117,
            41.56651313157119
          ],
          [
            44.94955153420521,
            41.56652955188302
          ],
          [
            44.949526969725625,
            41.5665445151374
          ],
          [
            44.949505141301344,
            41.566558905799496
          ],
          [
            44.949484217439064,
            41.56657233692094
          ],
          [
            44.94946180075659,
            41.56658563042012
          ],
          [
            44.94943623864176,
            41.56660285314357
          ],
          [
            44.94940792931515,
            41.56662148088264
          ],
          [
            44.949372730920906,
            41.56664455933061
          ],
          [
            44.94933950294006,
            41.56666654794263
          ],
          [
            44.94930319429515,
            41.566689563993485
          ],
          [
            44.9492756735004,
            41.566709228549755
          ],
          [
            44.94925516647872,
            41.5667234167608
          ],
          [
            44.94923485811734,
            41.566736899318144
          ],
          [
            44.94921355602217,
            41.56675245144835
          ],
          [
            44.9491912022884,
            41.566771826609966
          ],
          [
            44.94917337970457,
            41.56679286841371
          ],
          [
            44.94916079588635,
            41.566812476265234
          ],
          [
            44.94915368343476,
            41.56683217750747
          ],
          [
            44.949149,
            41.56685199011037
          ],
          [
            44.949148,
            41.566876775188675
          ],
          [
            44.94915098986907,
            41.56690192401803
          ],
          [
            44.94915838147529,
            41.566916762950655
          ],
          [
            44.949166279924455,
            41.56692765315711
          ],
          [
            44.949172637373785,
            41.56693909232349
          ],
          [
            44.94918346726811,
            41.56694982908713
          ],
          [
            44.94919837877818,
            41.56696148231517
          ],
          [
            44.949217171992785,
            41.56697408599652
          ],
          [
            44.949237364797106,
            41.56698378826573
          ],
          [
            44.94926069115954,
            41.56699275918493
          ],
          [
            44.9492879518167,
            41.56699979036345
          ],
          [
            44.94931178169116,
            41.56700355633832
          ],
          [
            44.9493319867403,
            41.567006000000134
          ],
          [
            44.949352702163026,
            41.56700700000014
          ],
          [
            44.94937173271556,
            41.56700600000013
          ],
          [
            44.94938851490997,
            41.56700409701802
          ],
          [
            44.94940457149646,
            41.56700164285045
          ],
          [
            44.949420059444876,
            41.5669979801852
          ],
          [
            44.94943604418158,
            41.56699489302503
          ],
          [
            44.949452927292896,
            41.56698753635363
          ],
          [
            44.949473171628235,
            41.56698177137441
          ],
          [
            44.949496171620304,
            41.56697091418987
          ],
          [
            44.94951769769409,
            41.566959514517826
          ],
          [
            44.94953378725634,
            41.566949106371844
          ],
          [
            44.949548401641884,
            41.5669390655723
          ],
          [
            44.94956093657931,
            41.56692707134828
          ],
          [
            44.94957772450342,
            41.5669122754966
          ],
          [
            44.94959568062929,
            41.56689342582791
          ],
          [
            44.94961276671655,
            41.56687264437813
          ],
          [
            44.949630268211465,
            41.566852188269586
          ],
          [
            44.94964972412841,
            41.56682759483971
          ],
          [
            44.94966975467221,
            41.56680270894634
          ],
          [
            44.94969083874283,
            41.56677736556215
          ],
          [
            44.94971175350043,
            41.56675380812482
          ],
          [
            44.949732136053896,
            41.56672972193955
          ],
          [
            44.94975444239171,
            41.56670394701066
          ],
          [
            44.949773392299775,
            41.5666827596254
          ],
          [
            44.94979254331442,
            41.56666345668566
          ],
          [
            44.949813505255676,
            41.56664186843079
          ],
          [
            44.94983964894574,
            41.56661435105445
          ],
          [
            44.94986427286575,
            41.56658986856413
          ],
          [
            44.9498897560087,
            41.56656887079403
          ],
          [
            44.94991360646165,
            41.56654977547714
          ],
          [
            44.94995230980812,
            41.566526345096115
          ],
          [
            44.94997765326641,
            41.56651367336689
          ],
          [
            44.94999754107721,
            41.56650603767697
          ],
          [
            44.950015115410686,
            41.56649931409837
          ],
          [
            44.950031448863584,
            41.566495465340985
          ],
          [
            44.95004664387286,
            41.56649085055708
          ],
          [
            44.95006380521399,
            41.566488438957286
          ],
          [
            44.950082376686964,
            41.566485000000114
          ],
          [
            44.95010146862854,
            41.56648300000005
          ],
          [
            44.950122102516964,
            41.56648300000005
          ],
          [
            44.95014386646951,
            41.56648507220585
          ],
          [
            44.95016831833414,
            41.566488603333596
          ],
          [
            44.95018972301168,
            41.56649374460245
          ],
          [
            44.95021398813495,
            41.56650039644057
          ],
          [
            44.95023755453588,
            41.56651159658507
          ],
          [
            44.950259083722266,
            41.56652449095687
          ],
          [
            44.95027588509015,
            41.56653677445399
          ],
          [
            44.950291023674765,
            41.56654943314482
          ],
          [
            44.95030081214641,
            41.56656081214643
          ],
          [
            44.95030866000666,
            41.566571724009535
          ],
          [
            44.950316979567724,
            41.56658320402764
          ],
          [
            44.95032547881653,
            41.566597627976584
          ],
          [
            44.95033016968917,
            41.566614187824236
          ],
          [
            44.95033384324673,
            41.566631372987146
          ],
          [
            44.95033575480448,
            41.566651038436014
          ],
          [
            44.95033448554264,
            41.566669572287104
          ],
          [
            44.950328435036305,
            41.56669069489137
          ],
          [
            44.95031652815586,
            41.56671504931958
          ],
          [
            44.95030354080735,
            41.56673345919281
          ],
          [
            44.95028919389191,
            41.56674926237856
          ],
          [
            44.950273197769775,
            41.566765787017225
          ],
          [
            44.95025091181012,
            41.566783452166376
          ],
          [
            44.950225745374134,
            41.56679936368122
          ],
          [
            44.95019906561232,
            41.56681510536474
          ],
          [
            44.95017052357589,
            41.5668307382121
          ],
          [
            44.95014340670701,
            41.56684291387231
          ],
          [
            44.950116820895154,
            41.56685240796058
          ],
          [
            44.950092487346154,
            41.56686513238155
          ],
          [
            44.95006422683993,
            41.566877572150254
          ],
          [
            44.95003766648779,
            41.56689066675628
          ],
          [
            44.950014299414526,
            41.56690262524415
          ],
          [
            44.94999332038824,
            41.56691433980617
          ],
          [
            44.949971227767755,
            41.56692478380248
          ],
          [
            44.94994902559006,
            41.56693798720524
          ],
          [
            44.949922057202656,
            41.56695141814405
          ],
          [
            44.949898916191394,
            41.56696695866627
          ],
          [
            44.94987493951198,
            41.566982589446056
          ],
          [
            44.94984984287424,
            41.56699992570075
          ],
          [
            44.94982662669884,
            41.56701789864118
          ],
          [
            44.94980429593256,
            41.567035333661075
          ],
          [
            44.949781319331464,
            41.567053453779415
          ],
          [
            44.949757215775094,
            41.56707185615024
          ],
          [
            44.94973112778679,
            41.56709249777078
          ],
          [
            44.94970097285106,
            41.56711562171938
          ],
          [
            44.94967717526212,
            41.56713365979065
          ],
          [
            44.94965518131564,
            41.56714856089952
          ],
          [
            44.94963139828302,
            41.567160561030356
          ],
          [
            44.949605907061134,
            41.567172038724514
          ],
          [
            44.949580250722484,
            41.56718131219902
          ],
          [
            44.949557878361155,
            41.56718856653214
          ],
          [
            44.949537730824055,
            41.56719392897745
          ],
          [
            44.94951822070565,
            41.56719698302266
          ],
          [
            44.949498134141635,
            41.56720145122006
          ],
          [
            44.94947404914046,
            41.56720476167087
          ],
          [
            44.94944583141946,
            41.56720600000021
          ],
          [
            44.94941621955534,
            41.567207000000174
          ],
          [
            44.949391478992005,
            41.567207931572796
          ],
          [
            44.949368561289276,
            41.56720937518638
          ],
          [
            44.94934604436871,
            41.56721100000011
          ],
          [
            44.94931986302175,
            41.56721371338135
          ],
          [
            44.94928358871465,
            41.56722037246095
          ],
          [
            44.949241942424585,
            41.56723001919198
          ],
          [
            44.949212301131624,
            41.567239772213014
          ],
          [
            44.94918899860871,
            41.56725066724659
          ],
          [
            44.94916822477215,
            41.56726238761408
          ],
          [
            44.949147542712055,
            41.567274420101825
          ],
          [
            44.94912633434966,
            41.56728879939044
          ],
          [
            44.94910083093481,
            41.567309169065496
          ],
          [
            44.94908243687116,
            41.56732756312922
          ],
          [
            44.94906216132413,
            41.567346745489765
          ],
          [
            44.94904545733328,
            41.56736626014847
          ],
          [
            44.94903027408535,
            41.5673848941642
          ],
          [
            44.94901238931845,
            41.567412221363455
          ],
          [
            44.948997932787684,
            41.56744113442492
          ],
          [
            44.948985857528946,
            41.5674693419306
          ],
          [
            44.9489759415649,
            41.5674951168706
          ],
          [
            44.94896335011926,
            41.56752378717263
          ],
          [
            44.94894882096948,
            41.56756035806144
          ],
          [
            44.94893171464919,
            41.567597284842186
          ],
          [
            44.94891722433442,
            41.56762930646464
          ],
          [
            44.94890058380878,
            41.56766328489966
          ],
          [
            44.948894022187865,
            41.56767695118669
          ],
          [
            44.94888837137455,
            41.56768850870134
          ],
          [
            44.94888338154606,
            41.5677002369081
          ],
          [
            44.94887761743037,
            41.567711765139386
          ],
          [
            44.94887414668556,
            41.56771870662918
          ],
          [
            44.94887608919901,
            41.56771482160238
          ],
          [
            44.94886971890128,
            41.56772615601279
          ],
          [
            44.9488636788561,
            41.56773757074594
          ],
          [
            44.94885818476742,
            41.56774916126118
          ],
          [
            44.948851969216584,
            41.567760556437754
          ],
          [
            44.948844677660844,
            41.56777392428884
          ],
          [
            44.948825184499015,
            41.5678089694306
          ],
          [
            44.94881235685149,
            41.5678351025405
          ],
          [
            44.94879772847408,
            41.56785833113119
          ],
          [
            44.948784059847895,
            41.567885754547056
          ],
          [
            44.948765881618066,
            41.56791563151239
          ],
          [
            44.9487488719683,
            41.56794540139168
          ],
          [
            44.948733610942256,
            41.567974412940025
          ],
          [
            44.94871583659775,
            41.56800428011817
          ],
          [
            44.94869600573798,
            41.56803899016347
          ],
          [
            44.948677731244615,
            41.56806952679373
          ],
          [
            44.94866526024789,
            41.5680914795045
          ],
          [
            44.94865278236993,
            41.568111797367195
          ],
          [
            44.94863729743539,
            41.56813203801099
          ],
          [
            44.94861672886255,
            41.56815512990012
          ],
          [
            44.94858897410222,
            41.56818062071845
          ],
          [
            44.948561443143525,
            41.56820173411391
          ],
          [
            44.94853520579166,
            41.56821806956843
          ],
          [
            44.94850898494194,
            41.5682319229411
          ],
          [
            44.9484813751374,
            41.56824315173681
          ],
          [
            44.94845298972062,
            41.56825215542766
          ],
          [
            44.94841390243327,
            41.56825600000004
          ],
          [
            44.94837389399944,
            41.56825600000013
          ],
          [
            44.94834021679806,
            41.56825560239985
          ],
          [
            44.948311829165746,
            41.56825344388896
          ],
          [
            44.94828548128351,
            41.56825066417128
          ],
          [
            44.94825554870466,
            41.568245539827466
          ],
          [
            44.94821482561459,
            41.568238962632684
          ],
          [
            44.948170752968586,
            41.568230400791776
          ],
          [
            44.94813028869773,
            41.5682212761496
          ],
          [
            44.94809252678233,
            41.56821117559443
          ],
          [
            44.94806036388772,
            41.56819978796276
          ],
          [
            44.94803173731035,
            41.56818928358096
          ],
          [
            44.948005859234584,
            41.568176796814996
          ],
          [
            44.94797937054525,
            41.56816218527267
          ],
          [
            44.947949821098874,
            41.56814401507148
          ],
          [
            44.94791886767391,
            41.56812257844951
          ],
          [
            44.94789555485108,
            41.568103554851525
          ],
          [
            44.94787669552774,
            41.56808611941005
          ],
          [
            44.9478605154114,
            41.56806839426435
          ],
          [
            44.94784486975328,
            41.56804673950684
          ],
          [
            44.94783119614098,
            41.56802102625967
          ],
          [
            44.947822093795764,
            41.56799173448969
          ],
          [
            44.94781486500613,
            41.56796575753416
          ],
          [
            44.947813000000004,
            41.56794244842975
          ],
          [
            44.94781100000001,
            41.56791843497718
          ],
          [
            44.947813391463384,
            41.56789160488096
          ],
          [
            44.94781673682296,
            41.567861579062765
          ],
          [
            44.94782198859145,
            41.56782306845187
          ],
          [
            44.947827544007346,
            41.56779473595633
          ],
          [
            44.94783314263998,
            41.56777100101407
          ],
          [
            44.94783854064922,
            41.56774843091158
          ],
          [
            44.947844217373586,
            41.567726130506195
          ],
          [
            44.94785109398077,
            41.56769971805825
          ],
          [
            44.94786086571613,
            41.567669059518586
          ],
          [
            44.94786972546404,
            41.56763652298983
          ],
          [
            44.9478782893814,
            41.56760907934775
          ],
          [
            44.947887100426996,
            41.567583338890216
          ],
          [
            44.947895060471936,
            41.56755844277338
          ],
          [
            44.94790439758354,
            41.56753004579967
          ],
          [
            44.94791602049493,
            41.56749875081274
          ],
          [
            44.94792988106813,
            41.56746648543703
          ],
          [
            44.94794412564704,
            41.56743672357655
          ],
          [
            44.94795864748023,
            41.56740803289158
          ],
          [
            44.94798088434002,
            41.56737616522854
          ],
          [
            44.94799968945354,
            41.567350678385395
          ],
          [
            44.9480145978835,
            41.567334024103864
          ],
          [
            44.948026147395744,
            41.56732009120403
          ],
          [
            44.948040337525654,
            41.56730886373228
          ],
          [
            44.94805360219625,
            41.5672967230785
          ],
          [
            44.948070236138335,
            41.56728503855919
          ],
          [
            44.94808699025626,
            41.56727450487195
          ],
          [
            44.948102820501745,
            41.56726562564908
          ],
          [
            44.94811815181219,
            41.56725695445634
          ],
          [
            44.948136995734004,
            41.56724950213307
          ],
          [
            44.948159452346694,
            41.56724187663278
          ],
          [
            44.948187220376084,
            41.5672347559249
          ],
          [
            44.948220068818955,
            41.56722971476032
          ],
          [
            44.9482445032064,
            41.56722700000005
          ],
          [
            44.94826613860845,
            41.56722847974711
          ],
          [
            44.94828715855744,
            41.56722900000014
          ],
          [
            44.94830872706585,
            41.56723157270669
          ],
          [
            44.94833000079906,
            41.56723580023985
          ],
          [
            44.9483474114895,
            41.56723942344692
          ],
          [
            44.94836240737084,
            41.567244562948495
          ],
          [
            44.948377197721115,
            41.567249748575776
          ],
          [
            44.94839100876078,
            41.567256102628356
          ],
          [
            44.94840370209094,
            41.56726368880699
          ],
          [
            44.94841722712257,
            41.56727157062371
          ],
          [
            44.948429509487994,
            41.567283722419006
          ],
          [
            44.94844512781525,
            41.56729997894155
          ],
          [
            44.94845980814419,
            41.5673271603099
          ],
          [
            44.9484684488521,
            41.567352590817016
          ],
          [
            44.948470988262066,
            41.56738090022758
          ],
          [
            44.94846758125228,
            41.567407674991024
          ],
          [
            44.94846074536117,
            41.56742967903694
          ],
          [
            44.94845313932376,
            41.56744737708214
          ],
          [
            44.94844410838578,
            41.567464648260106
          ],
          [
            44.94843063830618,
            41.567481706371545
          ],
          [
            44.94841789069351,
            41.56749710930667
          ],
          [
            44.94840517456113,
            41.56750922907327
          ],
          [
            44.948393789810936,
            41.567520308915505
          ],
          [
            44.94838125748952,
            41.56753111376607
          ],
          [
            44.948367935353104,
            41.56754293156615
          ],
          [
            44.9483541704463,
            41.56755469129591
          ],
          [
            44.948339734146074,
            41.567566540108864
          ],
          [
            44.94832091899026,
            41.56758046613631
          ],
          [
            44.94830374985016,
            41.56759396888131
          ],
          [
            44.94828646037818,
            41.56760819748379
          ],
          [
            44.948262610294435,
            41.567629550735234
          ],
          [
            44.94824156425487,
            41.56765043574542
          ],
          [
            44.94822540904309,
            41.567666189449945
          ],
          [
            44.94820973917527,
            41.56768168109989
          ],
          [
            44.94819484211558,
            41.5676980375823
          ],
          [
            44.948179813966846,
            41.56771566044657
          ],
          [
            44.94816564655764,
            41.567733694819495
          ],
          [
            44.948159178340774,
            41.567746914655025
          ],
          [
            44.94815322857444,
            41.56775846665968
          ],
          [
            44.94814862377307,
            41.56777038604265
          ],
          [
            44.94814428896734,
            41.56778342206538
          ],
          [
            44.948143330653885,
            41.567798024115255
          ],
          [
            44.948142999999995,
            41.567813912032335
          ],
          [
            44.94814446621666,
            41.567834097975194
          ],
          [
            44.94815071543224,
            41.56785500401297
          ],
          [
            44.94815879212932,
            41.5678738483019
          ],
          [
            44.94816866151136,
            41.56789072611612
          ],
          [
            44.94817946101051,
            41.56790347215052
          ],
          [
            44.94819256722378,
            41.56791454801713
          ],
          [
            44.94820395930876,
            41.567923964395156
          ],
          [
            44.948216971100656,
            41.56793123916283
          ],
          [
            44.948231250535734,
            41.56793725029777
          ],
          [
            44.948245931645616,
            41.56794179316462
          ],
          [
            44.948260940128094,
            41.56794636751608
          ],
          [
            44.94827700009089,
            41.56794883334853
          ],
          [
            44.94829322210614,
            41.567949949473984
          ],
          [
            44.94830953822429,
            41.567951000000015
          ],
          [
            44.94832579324619,
            41.56795004135089
          ],
          [
            44.94834203263859,
            41.56794882789362
          ],
          [
            44.94835934920768,
            41.56794636507934
          ],
          [
            44.9483766168088,
            41.56794091495748
          ],
          [
            44.9483977843697,
            41.567934086252286
          ],
          [
            44.948425129895384,
            41.567924935052446
          ],
          [
            44.948452818788454,
            41.567909863257306
          ],
          [
            44.948472476467536,
            41.56789508309117
          ],
          [
            44.94848669736419,
            41.56788168640865
          ],
          [
            44.948499614027824,
            41.56787038597231
          ],
          [
            44.94850883578734,
            41.567857295582854
          ],
          [
            44.948519767353524,
            41.56784372570524
          ],
          [
            44.94853291969471,
            41.56782612848845
          ],
          [
            44.948546909599365,
            41.56780118080154
          ],
          [
            44.94855983360851,
            41.567780332783194
          ],
          [
            44.94856967669583,
            41.56776264660853
          ],
          [
            44.948580351455774,
            41.56774674119349
          ],
          [
            44.94858904235985,
            41.56773208839485
          ],
          [
            44.948597524221086,
            41.567717951557974
          ],
          [
            44.94860606577508,
            41.56770286845022
          ],
          [
            44.948617779574555,
            41.56768544085126
          ],
          [
            44.94863150149954,
            41.56766361307898
          ],
          [
            44.948646575292436,
            41.56763817815379
          ],
          [
            44.94866842284228,
            41.56760353879714
          ],
          [
            44.94868703229433,
            41.56757537782346
          ],
          [
            44.948702966562124,
            41.56755033348312
          ],
          [
            44.94871993351727,
            41.56752582825643
          ],
          [
            44.94873733458293,
            41.56750233177157
          ],
          [
            44.948757143642204,
            41.567478320447556
          ],
          [
            44.94877613240697,
            41.56745073518645
          ],
          [
            44.94878877146174,
            41.56742545707673
          ],
          [
            44.94879970362159,
            41.56740332126174
          ],
          [
            44.948807089291186,
            41.56738127677232
          ],
          [
            44.94881124862095,
            41.56735775689544
          ],
          [
            44.948813,
            41.567331875931686
          ],
          [
            44.94881122745937,
            41.567310137297035
          ],
          [
            44.948809000000004,
            41.56729097429706
          ],
          [
            44.94880424246609,
            41.56727221233063
          ],
          [
            44.948796999452476,
            41.567253799014686
          ],
          [
            44.94878608274099,
            41.56723216548199
          ],
          [
            44.94876984591338,
            41.56720595234957
          ],
          [
            44.94874652889119,
            41.567179332743834
          ],
          [
            44.94872051569148,
            41.56715077353755
          ],
          [
            44.94870019279261,
            41.56712624099121
          ],
          [
            44.94868509017302,
            41.567103557390254
          ],
          [
            44.948672652470506,
            41.567081304941354
          ],
          [
            44.94866162282889,
            41.56705807609653
          ],
          [
            44.94865556628397,
            41.56703383142009
          ],
          [
            44.948651,
            41.56700263286638
          ],
          [
            44.948651,
            41.566971859489556
          ],
          [
            44.94864878154955,
            41.566946239170775
          ],
          [
            44.94864801362568,
            41.56692009879532
          ],
          [
            44.948652187710316,
            41.566894864423006
          ],
          [
            44.94866070336804,
            41.56686979049891
          ],
          [
            44.94867221733645,
            41.56684736180398
          ],
          [
            44.948683338872534,
            41.56683039526822
          ],
          [
            44.94869460362217,
            41.56681638668824
          ],
          [
            44.948706926707004,
            41.5668026375588
          ],
          [
            44.94872101314713,
            41.56678747661239
          ],
          [
            44.94874150154287,
            41.56676872427095
          ],
          [
            44.948772728394886,
            41.56674288262381
          ],
          [
            44.94880395107222,
            41.56671814724598
          ],
          [
            44.94883406820722,
            41.56669562021024
          ],
          [
            44.9488576341131,
            41.56667900884666
          ],
          [
            44.94887916089779,
            41.56666405875399
          ],
          [
            44.94890233765924,
            41.56664803775968
          ],
          [
            44.948927570729666,
            41.56663067488997
          ],
          [
            44.94895468952873,
            41.56661230092662
          ],
          [
            44.94898320855547,
            41.56659311515237
          ],
          [
            44.94900886977496,
            41.56657605997282
          ],
          [
            44.94903293353948,
            41.56656012610055
          ],
          [
            44.94905874075125,
            41.566543208971375
          ],
          [
            44.94908817224597,
            41.56652389489933
          ],
          [
            44.94912114421913,
            41.56650252175919
          ],
          [
            44.94914704120791,
            41.5664857677825
          ],
          [
            44.9491711186556,
            41.566470269240384
          ],
          [
            44.94919679628063,
            41.56645378659188
          ],
          [
            44.949224677946226,
            41.56643592382155
          ],
          [
            44.94925910274269,
            41.56641394101218
          ],
          [
            44.94929983685387,
            41.56638798428417
          ],
          [
            44.94933568413937,
            41.566365184748136
          ],
          [
            44.94937065646488,
            41.56634296119821
          ],
          [
            44.94940527668034,
            41.566320976832046
          ],
          [
            44.94944287756916,
            41.566297107111346
          ]
        ]
      }
    }
  ]
}