{
"type": "FeatureCollection",
"name": "centerline",
"crs": { "type": "name", "properties": { "name": "urn:ogc:def:crs:OGC:1.3:CRS84" } },
"features": [
{ "type": "Feature", "properties": { "name": "centerline" }, "geometry": { "type": "LineString", "coordinates": [ [ 44.949465766500886, 41.566316211625058 ], [ 44.949477676103932, 41.566308621978678 ], [ 44.949489618227688, 41.566301060726055 ], [ 44.949501568965509, 41.566293506993844 ], [ 44.949513519700552, 41.566285953260362 ], [ 44.949525474269159, 41.566278403028058 ], [ 44.949537448625584, 41.566270870862411 ], [ 44.949549463982514, 41.56626337612942 ], [ 44.949561527290669, 41.566255925169131 ], [ 44.949573633919016, 41.566248513738202 ], [ 44.949585776526654, 41.56624113512509 ], [ 44.949597939540773, 41.566233775116331 ], [ 44.949610106542352, 41.566226418716191 ], [ 44.949622276778562, 41.566219065382874 ], [ 44.94963446602857, 41.566211730011275 ], [ 44.949646686215296, 41.566204423851453 ], [ 44.949658926763504, 41.566197136912123 ], [ 44.949671165231827, 41.566189848054186 ], [ 44.949683406192506, 41.566182562169168 ], [ 44.949695705879329, 41.566175333724416 ], [ 44.949708111841225, 41.566168208473904 ], [ 44.949720600630151, 41.566161163805297 ], [ 44.94973312861179, 41.56615415808303 ], [ 44.949745679563762, 41.566147175864451 ], [ 44.949758243116683, 41.566140206571482 ], [ 44.949770801566125, 41.566133232116854 ], [ 44.949783333341443, 41.566126230542309 ], [ 44.94979582810479, 41.566119191336675 ], [ 44.94980830317386, 41.566112132104003 ], [ 44.949820790509925, 41.56610508532718 ], [ 44.949833310176039, 41.56609807139116 ], [ 44.949845857453965, 41.566091085480856 ], [ 44.949858416930212, 41.566084111847225 ], [ 44.949870988145221, 41.566077149917248 ], [ 44.949883582081824, 41.566070210910169 ], [ 44.949896200275504, 41.566063296611105 ], [ 44.949908834131008, 41.566056398414297 ], [ 44.949921476264869, 41.566049508799686 ], [ 44.949934125748179, 41.566042626866157 ], [ 44.949947170958119, 41.566035541295861 ], [ 44.949961382568262, 41.56602782303964 ], [ 44.949976366700241, 41.566019677667278 ], [ 44.949990571293128, 41.566011952044832 ], [ 44.950003610537891, 41.566004860203854 ], [ 44.950016261288475, 41.565997979579656 ], [ 44.9500289067648, 41.565991093530528 ], [ 44.950041540500827, 41.565984197426474 ], [ 44.95005378341277, 41.565977516261547 ], [ 44.950064490212796, 41.56597170284526 ], [ 44.950073337598987, 41.565967040980077 ], [ 44.950082441766774, 41.565962706968264 ], [ 44.950093448899018, 41.565958013262943 ], [ 44.950104622519774, 41.565953598850442 ], [ 44.950114352549456, 41.565950297449199 ], [ 44.950124092823017, 41.565947996745187 ], [ 44.950135095681759, 41.565946310909744 ], [ 44.950146739442253, 41.565945200925746 ], [ 44.950158462057409, 41.565944712992469 ], [ 44.950170175494065, 41.565944925450367 ], [ 44.950181774819271, 41.565946004119994 ], [ 44.95019313712649, 41.565948039185031 ], [ 44.950203699819987, 41.565950842307316 ], [ 44.950212900339515, 41.565954199742059 ], [ 44.950221549585137, 41.565958307428772 ], [ 44.95023056940952, 41.565963284105479 ], [ 44.950239606601954, 41.565968840578989 ], [ 44.950248307495514, 41.565974731619661 ], [ 44.950256743851767, 41.565980869499057 ], [ 44.950264916778544, 41.565987219970104 ], [ 44.950273080432112, 41.565994063434175 ], [ 44.950281931308893, 41.56600189012282 ], [ 44.950291707726556, 41.566010553448621 ], [ 44.950301914973416, 41.566019424596448 ], [ 44.950312193066118, 41.566028255349529 ], [ 44.950322479303964, 41.566037081793361 ], [ 44.950332741763305, 41.566045923997976 ], [ 44.950342961295625, 41.566054794654598 ], [ 44.950353458108104, 41.566063961858973 ], [ 44.950364906649625, 41.566073938663365 ], [ 44.950377070779631, 41.566084399508163 ], [ 44.950388733301537, 41.566094228761841 ], [ 44.950399527551824, 41.566103190737188 ], [ 44.950410007216369, 41.566111881586458 ], [ 44.95042046633997, 41.566120583176861 ], [ 44.950430920667536, 41.56612927582723 ], [ 44.950441739293709, 41.566138195638707 ], [ 44.950453697420819, 41.566147795907533 ], [ 44.950466591947752, 41.566157727743878 ], [ 44.950479094336366, 41.566166946179813 ], [ 44.950491212403072, 41.566175424711489 ], [ 44.950504444101519, 41.566184036704612 ], [ 44.950518820876511, 41.566192737280794 ], [ 44.950532784333916, 41.566200676581666 ], [ 44.950545833360138, 41.566207745522121 ], [ 44.95055860229192, 41.566214499686716 ], [ 44.950571411678226, 41.566221212041334 ], [ 44.950584266979085, 41.566227874054903 ], [ 44.950597170822483, 41.566234482846077 ], [ 44.950610100252447, 41.566241063584712 ], [ 44.950623034719257, 41.566247638808569 ], [ 44.950635963032276, 41.566254220894564 ], [ 44.950648871376025, 41.566260825253984 ], [ 44.950661759192236, 41.566267452570109 ], [ 44.950674653569159, 41.566274072764053 ], [ 44.950687576178368, 41.56628066172614 ], [ 44.950700518793219, 41.566287228532666 ], [ 44.950713466111445, 41.566293790131461 ], [ 44.950726413854731, 41.566300351248529 ], [ 44.950739363463207, 41.566306910246603 ], [ 44.950752316300097, 41.566313465575874 ], [ 44.950765271866089, 41.566320017804003 ], [ 44.950778629037771, 41.566326766964885 ], [ 44.950793189088294, 41.566334109107288 ], [ 44.95080855622512, 41.566341840622179 ], [ 44.950823134455412, 41.566349161841678 ], [ 44.950836517329172, 41.566355881229832 ], [ 44.950849477109323, 41.566362427410361 ], [ 44.95086237637318, 41.566369040591525 ], [ 44.950875197499933, 41.566375739429198 ], [ 44.950887956715704, 41.566382505305597 ], [ 44.950900687682584, 41.566389301451757 ], [ 44.950913413786559, 41.566396102763406 ], [ 44.950926140900606, 41.566402902990397 ], [ 44.950938868513198, 41.566409702682755 ], [ 44.950951596226069, 41.566416502268744 ], [ 44.950964335032381, 41.566423289612153 ], [ 44.950977118847874, 41.566430027082376 ], [ 44.950989971784324, 41.566436687475587 ], [ 44.951002872947008, 41.566443293459741 ], [ 44.951015787776775, 41.566449883572631 ], [ 44.951028654513621, 41.566456520273618 ], [ 44.951040934699513, 41.566463139018445 ], [ 44.951051719274417, 41.566469446221973 ], [ 44.951061388821202, 41.566475653307684 ], [ 44.951071135904343, 41.566482339933707 ], [ 44.951080532307948, 41.566489283218054 ], [ 44.951088955973063, 41.566496408332767 ], [ 44.951096978822051, 41.566504252148619 ], [ 44.951104370128917, 41.566512428743358 ], [ 44.951110622844823, 41.566520703427798 ], [ 44.951116223263561, 41.566529661099899 ], [ 44.951121298912248, 41.566538804696464 ], [ 44.95112543249067, 41.566547421113327 ], [ 44.951128395657875, 41.566555531609055 ], [ 44.951130036818334, 41.566563118214631 ], [ 44.951130422998013, 41.566571177168065 ], [ 44.951129846252861, 41.56658068774275 ], [ 44.95112847528933, 41.56659051077736 ], [ 44.951126203353745, 41.566599880501201 ], [ 44.951122836678465, 41.566609829386415 ], [ 44.951118600805344, 41.566620347818322 ], [ 44.951113993072916, 41.566630000473289 ], [ 44.951109030777133, 41.566638362730309 ], [ 44.951103357505815, 41.566646045580136 ], [ 44.951096836705588, 41.566653350655038 ], [ 44.951089607871864, 41.566660301860693 ], [ 44.951081507575687, 41.566667192434664 ], [ 44.95107228248046, 41.566674281931334 ], [ 44.951062619838801, 41.566681021487703 ], [ 44.95105274901443, 41.566687003547536 ], [ 44.951041944760405, 41.566692659686083 ], [ 44.95103077156638, 41.566697916853279 ], [ 44.951019651697457, 41.566702535564531 ], [ 44.951007772837656, 41.566706827630483 ], [ 44.950995596159217, 41.566710569947006 ], [ 44.950983493206813, 41.566713385585018 ], [ 44.950970640322851, 41.566715602351998 ], [ 44.950957664891895, 41.566717405575297 ], [ 44.950945063530391, 41.566718654043029 ], [ 44.950931903245738, 41.566719449743587 ], [ 44.950918709164696, 41.566719932672449 ], [ 44.95090598919559, 41.566720068327989 ], [ 44.950892797550864, 41.566719860200891 ], [ 44.950879626986705, 41.566719383706463 ], [ 44.950867476905259, 41.566718550605437 ], [ 44.950855936779213, 41.566717116590205 ], [ 44.950844168714305, 41.566714783892635 ], [ 44.95083180357841, 41.566711432022366 ], [ 44.950819831046928, 41.566707377947829 ], [ 44.950808851261414, 41.566702682860225 ], [ 44.950797631835762, 41.566696888785536 ], [ 44.950786080591676, 41.566690193362291 ], [ 44.950775726766196, 41.566683512656688 ], [ 44.950766562707294, 41.566676897466792 ], [ 44.950757096781906, 41.566669480844382 ], [ 44.950746876654662, 41.566661106349905 ], [ 44.95073644222677, 41.566652383541921 ], [ 44.950725997198184, 41.56664366475912 ], [ 44.950715479706766, 41.566634994107801 ], [ 44.950704900409633, 41.566626364509368 ], [ 44.950694295539591, 41.566617751897617 ], [ 44.950683688220614, 41.56660914088004 ], [ 44.950673087671952, 41.566600525225439 ], [ 44.950662498219202, 41.566591901970483 ], [ 44.950651917420515, 41.566583272788023 ], [ 44.950641339729337, 41.566574641477693 ], [ 44.950630762437292, 41.566566009909963 ], [ 44.950620179592036, 41.56655738228789 ], [ 44.950609574329796, 41.566548770434721 ], [ 44.950598935342825, 41.566540182227058 ], [ 44.950588273841035, 41.56653160977995 ], [ 44.950577606707768, 41.566523041271815 ], [ 44.950566939577307, 41.566514472762684 ], [ 44.950556272449681, 41.566505904252544 ], [ 44.950545608086557, 41.56649733381348 ], [ 44.950534961707419, 41.566488750820866 ], [ 44.950524359638827, 41.566480136896324 ], [ 44.950513810226163, 41.566471486213935 ], [ 44.95050329131557, 41.566462814239259 ], [ 44.950492449942523, 41.566453875609106 ], [ 44.950480614265544, 41.566444155807744 ], [ 44.950468095360229, 41.566433929461162 ], [ 44.950456202997387, 41.566424249303935 ], [ 44.950445294501236, 41.566415357650229 ], [ 44.950434745799647, 41.566406706618395 ], [ 44.950424230439516, 41.566398032341816 ], [ 44.950413736013488, 41.566389343608677 ], [ 44.950403264407804, 41.566380639419862 ], [ 44.950392814679731, 41.566371920665077 ], [ 44.950382345886062, 41.566363215930537 ], [ 44.950371794306193, 41.566354569716424 ], [ 44.950361150525147, 41.566345988531822 ], [ 44.950350496994147, 41.566337414504225 ], [ 44.95033993702576, 41.566328775231369 ], [ 44.95032948438476, 41.566320060903543 ], [ 44.950319036238682, 41.56631134345573 ], [ 44.950308094895391, 41.566302483913233 ], [ 44.950295797417532, 41.566293122292471 ], [ 44.950281463513363, 41.566283330929053 ], [ 44.950264637003144, 41.566273615631012 ], [ 44.950245897938338, 41.566264740980216 ], [ 44.950226954975832, 41.566257573155184 ], [ 44.950208469501348, 41.566252216460974 ], [ 44.95018986983716, 41.566248249282587 ], [ 44.950171360865838, 41.566245538341612 ], [ 44.950153544015791, 41.566244030422496 ], [ 44.950135604907821, 41.56624353012532 ], [ 44.950117177886384, 41.566243862085088 ], [ 44.950098884494935, 41.566245223234013 ], [ 44.950079504228874, 41.566248166478424 ], [ 44.950058729201139, 41.566252806453875 ], [ 44.95003904458548, 41.566258706325435 ], [ 44.950021832439397, 41.566265337699349 ], [ 44.950006862285306, 41.56627212549644 ], [ 44.949993528802125, 41.566278854621331 ], [ 44.949980489511411, 41.566285920094991 ], [ 44.949966433198149, 41.566293786836752 ], [ 44.949951682253037, 41.566302165768192 ], [ 44.949937755689945, 41.566310170809189 ], [ 44.949925012922364, 41.566317560251086 ], [ 44.949912661862221, 41.566324741614011 ], [ 44.949900310799343, 41.566331922975593 ], [ 44.949887959733729, 41.566339104335839 ], [ 44.949875608665387, 41.566346285694756 ], [ 44.949863257594302, 41.566353467052302 ], [ 44.949850906520489, 41.566360648408555 ], [ 44.949838555443939, 41.566367829763458 ], [ 44.949826204364655, 41.566375011117003 ], [ 44.949813853282635, 41.566382192469227 ], [ 44.949801502197879, 41.566389373820122 ], [ 44.949789151110387, 41.566396555169661 ], [ 44.949776807972178, 41.566403743936831 ], [ 44.949764501791464, 41.566410967185355 ], [ 44.949752263928836, 41.566418254173662 ], [ 44.949740088784658, 41.566425599677522 ], [ 44.949727942198514, 41.566432971826352 ], [ 44.949715439801771, 41.566440585991373 ], [ 44.949701871828609, 41.566448927556138 ], [ 44.949687651159024, 41.566457806617642 ], [ 44.949674256247469, 41.566466305872176 ], [ 44.94966201344117, 41.566474156570941 ], [ 44.949650148899288, 41.566481785827257 ], [ 44.94963828435462, 41.566489415082344 ], [ 44.949626419807153, 41.566497044336195 ], [ 44.949614555256893, 41.566504673588817 ], [ 44.949602694270638, 41.566512305905391 ], [ 44.949590856664294, 41.566519958315219 ], [ 44.949579076918106, 41.566527660449687 ], [ 44.949567366129578, 41.566535421845742 ], [ 44.949555695367238, 41.566543217640479 ], [ 44.949544033717643, 41.566551021267678 ], [ 44.949532372065249, 41.566558824893683 ], [ 44.949520710410034, 41.56656662851848 ], [ 44.94950904875202, 41.566574432142097 ], [ 44.949497387091206, 41.566582235764521 ], [ 44.949485372977705, 41.566590283657902 ], [ 44.949472312535875, 41.56659907355403 ], [ 44.94945859128849, 41.566608388743482 ], [ 44.949445641084694, 41.566617270513269 ], [ 44.949433792326253, 41.566625456216265 ], [ 44.949422307039697, 41.566633406833738 ], [ 44.949410821750327, 41.566641357450052 ], [ 44.949399336458129, 41.566649308065223 ], [ 44.949387851163131, 41.566657258679221 ], [ 44.949376365865312, 41.566665209292054 ], [ 44.949364880564673, 41.566673159903722 ], [ 44.94935339526122, 41.566681110514253 ], [ 44.949341911446318, 41.566689062315334 ], [ 44.949330439785463, 41.566697023829612 ], [ 44.949319001835534, 41.56670501228286 ], [ 44.949307606996577, 41.566713035186517 ], [ 44.949296238411719, 41.566721079070518 ], [ 44.949284876015426, 41.566729127900821 ], [ 44.949273513616319, 41.566737176730008 ], [ 44.949262151214391, 41.566745225558051 ], [ 44.949250788809636, 41.566753274384943 ], [ 44.949239426402066, 41.566761323210713 ], [ 44.949227718356525, 41.566769621772103 ], [ 44.949214972237712, 41.566778668616514 ], [ 44.949201881934677, 41.566787966353658 ], [ 44.949190181495844, 41.566796270971643 ], [ 44.949179169845372, 41.566804074150454 ], [ 44.94916710795718, 41.566812615946574 ], [ 44.949154702309961, 41.566821408974903 ], [ 44.949142829102037, 41.566830068482943 ], [ 44.949131011902004, 41.566839674998263 ], [ 44.949119521859359, 41.566851566640942 ], [ 44.949109499551987, 41.566867164498596 ], [ 44.94910242311699, 41.566886152674059 ], [ 44.949100135534174, 41.566905774187369 ], [ 44.949103576315828, 41.566924663931971 ], [ 44.949112188440232, 41.566942688085597 ], [ 44.949124821354673, 41.566958504130028 ], [ 44.949140145877585, 41.566971180658911 ], [ 44.949156278643514, 41.566980710342563 ], [ 44.94917204774692, 41.566987389376727 ], [ 44.949188364661531, 41.566992275847035 ], [ 44.949206499063152, 41.566996432384315 ], [ 44.949226301113079, 41.567000173253476 ], [ 44.94924542546903, 41.567003174342844 ], [ 44.949262960113295, 41.567005112981995 ], [ 44.949283568305489, 41.567006368086723 ], [ 44.94930991139649, 41.567006804565885 ], [ 44.949338691184153, 41.567004733280385 ], [ 44.949367291335903, 41.566998842063242 ], [ 44.949392893085658, 41.56699059753894 ], [ 44.949412100849756, 41.566982790114288 ], [ 44.949426157874498, 41.566976027708442 ], [ 44.949438415360618, 41.566969128523567 ], [ 44.949450053916493, 41.566961512249193 ], [ 44.949461183110834, 41.566953350352456 ], [ 44.949471984931115, 41.566944892836339 ], [ 44.949482926269262, 41.566936027640779 ], [ 44.949494757594593, 41.566926305281591 ], [ 44.949507218527117, 41.566916038212987 ], [ 44.949519028294112, 41.566906300194717 ], [ 44.94952985065143, 41.566897348531477 ], [ 44.949540321519279, 41.566888643850476 ], [ 44.94955076934535, 41.566879923567178 ], [ 44.949561208013137, 41.56687119708311 ], [ 44.949571645319828, 41.566862469678306 ], [ 44.949582082227415, 41.566853742004248 ], [ 44.94959251556714, 41.566845011915973 ], [ 44.94960293860688, 41.566836274856314 ], [ 44.94961334817954, 41.566827528681415 ], [ 44.949623749433712, 41.566818776876467 ], [ 44.949634148705229, 41.566810023730383 ], [ 44.949644547973946, 41.566801270583319 ], [ 44.94965494723985, 41.56679251743531 ], [ 44.949665348000707, 41.566783765292961 ], [ 44.949675755671421, 41.56677501779555 ], [ 44.949686176012527, 41.566766278814661 ], [ 44.949696607871871, 41.566757547575918 ], [ 44.949707049942099, 41.566748823326378 ], [ 44.949717520999506, 41.566740119261119 ], [ 44.949728054034971, 41.56673145840039 ], [ 44.949738654892691, 41.566722844818059 ], [ 44.949749292582268, 41.566714256911375 ], [ 44.949759938220367, 41.566705674546377 ], [ 44.949770900429705, 41.566696821454862 ], [ 44.949782799345719, 41.566687147115879 ], [ 44.949795279357019, 41.566676895045468 ], [ 44.949807048143555, 41.566667130006479 ], [ 44.949817815156692, 41.566658140864241 ], [ 44.949828252581042, 41.566649413376915 ], [ 44.949838690002586, 41.566640685888608 ], [ 44.949849127723724, 41.566631958604674 ], [ 44.949859567491941, 41.566623232711351 ], [ 44.949870012432804, 41.566614510330481 ], [ 44.949880463621966, 41.566605792192313 ], [ 44.949890918471716, 41.566597076540098 ], [ 44.949901374158898, 41.566588361457356 ], [ 44.949911829843273, 41.566579646373647 ], [ 44.949922285524842, 41.566570931288965 ], [ 44.949932741203597, 41.566562216203295 ], [ 44.949943184999555, 41.566553493413046 ], [ 44.949953579616626, 41.566544738733349 ], [ 44.949963886476723, 41.566535927066198 ], [ 44.949974093304199, 41.566527050179488 ], [ 44.949984224810734, 41.566518128012781 ], [ 44.949994060213342, 41.566509502451837 ], [ 44.950003212536863, 41.566501895838577 ], [ 44.950012418013266, 41.566495386545903 ], [ 44.950022847007467, 41.56648941986591 ], [ 44.950033505414147, 41.56648433447733 ], [ 44.950043078037893, 41.566480712991215 ], [ 44.950052703052933, 41.566477979640844 ], [ 44.950063016268778, 41.566475635610743 ], [ 44.950073045767226, 41.566474108278349 ], [ 44.950083722068207, 41.56647365522435 ], [ 44.950096361619472, 41.566474026109049 ], [ 44.950108972053819, 41.566474948386315 ], [ 44.950119505753875, 41.566476467609888 ], [ 44.950129601292254, 41.566479144544452 ], [ 44.950141018860478, 41.56648324895913 ], [ 44.950152431330729, 41.566488154386235 ], [ 44.950162487928353, 41.566493347662295 ], [ 44.950171707072535, 41.566498830650112 ], [ 44.950181018269518, 41.566504807634153 ], [ 44.950191123369365, 41.566511731445736 ], [ 44.950202001684673, 41.566519614684502 ], [ 44.950213088399821, 41.566527861434544 ], [ 44.950224187028951, 41.566536104886531 ], [ 44.950235283128926, 41.566544351210354 ], [ 44.95024622627006, 41.56655270877787 ], [ 44.950256924545251, 41.566561244024925 ], [ 44.950267457543653, 41.566569899200431 ], [ 44.95027794522484, 41.566578587149216 ], [ 44.950288373442383, 41.566587312146652 ], [ 44.95029857716068, 41.566596174650236 ], [ 44.950308421940498, 41.566605254813219 ], [ 44.95031766598327, 41.566614233491215 ], [ 44.950325476084394, 41.566622215416004 ], [ 44.950331296339748, 41.566629015047212 ], [ 44.950336091098485, 41.566636242572443 ], [ 44.950340947266781, 41.566645044040953 ], [ 44.950345358399858, 41.566653976330272 ], [ 44.950348320244096, 41.566661348845983 ], [ 44.95034970070526, 41.566667847977456 ], [ 44.950349811828318, 41.566675506628798 ], [ 44.950348839045802, 41.566684947062321 ], [ 44.950346896236702, 41.566694675180734 ], [ 44.950344016497112, 41.566703541653808 ], [ 44.950340119953502, 41.566711806140027 ], [ 44.950335134815816, 41.566719737516877 ], [ 44.950329155241228, 41.566727288629778 ], [ 44.95032240471609, 41.566734443418824 ], [ 44.950315287489381, 41.566740874839333 ], [ 44.950308343118834, 41.566745928574171 ], [ 44.950301220181416, 41.566749800313815 ], [ 44.950292329291806, 41.566753728695005 ], [ 44.950280659019597, 41.566758326274389 ], [ 44.950266984999551, 41.566763061055063 ], [ 44.950252574180766, 41.566767424212941 ], [ 44.950237981730837, 41.566771517413997 ], [ 44.950223365369617, 41.566775626486631 ], [ 44.95020881613074, 41.566779884539386 ], [ 44.950194338052107, 41.566784282003098 ], [ 44.950179900054124, 41.566788756983236 ], [ 44.950165493729827, 41.566793289098712 ], [ 44.950151126280083, 41.566797889531358 ], [ 44.950136390841202, 41.56680274734039 ], [ 44.950120526895162, 41.566808320197879 ], [ 44.95010407683295, 41.566814615352662 ], [ 44.950088729844687, 41.566820956185339 ], [ 44.950074792090355, 41.566826998566775 ], [ 44.950061340701886, 41.566832959423657 ], [ 44.950047542532438, 41.566839186568266 ], [ 44.950032626125775, 41.566846107281066 ], [ 44.950017075295001, 41.566853616260786 ], [ 44.950002535776363, 41.566860970833446 ], [ 44.949989328079745, 41.566867881108394 ], [ 44.949976560244352, 41.566874637302675 ], [ 44.949963469344269, 41.566881668588678 ], [ 44.949949398052183, 41.56688951348832 ], [ 44.949934801129217, 41.566898025889074 ], [ 44.949921155053637, 41.566906287057108 ], [ 44.949908744551621, 41.566913983005286 ], [ 44.949896808182309, 41.566921541580001 ], [ 44.949885065927063, 41.566929264114485 ], [ 44.949873576843281, 41.566937199813559 ], [ 44.949862274102905, 41.566945291747224 ], [ 44.949851044765083, 41.566953444897777 ], [ 44.949839827516598, 41.566961608067409 ], [ 44.949828610265293, 41.566969771235925 ], [ 44.949817393011166, 41.56697793440334 ], [ 44.949806175754205, 41.566986097569632 ], [ 44.949794958494429, 41.566994260734823 ], [ 44.949783741231826, 41.567002423898913 ], [ 44.949772176891422, 41.567010835670864 ], [ 44.949759573492685, 41.567019994908286 ], [ 44.949746296300447, 41.567029666749818 ], [ 44.949733780598343, 41.567038892125566 ], [ 44.949722420092577, 41.567047457150608 ], [ 44.949711520381193, 41.567055858296726 ], [ 44.949700691586784, 41.567064311929201 ], [ 44.949689889614177, 41.567072785330538 ], [ 44.949679092444697, 41.567081262272836 ], [ 44.949668295272396, 41.567089739214104 ], [ 44.949657498097274, 41.567098216154356 ], [ 44.949646700919331, 41.567106693093571 ], [ 44.94963590373856, 41.567115170031748 ], [ 44.949625106554969, 41.567123646968909 ], [ 44.949614309368556, 41.567132123905047 ], [ 44.949603512179316, 41.567140600840141 ], [ 44.949592400068781, 41.567149349610162 ], [ 44.949580355857556, 41.56715892268214 ], [ 44.949567731423755, 41.567169073879626 ], [ 44.949555808716624, 41.567178731270914 ], [ 44.949544875312014, 41.567187603977231 ], [ 44.949534254836912, 41.567196203213015 ], [ 44.949523920759198, 41.567204510285308 ], [ 44.94951450243979, 41.56721198107396 ], [ 44.949505988412945, 41.567218601748245 ], [ 44.949497941682232, 41.567224490298344 ], [ 44.949489966739456, 41.567229155193544 ], [ 44.94948102927836, 41.567232631555925 ], [ 44.94947060838647, 41.567235484413928 ], [ 44.949459378845845, 41.567237697028595 ], [ 44.949447856995874, 41.567239092565465 ], [ 44.949435709504009, 41.56723969733045 ], [ 44.949422572940243, 41.567239601203909 ], [ 44.949409960971529, 41.567238990081258 ], [ 44.949399393850179, 41.567237844288009 ], [ 44.949389055792267, 41.567235776791634 ], [ 44.949376641945676, 41.567232515343129 ], [ 44.949362600841212, 41.567228335035374 ], [ 44.94934822275679, 41.567223769918655 ], [ 44.949333873750923, 41.567219134785638 ], [ 44.949319502561302, 41.567214557818566 ], [ 44.949305038126077, 41.567210242355742 ], [ 44.949289934542023, 41.567206420388047 ], [ 44.949273230790425, 41.567203355751914 ], [ 44.94925174225466, 41.56720334535666 ], [ 44.949220406941677, 41.567210732718095 ], [ 44.949184664530939, 41.567224781596252 ], [ 44.949159463096585, 41.567238869042882 ], [ 44.94914764037987, 41.567250136758354 ], [ 44.949140604303771, 41.567260544005215 ], [ 44.949133874419211, 41.567271121581939 ], [ 44.949127172388813, 41.567281717717336 ], [ 44.949120447287982, 41.567292305639839 ], [ 44.949113714311139, 41.567302890758711 ], [ 44.949106980489411, 41.567313475577151 ], [ 44.949100246665473, 41.567324060395194 ], [ 44.949093515268288, 41.567334646075103 ], [ 44.94908679430204, 41.567345235458376 ], [ 44.949080090776775, 41.567355831033602 ], [ 44.949073401269366, 41.567366431585569 ], [ 44.949066717058237, 41.567377034018072 ], [ 44.949060033562311, 41.567387636704858 ], [ 44.94905335006419, 41.567398239391224 ], [ 44.949046665838274, 41.567408841813474 ], [ 44.949039975665457, 41.567419442074787 ], [ 44.949033268967661, 41.567430036330649 ], [ 44.949026541111515, 41.567440622897159 ], [ 44.949019800358407, 41.567451204776773 ], [ 44.949013056560808, 41.567461785550307 ], [ 44.949006312761007, 41.567472366323436 ], [ 44.948999568959003, 41.567482947096117 ], [ 44.948992825154797, 41.567493527868407 ], [ 44.94898608131993, 41.567504108630224 ], [ 44.948979336296098, 41.567514688972793 ], [ 44.948972586807564, 41.567525267740102 ], [ 44.94896561994846, 41.567536167739242 ], [ 44.948958016315849, 41.567548036846233 ], [ 44.948949988516276, 41.567560552124469 ], [ 44.948942376259659, 41.567572418064849 ], [ 44.948935386670044, 41.567583309758945 ], [ 44.948928600508125, 41.567593875179853 ], [ 44.948921811847697, 41.567604439678334 ], [ 44.948915022925249, 41.56761500408043 ], [ 44.948908234000591, 41.567625568482121 ], [ 44.948901445073723, 41.567636132883372 ], [ 44.948894656144638, 41.567646697284204 ], [ 44.948887867213344, 41.567657261684623 ], [ 44.948881078279832, 41.567667826084609 ], [ 44.948874289344111, 41.567678390484183 ], [ 44.948867500406173, 41.567688954883337 ], [ 44.948860711683821, 41.567699519358598 ], [ 44.948853926162485, 41.567710084959181 ], [ 44.948847151273917, 41.567720654296863 ], [ 44.948840391246627, 41.567731228857724 ], [ 44.948833640937949, 41.567741806836871 ], [ 44.948826898725798, 41.567752387743184 ], [ 44.948820177829987, 41.567762976442069 ], [ 44.948813488035697, 41.567773576510511 ], [ 44.948806818683686, 41.567784184052002 ], [ 44.948800154396892, 41.567794793445465 ], [ 44.948793490107931, 41.56780540283853 ], [ 44.948786822766472, 41.567816011138966 ], [ 44.948779929960899, 41.567826937759499 ], [ 44.948772373101605, 41.567838823757739 ], [ 44.948764353647675, 41.567851342218482 ], [ 44.948756721858814, 41.56786320138746 ], [ 44.94874970598125, 41.567874083940985 ], [ 44.948742897395178, 41.567884641667995 ], [ 44.948736084607468, 41.567895197845722 ], [ 44.948729250952837, 41.567905746327533 ], [ 44.948722375831366, 41.567916279515615 ], [ 44.94871545950781, 41.567926797507575 ], [ 44.948708522714476, 41.56793730795011 ], [ 44.948701581851857, 41.567947816892172 ], [ 44.948694640986993, 41.567958325833786 ], [ 44.948687700119876, 41.567968834774959 ], [ 44.948680759250507, 41.567979343715727 ], [ 44.948673818278294, 41.567989852619029 ], [ 44.948666876715244, 41.568000361305486 ], [ 44.948659933801608, 41.568010869495744 ], [ 44.948652989560472, 41.568021377199166 ], [ 44.948646050100947, 41.568031886687159 ], [ 44.948639131027257, 41.56804240376627 ], [ 44.948632241841445, 41.568052931973348 ], [ 44.948625372256402, 41.568063467478403 ], [ 44.94861850752131, 41.568074004789558 ], [ 44.948611642783995, 41.568084542100273 ], [ 44.948604778044441, 41.568095079410547 ], [ 44.948597913302656, 41.568105616720402 ], [ 44.94859104855864, 41.568116154029831 ], [ 44.948584183812386, 41.568126691338826 ], [ 44.94857712616475, 41.568137558387143 ], [ 44.948569510155529, 41.568149421678427 ], [ 44.948561595817438, 41.568161974720255 ], [ 44.948554219834683, 41.568173921278515 ], [ 44.948547564830662, 41.568184928370798 ], [ 44.948541183863263, 41.568195634358389 ], [ 44.948534833230092, 41.568206351128403 ], [ 44.94852844336814, 41.568217053120513 ], [ 44.94852208177663, 41.568227364001622 ], [ 44.948516046781926, 41.56823659190507 ], [ 44.948510367627783, 41.568244747489388 ], [ 44.948504604974239, 41.568252434779545 ], [ 44.948498265636061, 41.568259791310943 ], [ 44.948491468545477, 41.568266435324702 ], [ 44.948484513658045, 41.568272031727652 ], [ 44.948476649095802, 41.568276914954048 ], [ 44.948467709117352, 41.568281384355011 ], [ 44.948458687726713, 41.5682850561357 ], [ 44.948449218981217, 41.568288000866467 ], [ 44.948438573147925, 41.568290605211942 ], [ 44.948427233309516, 41.568292657576535 ], [ 44.948416138425095, 41.568293889900239 ], [ 44.948405913203544, 41.568294236358469 ], [ 44.948395751891695, 41.568293617370081 ], [ 44.948384769379267, 41.568292102143637 ], [ 44.948373051490741, 41.568289711270573 ], [ 44.948360209811852, 41.568286326366028 ], [ 44.948346651529043, 41.56828226393003 ], [ 44.948334098561482, 41.568278207255524 ], [ 44.948322498692988, 41.568274275034533 ], [ 44.948310044260481, 41.568270001850991 ], [ 44.948296288518314, 41.568265261657061 ], [ 44.948282111497598, 41.568260342132767 ], [ 44.948267940914846, 41.568255410408874 ], [ 44.948253770334254, 41.56825047868319 ], [ 44.94823959980824, 41.568245546874635 ], [ 44.948224991248047, 41.568240468406692 ], [ 44.948209068626873, 41.568234949893402 ], [ 44.948192271166434, 41.568229136157505 ], [ 44.948176352413135, 41.568223611659974 ], [ 44.948161749839791, 41.568218523930327 ], [ 44.948147585874423, 41.56821358197471 ], [ 44.948133421911216, 41.56820864001736 ], [ 44.948119261822072, 41.568203691773093 ], [ 44.948105120061108, 41.568198713779054 ], [ 44.948091012887218, 41.568193679642725 ], [ 44.948076938233307, 41.568188592719601 ], [ 44.94806287880693, 41.568183481079998 ], [ 44.948048822221132, 41.568178364831276 ], [ 44.948034765637559, 41.568173248580806 ], [ 44.948020709056195, 41.56816813232863 ], [ 44.948006652477055, 41.568163016074728 ], [ 44.947992595900132, 41.568157899819106 ], [ 44.947978542118875, 41.568152779320279 ], [ 44.947964501188899, 41.568147639299589 ], [ 44.947950483761332, 41.568142463552249 ], [ 44.947936487714998, 41.56813725527546 ], [ 44.947922501395738, 41.568132032184003 ], [ 44.947908518069532, 41.568126804799434 ], [ 44.947894574003278, 41.568121526698739 ], [ 44.947880796458477, 41.56811603705065 ], [ 44.947867724573634, 41.568110362621127 ], [ 44.947856233424901, 41.568104828255237 ], [ 44.947846035019126, 41.568099157397462 ], [ 44.947835950585862, 41.568092770821067 ], [ 44.947826569168349, 41.568086327671452 ], [ 44.947819169490295, 41.568080473528781 ], [ 44.947812723752634, 41.568074008264816 ], [ 44.947805783061526, 41.568066011908989 ], [ 44.947799114842624, 41.568057493229148 ], [ 44.94779369424046, 41.568048911888326 ], [ 44.947789129024905, 41.568039636900977 ], [ 44.947785372080055, 41.568030521428881 ], [ 44.947782902840828, 41.568022648440987 ], [ 44.947781547022792, 41.568014637953581 ], [ 44.947780957331496, 41.56800513382624 ], [ 44.947781059322395, 41.567995244717309 ], [ 44.947781853434684, 41.567985726421945 ], [ 44.94778355456382, 41.567975560175313 ], [ 44.947786167660006, 41.567964762248614 ], [ 44.947789107282404, 41.5679547234474 ], [ 44.947792085119069, 41.567945420990561 ], [ 44.947795549792282, 41.567935096417429 ], [ 44.947799791884059, 41.567922690566867 ], [ 44.947804351714716, 41.567909229942707 ], [ 44.947808576311076, 41.567896447640635 ], [ 44.947812380600041, 41.567884699352206 ], [ 44.94781605586833, 41.567873297863997 ], [ 44.947819745208001, 41.567861898959137 ], [ 44.947823456685875, 41.567850504119519 ], [ 44.947827185437674, 41.567839112451949 ], [ 44.947830920393628, 41.567827721923734 ], [ 44.947834656102955, 41.56781633153394 ], [ 44.947838391810961, 41.567804941144004 ], [ 44.947842127019307, 41.567793550661058 ], [ 44.94784585998967, 41.567782159761116 ], [ 44.947849588995446, 41.56777076812245 ], [ 44.947853314546748, 41.567759375840097 ], [ 44.947857038625195, 41.567747983283361 ], [ 44.947860762459023, 41.567736590681157 ], [ 44.947864481724771, 41.567725197249388 ], [ 44.947868182473286, 41.567713800454705 ], [ 44.947871854824683, 41.567702398502774 ], [ 44.947875507414949, 41.567690992962014 ], [ 44.947879154442006, 41.567679586410996 ], [ 44.947882801218995, 41.567668179814653 ], [ 44.947886558301001, 41.567656422668932 ], [ 44.947890649711312, 41.567643614506117 ], [ 44.947894861601, 41.567630457675456 ], [ 44.947898656200692, 41.567618707467631 ], [ 44.947902283728872, 41.567607668257843 ], [ 44.947906301093951, 41.567595588293898 ], [ 44.947910442640833, 41.567583160346295 ], [ 44.947914322455659, 41.567571426215117 ], [ 44.947917987399286, 41.567560024592822 ], [ 44.94792150650332, 41.567548597972163 ], [ 44.94792492571127, 41.567537154228361 ], [ 44.94792831165185, 41.567525704748547 ], [ 44.947931670370536, 41.567514250461166 ], [ 44.947935009537915, 41.567502792593743 ], [ 44.947938410260427, 41.567491345103846 ], [ 44.947941944476341, 41.567479920437833 ], [ 44.947945578534636, 41.567468512880772 ], [ 44.947949241284697, 41.567457110242351 ], [ 44.947952905400527, 41.567445707838104 ], [ 44.947956589294613, 41.56743431010451 ], [ 44.947960454574627, 41.567422955412688 ], [ 44.947964847606649, 41.567411726180886 ], [ 44.947969777395095, 41.567401002411394 ], [ 44.947974699740399, 41.567391420391168 ], [ 44.947979671212359, 41.56738265810155 ], [ 44.947985673604691, 41.567373493388857 ], [ 44.947992816796322, 41.567363944780489 ], [ 44.947999978440755, 41.567355195600733 ], [ 44.948007037027942, 41.567347253006155 ], [ 44.948015215714527, 41.567339051514516 ], [ 44.948024921978373, 41.56733038045904 ], [ 44.948035415717811, 41.567321718429334 ], [ 44.948045778863062, 41.567313442100414 ], [ 44.948055264459185, 41.567306049439061 ], [ 44.948063990501161, 41.567299640382046 ], [ 44.948072674500075, 41.567293719201189 ], [ 44.948081987562183, 41.567287770513943 ], [ 44.94809273089917, 41.567281431067656 ], [ 44.948105043878385, 41.567274878931137 ], [ 44.948117768801865, 41.567268766633916 ], [ 44.948129538079918, 41.567263526779875 ], [ 44.948140731087868, 41.567259009050503 ], [ 44.948153100680827, 41.567254665207102 ], [ 44.948166992710021, 41.5672502412678 ], [ 44.948181446473285, 41.567245916198843 ], [ 44.948196038999193, 41.567241838441483 ], [ 44.948210778632834, 41.567238021922385 ], [ 44.948225652351596, 41.56723449847572 ], [ 44.948240657640511, 41.567231302290423 ], [ 44.948255296377496, 41.567228453267113 ], [ 44.948268608154187, 41.56722607820933 ], [ 44.948281069710042, 41.567224155122503 ], [ 44.948294546266325, 41.567222389215942 ], [ 44.948309010355459, 41.567220799167266 ], [ 44.948322096753948, 41.567219799014744 ], [ 44.94833283085925, 41.567219676195514 ], [ 44.948343482919228, 41.567220606747291 ], [ 44.94835587462525, 41.567222583361392 ], [ 44.948368542681315, 41.567225237723946 ], [ 44.948379923858369, 41.567228429744958 ], [ 44.948390359007952, 41.567232337048445 ], [ 44.948400650129614, 41.567237191483727 ], [ 44.948411117988606, 41.567243124414233 ], [ 44.948420677757632, 41.567249346088616 ], [ 44.948428249613436, 41.567255082694601 ], [ 44.948435076585532, 41.567261345610348 ], [ 44.948442444296617, 41.567269110850475 ], [ 44.948449406952385, 41.567277480072505 ], [ 44.94845492233172, 41.567285605943333 ], [ 44.948459200062779, 41.567293755595372 ], [ 44.948462674019019, 41.567302518146356 ], [ 44.948465573544489, 41.567312168690812 ], [ 44.948467756118461, 41.567321566175906 ], [ 44.948468815947656, 41.567329585749299 ], [ 44.948468578307519, 41.567337206714186 ], [ 44.948467081306212, 41.567345439790429 ], [ 44.948464438138757, 41.567353920736373 ], [ 44.948460763773774, 41.567362235937289 ], [ 44.948455936374124, 41.567370636107256 ], [ 44.948449763809322, 41.567379792866603 ], [ 44.948442603957126, 41.56738980481871 ], [ 44.948434913638472, 41.567400424610867 ], [ 44.948426580848427, 41.567412012093229 ], [ 44.94841788626055, 41.567424271489557 ], [ 44.948409716092378, 41.567435925209942 ], [ 44.948402251242008, 41.567446637297259 ], [ 44.948395016075224, 41.567457033298609 ], [ 44.94838778090611, 41.567467429299505 ], [ 44.948380545734679, 41.56747782529991 ], [ 44.948373308881152, 41.567488220650844 ], [ 44.948366064436435, 41.567498613069262 ], [ 44.948358806431571, 41.567509000248961 ], [ 44.948351536486506, 41.567519382815853 ], [ 44.948344261380143, 41.567529763389025 ], [ 44.948336985232942, 41.567540143559675 ], [ 44.948329713281346, 41.567550525325331 ], [ 44.948322469373394, 41.567560917805807 ], [ 44.948315292293742, 41.567571335872195 ], [ 44.948308191937571, 41.56758178335037 ], [ 44.948301134720857, 41.567592247381157 ], [ 44.948294087069129, 41.567602715084881 ], [ 44.948287036014868, 41.567613181461887 ], [ 44.948279970514214, 41.567623642199941 ], [ 44.948272874491522, 41.567634090992279 ], [ 44.948265749361049, 41.567644526900168 ], [ 44.948258677011601, 41.56765497618585 ], [ 44.948251811583269, 41.567665491995001 ], [ 44.948245208844703, 41.567676096172377 ], [ 44.948238758166923, 41.567686752635396 ], [ 44.948232341368431, 41.567697420910214 ], [ 44.948225924567822, 41.567708089184634 ], [ 44.948219507765096, 41.567718757458699 ], [ 44.948213090960259, 41.56772942573236 ], [ 44.948206674153312, 41.567740094005643 ], [ 44.948200257344247, 41.56775076227855 ], [ 44.948193623985894, 41.567761751998901 ], [ 44.948186345982933, 41.567773708037862 ], [ 44.948178654880323, 41.567786314874319 ], [ 44.948171426866132, 41.56779829066835 ], [ 44.948164868489471, 41.567809310021048 ], [ 44.948158416529509, 41.56782036328174 ], [ 44.948151721491719, 41.567832506899599 ], [ 44.948145207145743, 41.567846197178156 ], [ 44.948140144718927, 41.567862606154186 ], [ 44.948138435388508, 41.567883095198312 ], [ 44.948141773002739, 41.567905505182651 ], [ 44.948151353119144, 41.567926373421145 ], [ 44.948167906604731, 41.567945022496154 ], [ 44.94818910201122, 41.567960398027104 ], [ 44.948211511914245, 41.567970402372495 ], [ 44.948237214553401, 41.56797537466435 ], [ 44.948267526566326, 41.567976514986768 ], [ 44.948296101060073, 41.567973781491744 ], [ 44.948320393918102, 41.567966048327456 ], [ 44.948344859709344, 41.567951942217441 ], [ 44.94836791109401, 41.567934311811086 ], [ 44.948383741116906, 41.567919160388406 ], [ 44.948393311431552, 41.567907822166234 ], [ 44.94840115778117, 41.567897711387111 ], [ 44.948408986476402, 41.567887593819101 ], [ 44.948416804499033, 41.567877472333414 ], [ 44.948424616986408, 41.567867348816002 ], [ 44.948432428325212, 41.567857224877294 ], [ 44.948440239661586, 41.567847100938032 ], [ 44.948448050995516, 41.567836976998215 ], [ 44.948455873084448, 41.567826857109772 ], [ 44.948463738283216, 41.567816753459454 ], [ 44.948471668354166, 41.567806674244281 ], [ 44.948479641947372, 41.567796611422587 ], [ 44.948487624654135, 41.567786552044069 ], [ 44.94849579080941, 41.56777615901575 ], [ 44.948504465135443, 41.567764746813197 ], [ 44.948513278692083, 41.56775257121646 ], [ 44.948521303814978, 41.567740885809975 ], [ 44.948528418048134, 41.567730049424156 ], [ 44.948535206278748, 41.567719485992718 ], [ 44.948541981939016, 41.567708916521362 ], [ 44.948548784680035, 41.567698356846861 ], [ 44.948555626026192, 41.56768781113815 ], [ 44.948562492436004, 41.567677274496596 ], [ 44.948569365009199, 41.567666740085031 ], [ 44.948576243550946, 41.567656207953469 ], [ 44.948583151960747, 41.567645687230034 ], [ 44.948590120383095, 41.567635189424543 ], [ 44.948597149860404, 41.567624714920676 ], [ 44.948604211844852, 41.567614252795906 ], [ 44.948611282491882, 41.567603793941885 ], [ 44.948618322064299, 41.56759332789963 ], [ 44.948625253701103, 41.567582834714784 ], [ 44.948632077011467, 41.567572309503078 ], [ 44.94863890010847, 41.567561774732077 ], [ 44.948645769693627, 41.567551243717894 ], [ 44.948652629488038, 41.567540704892956 ], [ 44.94865943832599, 41.567530147646885 ], [ 44.948666208033252, 41.567519576254895 ], [ 44.948672964086967, 41.567508999927327 ], [ 44.948679718590789, 41.567498423039822 ], [ 44.948686473092401, 41.567487846151913 ], [ 44.948693431113348, 41.56747694309535 ], [ 44.948700999561076, 41.567465061483908 ], [ 44.948708973979961, 41.567452527142571 ], [ 44.948716334909292, 41.567440970231409 ], [ 44.94872248122234, 41.567431372735683 ], [ 44.948728061042871, 41.567422769997684 ], [ 44.948734349616515, 41.567413224960113 ], [ 44.9487419797697, 41.567401767326324 ], [ 44.948750283751025, 41.567389354515079 ], [ 44.948758154810847, 41.567377584498743 ], [ 44.948765368339508, 41.567366775669733 ], [ 44.948772347088735, 41.567356281486127 ], [ 44.948779263242088, 41.567345764231703 ], [ 44.948786085426484, 41.567335212342925 ], [ 44.948792846407578, 41.567324637895339 ], [ 44.948799544109328, 41.567314042855784 ], [ 44.948805946565692, 41.56730337103329 ], [ 44.948811762635849, 41.567291847482139 ], [ 44.948816630391775, 41.567277342619036 ], [ 44.948818974324347, 41.567258509326471 ], [ 44.948816621456778, 41.567237699098683 ], [ 44.948809237287655, 41.567218945759471 ], [ 44.948797615359027, 41.567203190259391 ], [ 44.94878297592274, 41.567189007338435 ], [ 44.948768202854659, 41.567176557454474 ], [ 44.948755524541411, 41.567166471943722 ], [ 44.948744384109311, 41.567157743529222 ], [ 44.94873358035121, 41.56714927178848 ], [ 44.94872276490841, 41.567140808684698 ], [ 44.948711932858124, 41.567132357821848 ], [ 44.948701090753275, 41.567123914370363 ], [ 44.948690246289317, 41.567115472658614 ], [ 44.948679401315374, 41.567107031327843 ], [ 44.948668554101978, 41.567098591666507 ], [ 44.948657703050415, 41.567090154865561 ], [ 44.948646848804273, 41.567081720445572 ], [ 44.948636338884739, 41.567073537317548 ], [ 44.948627214576057, 41.567066353367629 ], [ 44.948619999529605, 41.567060322524071 ], [ 44.948613526090455, 41.56705389339011 ], [ 44.948606802838626, 41.567045866150423 ], [ 44.948600562237651, 41.56703719701887 ], [ 44.948595556503548, 41.567028858081329 ], [ 44.948591720679879, 41.567020927796847 ], [ 44.948589005573524, 41.567013479116248 ], [ 44.948587120938662, 41.567005506578674 ], [ 44.948585621506879, 41.566996024725405 ], [ 44.94858466418264, 41.566986515062872 ], [ 44.94858470592203, 41.566978444515371 ], [ 44.94858600201519, 41.566970436217304 ], [ 44.94858847575167, 41.566961100326431 ], [ 44.948591517125678, 41.566951845485335 ], [ 44.948594633614576, 41.56694408901982 ], [ 44.948598257481784, 41.566936868635494 ], [ 44.948603044530635, 41.56692930881993 ], [ 44.948609462030753, 41.566921646172553 ], [ 44.948617546381513, 41.566913912613472 ], [ 44.948626234228115, 41.56690648235859 ], [ 44.948635019616994, 41.56689957911771 ], [ 44.948644787551366, 41.566892370740511 ], [ 44.948655681047576, 41.566884473928702 ], [ 44.948666926413701, 41.566876332118355 ], [ 44.948678170371672, 41.56686818921537 ], [ 44.948689410658048, 41.566860043466022 ], [ 44.948700641162375, 41.566851890138381 ], [ 44.948711856977241, 41.56684372543301 ], [ 44.948723061895024, 41.566835552289312 ], [ 44.948734263501017, 41.566827376583461 ], [ 44.948745465139041, 41.566819200904732 ], [ 44.948756666908743, 41.566811025329336 ], [ 44.948767868675631, 41.56680284975284 ], [ 44.948779070439691, 41.566794674175235 ], [ 44.948790272200931, 41.566786498596528 ], [ 44.948801473959335, 41.566778323016713 ], [ 44.948812677590865, 41.566770148896225 ], [ 44.948823891246803, 41.566761982580729 ], [ 44.948835126249485, 41.566753832884608 ], [ 44.948846382711999, 41.566745699901098 ], [ 44.94885764630169, 41.566737572488371 ], [ 44.948868904872789, 41.566729441202931 ], [ 44.948880158042314, 41.566721305737204 ], [ 44.94889140935777, 41.566713168834227 ], [ 44.948903003238449, 41.566704779803217 ], [ 44.948915626459694, 41.566695635677441 ], [ 44.948928935811168, 41.56668598807957 ], [ 44.948941557629276, 41.566676842851109 ], [ 44.948953145649952, 41.566668449234385 ], [ 44.94896437749653, 41.566660297138228 ], [ 44.948975588799655, 41.566652129038815 ], [ 44.948986784168007, 41.566643948526561 ], [ 44.948997973871897, 41.566635763602498 ], [ 44.949009173399574, 41.566627586400578 ], [ 44.949020417014175, 41.56661944383103 ], [ 44.949031732004315, 41.566611357330913 ], [ 44.949043101568897, 41.566603313703759 ], [ 44.949054490018717, 41.566595284914321 ], [ 44.949065880802571, 41.566587257963896 ], [ 44.949077273791531, 41.566579232783731 ], [ 44.94908867321589, 41.566571212767734 ], [ 44.94910008109801, 41.566563199538479 ], [ 44.949111494218791, 41.56655519051327 ], [ 44.949122908587292, 41.566547182490204 ], [ 44.949134322513203, 41.566539174112755 ], [ 44.949145734469639, 41.566531164154405 ], [ 44.949157142954398, 41.566523151408305 ], [ 44.949168548431871, 41.566515136247361 ], [ 44.949179952636491, 41.566507120064898 ], [ 44.949191356630742, 41.566499103714477 ], [ 44.949202760622171, 41.566491087362934 ], [ 44.949214164610787, 41.566483071010239 ], [ 44.949225574461273, 41.566475059497414 ], [ 44.949237014036015, 41.566467072568905 ], [ 44.949248525531111, 41.566459145359282 ], [ 44.949260144739341, 41.566451307994235 ], [ 44.949271864853863, 41.566443555084454 ], [ 44.94928363787691, 41.566435846544294 ], [ 44.949295421543844, 41.566428146933504 ], [ 44.949307201192056, 41.56642044392872 ], [ 44.949318974471737, 41.566412735537028 ], [ 44.949330737567195, 41.566405018412205 ], [ 44.949342478554037, 41.566397282165845 ], [ 44.949354549468175, 41.566389281870116 ], [ 44.949367682142821, 41.566380551720115 ], [ 44.949381537337153, 41.566371347599663 ], [ 44.949394686464757, 41.566362631335586 ], [ 44.949406767811311, 41.566354639487223 ], [ 44.949418501145139, 41.566346895991735 ], [ 44.949430263440895, 41.566339177738726 ], [ 44.949442066935241, 41.566331495422105 ], [ 44.949453901158563, 41.566323839928529 ] ] } }
]
}
