{
"type": "FeatureCollection",
"name": "kerbs",
"crs": { "type": "name", "properties": { "name": "urn:ogc:def:crs:OGC:1.3:CRS84" } },
"features": [
{ "type": "Feature", "properties": { "id": null }, "geometry": { "type": "MultiLineString", "coordinates": [ [ [ 44.95010161528559, 41.566006991906505, 0.0 ], [ 44.950114021170492, 41.566002505615018, 0.0 ], [ 44.95012559999639, 41.565999256920975, 0.0 ], [ 44.950139659999273, 41.565996472325956, 0.0 ], [ 44.950154340296393, 41.565995853527042, 0.0 ], [ 44.950170054417264, 41.565996627025683, 0.0 ], [ 44.950186388832371, 41.565999566320421, 0.0 ], [ 44.950196933834526, 41.566002196215592, 0.0 ], [ 44.950209132954669, 41.566008848302907, 0.0 ], [ 44.950218023838843, 41.566013953392705, 0.0 ], [ 44.950226707958272, 41.566020450779142, 0.0 ] ] ] } },
{ "type": "Feature", "properties": { "id": 0 }, "geometry": { "type": "MultiLineString", "coordinates": [ [ [ 44.951019960914749, 41.566497368761766, 0.0 ], [ 44.951019960914749, 41.566497368761766, 0.0 ], [ 44.951037949447844, 41.566507733562261, 0.0 ], [ 44.951037949447844, 41.566507733562261, 0.0 ], [ 44.951055110921956, 41.56652227521986, 0.0 ], [ 44.951069377689585, 41.566538827953792, 0.0 ], [ 44.951076614455765, 41.566553369604392, 0.0 ], [ 44.95108178357448, 41.566568065950072, 0.0 ], [ 44.951081163280236, 41.566585546862171, 0.0 ], [ 44.95107888886799, 41.56659807742458, 0.0 ], [ 44.951069584454316, 41.566612773760085, 0.0 ], [ 44.951055524451441, 41.566633658020599, 0.0 ], [ 44.951033400623388, 41.56665345938729, 0.0 ], [ 44.951017479737764, 41.566661348992646, 0.0 ], [ 44.951002799440644, 41.566669238597029, 0.0 ], [ 44.950985844731292, 41.566675426521378, 0.0 ], [ 44.950968476492456, 41.566681923841301, 0.0 ], [ 44.950951521783111, 41.5666828520298, 0.0 ], [ 44.95093291295575, 41.566685017802925, 0.0 ], [ 44.950912650010437, 41.566685481897153, 0.0 ], [ 44.95088432323994, 41.566682542633636, 0.0 ], [ 44.950865507647833, 41.566678520483322, 0.0 ], [ 44.950844624408269, 41.566672487257392, 0.0 ], [ 44.950828910287399, 41.566665061747784, 0.0 ], [ 44.950812989401797, 41.566657636237309, 0.0 ], [ 44.950803684988131, 41.566651912405746, 0.0 ], [ 44.950803684988131, 41.566651912405746, 0.0 ] ] ] } },
{ "type": "Feature", "properties": { "id": 1 }, "geometry": { "type": "MultiLineString", "coordinates": [ [ [ 44.950259583553219, 41.566314282795226, 0.0 ], [ 44.950259583553219, 41.566314282795226, 0.0 ], [ 44.950239734137384, 41.566301906876795, 0.0 ], [ 44.950238907078386, 41.566301906876795, 0.0 ], [ 44.95022071178056, 41.566292006140337, 0.0 ], [ 44.950219884721562, 41.566292006140337, 0.0 ], [ 44.950202930012217, 41.566287055771525, 0.0 ], [ 44.950202930012217, 41.566287055771525, 0.0 ], [ 44.950180599419411, 41.566281486606179, 0.0 ], [ 44.950180599419411, 41.566281486606179, 0.0 ], [ 44.950159509415087, 41.566277773829007, 0.0 ], [ 44.950159095885581, 41.566277773829007, 0.0 ], [ 44.95013262999781, 41.566277464430904, 0.0 ], [ 44.95013262999781, 41.566277464430904, 0.0 ], [ 44.950101201756098, 41.566279011421429, 0.0 ], [ 44.950101201756098, 41.566279011421429, 0.0 ], [ 44.950078457633786, 41.566282724198523, 0.0 ], [ 44.950078457633786, 41.566282724198523, 0.0 ], [ 44.950059021747457, 41.566288602761809, 0.0 ], [ 44.950059021747457, 41.566288602761809, 0.0 ], [ 44.950041653508592, 41.566294481324583, 0.0 ], [ 44.950041653508592, 41.566294481324583, 0.0 ], [ 44.95002676644674, 41.566304072662682, 0.0 ], [ 44.95002676644674, 41.566304072662682, 0.0 ] ] ] } },
{ "type": "Feature", "properties": { "id": 1 }, "geometry": { "type": "MultiLineString", "coordinates": [ [ [ 44.94915752744523, 41.566867174533009, 0.0 ], [ 44.94915752744523, 41.566867174533009, 0.0 ], [ 44.949145121560342, 41.566883572480954, 0.0 ], [ 44.949145121560342, 41.566883572480954, 0.0 ], [ 44.949142226853859, 41.566898423449096, 0.0 ], [ 44.949141813324374, 41.566898423449096, 0.0 ], [ 44.949143880971846, 41.566913583808898, 0.0 ], [ 44.949145121560342, 41.566913274413842, 0.0 ], [ 44.949151324502786, 41.566925959610174, 0.0 ], [ 44.949151738032278, 41.566925959610174, 0.0 ], [ 44.949159595092716, 41.566937097829296, 0.0 ], [ 44.949159595092716, 41.566937097829296, 0.0 ], [ 44.949172000977605, 41.566946379677091, 0.0 ], [ 44.949172000977605, 41.566946379677091, 0.0 ], [ 44.949189782745954, 41.566955661523565, 0.0 ], [ 44.949189782745954, 41.566955661523565, 0.0 ], [ 44.949208805102778, 41.566960302446297, 0.0 ], [ 44.949208805102778, 41.566960302446297, 0.0 ] ] ] } },
{ "type": "Feature", "properties": { "id": 1 }, "geometry": { "type": "MultiLineString", "coordinates": [ [ [ 44.950011052325841, 41.566548806001613, 0.0 ], [ 44.950011052325841, 41.566548806001613, 0.0 ], [ 44.950029454388428, 41.56653132507958, 0.0 ], [ 44.950029454388428, 41.56653132507958, 0.0 ], [ 44.950042687332314, 41.566521888473666, 0.0 ], [ 44.950042687332314, 41.566521888473666, 0.0 ], [ 44.950059848806418, 41.566514153549782, 0.0 ], [ 44.950059848806418, 41.566514153549782, 0.0 ], [ 44.950079491457487, 41.566509048499512, 0.0 ], [ 44.950079491457487, 41.566509048499512, 0.0 ], [ 44.950100374697065, 41.566510131389002, 0.0 ], [ 44.950100374697065, 41.566510131389002, 0.0 ], [ 44.950118569994906, 41.566514308248273, 0.0 ], [ 44.950118569994906, 41.566514308248273, 0.0 ], [ 44.950135317939498, 41.566521579076735, 0.0 ], [ 44.950135731469004, 41.566521579076735, 0.0 ], [ 44.950151445589874, 41.566532253270239, 0.0 ], [ 44.950151445589874, 41.566532253270239, 0.0 ], [ 44.950164678533739, 41.566542772763562, 0.0 ], [ 44.950164678533739, 41.566542772763562, 0.0 ], [ 44.95017356941792, 41.56655066238244, 0.0 ], [ 44.95017356941792, 41.56655066238244, 0.0 ] ] ] } },
{ "type": "Feature", "properties": { "id": 1 }, "geometry": { "type": "MultiLineString", "coordinates": [ [ [ 44.950263098553926, 41.566621204814176, 0.0 ], [ 44.950263305318664, 41.566621359512411, 0.0 ], [ 44.950276331497797, 41.566632497784042, 0.0 ], [ 44.950276331497797, 41.566632497784042, 0.0 ], [ 44.950287496794211, 41.566642243770161, 0.0 ], [ 44.950287496794211, 41.566642398468339, 0.0 ], [ 44.950297628266874, 41.566655702510452, 0.0 ], [ 44.950297628266874, 41.566655702510452, 0.0 ], [ 44.950301556797093, 41.566679371322785, 0.0 ], [ 44.950301556797093, 41.566679371322785, 0.0 ], [ 44.950297214737382, 41.566695924016472, 0.0 ], [ 44.950297214737382, 41.566695924016472, 0.0 ], [ 44.950288323853201, 41.56671309549796, 0.0 ], [ 44.950288323853201, 41.56671309549796, 0.0 ], [ 44.950268267672634, 41.566724079055788, 0.0 ], [ 44.950268267672634, 41.566724079055788, 0.0 ], [ 44.950251312963282, 41.566730421672837, 0.0 ], [ 44.950251312963282, 41.566730421672837, 0.0 ], [ 44.950233117665427, 41.56673537200767, 0.0 ], [ 44.950232910900695, 41.56673537200767, 0.0 ], [ 44.950215956191322, 41.566740322342113, 0.0 ], [ 44.950215956191322, 41.566740322342113, 0.0 ] ] ] } },
{ "type": "Feature", "properties": { "id": 1 }, "geometry": { "type": "MultiLineString", "coordinates": [ [ [ 44.949496001338034, 41.567175640894526, 0.0 ], [ 44.949496001338034, 41.567175640894526, 0.0 ], [ 44.949479460158173, 41.567188326039357, 0.0 ], [ 44.949479046628682, 41.567188635433098, 0.0 ], [ 44.949463332507818, 41.567199464213239, 0.0 ], [ 44.949463332507818, 41.567199464213239, 0.0 ], [ 44.949444723680479, 41.567205342693129, 0.0 ], [ 44.949444723680479, 41.567205342693129, 0.0 ], [ 44.949427768971127, 41.567207199055083, 0.0 ], [ 44.949427768971127, 41.567207199055083, 0.0 ], [ 44.949407092496308, 41.567204723905803, 0.0 ], [ 44.949407092496308, 41.567204723905803, 0.0 ], [ 44.949390551316448, 41.567200083000628, 0.0 ], [ 44.949390551316448, 41.567200083000628, 0.0 ], [ 44.949374010136587, 41.567194823307695, 0.0 ], [ 44.949374010136587, 41.567194823307695, 0.0 ], [ 44.949365739546664, 41.567191729370464, 0.0 ], [ 44.949365739546664, 41.567191729370464, 0.0 ] ] ] } },
{ "type": "Feature", "properties": { "id": null }, "geometry": { "type": "MultiLineString", "coordinates": [ [ [ 44.949301642474708, 41.567244326283088, 0.0 ], [ 44.949301642474708, 41.567244326283088, 0.0 ], [ 44.949280552470384, 41.567237829019724, 0.0 ], [ 44.949280552470384, 41.567237829019724, 0.0 ], [ 44.949261116584069, 41.56723411629752, 0.0 ], [ 44.949259875995573, 41.56723411629752, 0.0 ], [ 44.949232583048804, 41.567237210232712, 0.0 ], [ 44.949232583048804, 41.567237210232712, 0.0 ], [ 44.949218109516444, 41.567240922954731, 0.0 ], [ 44.949218109516444, 41.567240922954731, 0.0 ], [ 44.949200741277586, 41.567252679906446, 0.0 ], [ 44.949200741277586, 41.567252679906446, 0.0 ], [ 44.949186681274703, 41.567267530789749, 0.0 ], [ 44.949186681274703, 41.567267530789749, 0.0 ], [ 44.949175515978311, 41.567288878928508, 0.0 ], [ 44.949175515978311, 41.567288878928508, 0.0 ] ] ] } },
{ "type": "Feature", "properties": { "id": 1 }, "geometry": { "type": "MultiLineString", "coordinates": [ [ [ 44.9484692075984, 41.568218444303923, 0.0 ], [ 44.9484692075984, 41.568218444303923, 0.0 ], [ 44.948459076125737, 41.568232212104625, 0.0 ], [ 44.948459076125737, 41.568232212104625, 0.0 ], [ 44.948443982299132, 41.568241957849409, 0.0 ], [ 44.948443982299132, 41.568241957849409, 0.0 ], [ 44.948428268178269, 41.568249383177793, 0.0 ], [ 44.948428061413509, 41.568249383177793, 0.0 ], [ 44.948409659350929, 41.568252012981382, 0.0 ], [ 44.948409452586169, 41.568252012981382, 0.0 ], [ 44.948387535522869, 41.568250775426776, 0.0 ], [ 44.948387535522869, 41.568250775426776, 0.0 ], [ 44.948366859048043, 41.568245670513704, 0.0 ], [ 44.948366859048043, 41.568245670513704, 0.0 ] ] ] } },
{ "type": "Feature", "properties": { "id": 1 }, "geometry": { "type": "MultiLineString", "coordinates": [ [ [ 44.947884787037594, 41.568075197124799, 0.0 ], [ 44.947884373508089, 41.568075197124799, 0.0 ], [ 44.947864937621752, 41.568066070133924, 0.0 ], [ 44.947864937621752, 41.568066070133924, 0.0 ], [ 44.947851704677866, 41.568055550888616, 0.0 ], [ 44.947851704677866, 41.568055550888616, 0.0 ], [ 44.947845088205931, 41.56804611450535, 0.0 ], [ 44.947845088205931, 41.56804611450535, 0.0 ], [ 44.947837231145499, 41.568035285867111, 0.0 ], [ 44.947837231145499, 41.568035285867111, 0.0 ], [ 44.947831648497292, 41.568024766616801, 0.0 ], [ 44.947831648497292, 41.568024766616801, 0.0 ], [ 44.947827099672836, 41.568011308161687, 0.0 ], [ 44.947827099672836, 41.568011308161687, 0.0 ], [ 44.947826272613845, 41.567999087263253, 0.0 ], [ 44.947826272613845, 41.567999087263253, 0.0 ], [ 44.947831441732539, 41.567975883019344, 0.0 ], [ 44.947831441732539, 41.567975883019344, 0.0 ] ] ] } },
{ "type": "Feature", "properties": { "id": 1 }, "geometry": { "type": "MultiLineString", "coordinates": [ [ [ 44.948005951180001, 41.567429033925251, 0.0 ], [ 44.948005951180001, 41.567429033925251, 0.0 ], [ 44.948012154122466, 41.567411707937701, 0.0 ], [ 44.948012154122466, 41.567411707937701, 0.0 ], [ 44.948020011182876, 41.567395619516546, 0.0 ], [ 44.948020838241874, 41.567393763159998, 0.0 ], [ 44.948033244126769, 41.567376746555837, 0.0 ], [ 44.948033244126769, 41.567376746555837, 0.0 ], [ 44.948048958247639, 41.567358492375497, 0.0 ], [ 44.948048958247639, 41.567358492375497, 0.0 ], [ 44.948064258838997, 41.56734611665707, 0.0 ], [ 44.948064258838997, 41.56734611665707, 0.0 ], [ 44.948080386489373, 41.567334978508462, 0.0 ], [ 44.948080386489373, 41.567334978508462, 0.0 ], [ 44.948095687080738, 41.567323840357929, 0.0 ], [ 44.948095687080738, 41.567323840357929, 0.0 ], [ 44.948116363555549, 41.567314867957499, 0.0 ], [ 44.948116363555549, 41.567314867957499, 0.0 ], [ 44.948128355910953, 41.567307133128544, 0.0 ], [ 44.948128355910953, 41.567307133128544, 0.0 ] ] ] } },
{ "type": "Feature", "properties": { "id": 1 }, "geometry": { "type": "MultiLineString", "coordinates": [ [ [ 44.948301107858079, 41.56725592853747, 0.0 ], [ 44.948301107858079, 41.56725592853747, 0.0 ], [ 44.948334603747277, 41.567253685435126, 0.0 ], [ 44.948334603747277, 41.567253685435126, 0.0 ], [ 44.948363964341539, 41.567261110877084, 0.0 ], [ 44.948363964341539, 41.567261110877084, 0.0 ], [ 44.948384123904489, 41.567269696543285, 0.0 ], [ 44.948383917139729, 41.567269851239956, 0.0 ], [ 44.948398080524996, 41.567281144096434, 0.0 ], [ 44.948398080524996, 41.567281144096434, 0.0 ], [ 44.948415448763846, 41.567297541939332, 0.0 ], [ 44.948415448763846, 41.567297541939332, 0.0 ], [ 44.948422065235789, 41.567311155239707, 0.0 ], [ 44.948422065235789, 41.567311155239707, 0.0 ], [ 44.948422478765274, 41.567327707771533, 0.0 ], [ 44.948422478765274, 41.567327707771533, 0.0 ], [ 44.948421238176799, 41.567342403941076, 0.0 ], [ 44.948421031412039, 41.567342403941076, 0.0 ], [ 44.948412140527871, 41.567358801768428, 0.0 ], [ 44.948412140527871, 41.567358801768428, 0.0 ] ] ] } },
{ "type": "Feature", "properties": { "id": 1 }, "geometry": { "type": "MultiLineString", "coordinates": [ [ [ 44.948201654014198, 41.567865430704046, 0.0 ], [ 44.948201447249438, 41.567866049485048, 0.0 ], [ 44.948196898424989, 41.567880126751284, 0.0 ], [ 44.948196898424989, 41.567880126751284, 0.0 ], [ 44.948197725483979, 41.567895905661445, 0.0 ], [ 44.948197725483979, 41.567895905661445, 0.0 ], [ 44.94820475548542, 41.567909828226028, 0.0 ], [ 44.94820475548542, 41.567909828226028, 0.0 ], [ 44.948216127546559, 41.567921275665768, 0.0 ], [ 44.948216127546559, 41.567921275665768, 0.0 ], [ 44.948231014608439, 41.567931021457461, 0.0 ], [ 44.948231428137944, 41.567930866762374, 0.0 ], [ 44.948248796376788, 41.567934115359279, 0.0 ], [ 44.948248796376788, 41.567934115359279, 0.0 ], [ 44.94826740520412, 41.567933032493663, 0.0 ], [ 44.948268645792616, 41.567932723103482, 0.0 ], [ 44.948284153148741, 41.567929783896687, 0.0 ], [ 44.948284153148741, 41.567929629201601, 0.0 ], [ 44.948299040210607, 41.567920502190177, 0.0 ], [ 44.948299040210607, 41.567920502190177, 0.0 ], [ 44.948307517565283, 41.567914004994819, 0.0 ], [ 44.948307517565283, 41.567914004994819, 0.0 ], [ 44.948317442273193, 41.567904877981185, 0.0 ], [ 44.948317649037932, 41.567904568590876, 0.0 ] ] ] } },
{ "type": "Feature", "properties": { "id": 1 }, "geometry": { "type": "MultiLineString", "coordinates": [ [ [ 44.948760952658098, 41.567294448007019, 0.0 ], [ 44.948760952658098, 41.567294448007019, 0.0 ], [ 44.948768602953777, 41.567281917579663, 0.0 ], [ 44.948768602953777, 41.567281917579663, 0.0 ], [ 44.948775632955211, 41.567266138519564, 0.0 ], [ 44.948775632955211, 41.567266138519564, 0.0 ], [ 44.948772324719258, 41.567249121881794, 0.0 ], [ 44.948772324719258, 41.567249121881794, 0.0 ], [ 44.948764674423558, 41.567235353871581, 0.0 ], [ 44.948764674423558, 41.567235353871581, 0.0 ], [ 44.948750821185428, 41.567222668735994, 0.0 ], [ 44.948750821185428, 41.567222668735994, 0.0 ], [ 44.948738622065292, 41.567215243289624, 0.0 ], [ 44.948738622065292, 41.567215243289624, 0.0 ], [ 44.948722287650185, 41.567203176937426, 0.0 ], [ 44.948722287650185, 41.567203176937426, 0.0 ] ] ] } },
{ "type": "Feature", "properties": { "id": 1 }, "geometry": { "type": "MultiLineString", "coordinates": [ [ [ 44.948671216757383, 41.567038269898347, 0.0 ], [ 44.94866997616888, 41.567038269898347, 0.0 ], [ 44.948654675577522, 41.56702372835688, 0.0 ], [ 44.948654675577522, 41.56702372835688, 0.0 ], [ 44.948647645576081, 41.567011971363513, 0.0 ], [ 44.948647645576081, 41.567011971363513, 0.0 ], [ 44.948647645576081, 41.567011971363513, 0.0 ], [ 44.94864144263363, 41.566996192237475, 0.0 ], [ 44.94864144263363, 41.566996192237475, 0.0 ], [ 44.94864144263363, 41.566977628554852, 0.0 ], [ 44.94864144263363, 41.566977628554852, 0.0 ], [ 44.948645991458093, 41.566962777604914, 0.0 ], [ 44.948645991458093, 41.566962777604914, 0.0 ], [ 44.948654262048031, 41.566950092415809, 0.0 ], [ 44.948654262048031, 41.566950092415809, 0.0 ], [ 44.948667908521401, 41.566936788434298, 0.0 ], [ 44.948667908521401, 41.566936788434298, 0.0 ], [ 44.9486902391142, 41.566918224734621, 0.0 ], [ 44.9486902391142, 41.566918224734621, 0.0 ] ] ] } }
]
}
