{
"type": "FeatureCollection",
"name": "strips",
"crs": { "type": "name", "properties": { "name": "urn:ogc:def:crs:OGC:1.3:CRS84" } },
"features": [
{ "type": "Feature", "properties": { "id": null }, "geometry": { "type": "MultiLineString", "coordinates": [ [ [ 44.950330572783493, 41.565981157051205, 0.0 ], [ 44.950345459845366, 41.565993842430551, 0.0 ], [ 44.950358692789251, 41.566005290209773, 0.0 ], [ 44.950374406910122, 41.566018903782428, 0.0 ], [ 44.950396737502921, 41.566039014736781, 0.0 ], [ 44.950421135743213, 41.566059435084028, 0.0 ], [ 44.950443879865524, 41.566080783621977, 0.0 ], [ 44.950484819285663, 41.566116983300638, 0.0 ], [ 44.950522450469833, 41.566147613782114, 0.0 ], [ 44.950567525184944, 41.566173603270165, 0.0 ], [ 44.950643201082798, 41.566212896881069, 0.0 ] ] ] } },
{ "type": "Feature", "properties": { "id": 0 }, "geometry": null },
{ "type": "Feature", "properties": { "id": 1 }, "geometry": null },
{ "type": "Feature", "properties": { "id": 1 }, "geometry": null },
{ "type": "Feature", "properties": { "id": 1 }, "geometry": null },
{ "type": "Feature", "properties": { "id": 1 }, "geometry": null },
{ "type": "Feature", "properties": { "id": 1 }, "geometry": null },
{ "type": "Feature", "properties": { "id": null }, "geometry": null },
{ "type": "Feature", "properties": { "id": 1 }, "geometry": null },
{ "type": "Feature", "properties": { "id": 1 }, "geometry": null },
{ "type": "Feature", "properties": { "id": 1 }, "geometry": null },
{ "type": "Feature", "properties": { "id": 1 }, "geometry": null },
{ "type": "Feature", "properties": { "id": 1 }, "geometry": null },
{ "type": "Feature", "properties": { "id": 1 }, "geometry": null },
{ "type": "Feature", "properties": { "id": 1 }, "geometry": null },
{ "type": "Feature", "properties": { "id": null }, "geometry": { "type": "MultiLineString", "coordinates": [ [ [ 44.94993027623093, 41.566270754359103, 0.0 ], [ 44.949896366812233, 41.566290555837035, 0.0 ], [ 44.949863284452519, 41.566310357308879, 0.0 ], [ 44.949863284452519, 41.566310357308879, 0.0 ], [ 44.949831856210785, 41.566327683591759, 0.0 ], [ 44.949831856210785, 41.566327683591759, 0.0 ], [ 44.949789676202144, 41.566353054211888, 0.0 ], [ 44.949789676202144, 41.566353054211888, 0.0 ], [ 44.949752458547486, 41.566375330845752, 0.0 ], [ 44.949752458547486, 41.566375330845752, 0.0 ], [ 44.949710278538845, 41.56639760747192, 0.0 ], [ 44.949710278538845, 41.56639760747192, 0.0 ], [ 44.949667271471206, 41.566424215654223, 0.0 ], [ 44.949667271471206, 41.566424215654223, 0.0 ] ] ] } },
{ "type": "Feature", "properties": { "id": null }, "geometry": { "type": "MultiLineString", "coordinates": [ [ [ 44.949241336089905, 41.566712573392174, 0.0 ], [ 44.949241336089905, 41.566712573392174, 0.0 ], [ 44.949179306665442, 41.566756507612673, 0.0 ], [ 44.949179306665442, 41.566756507612673, 0.0 ], [ 44.949133818420847, 41.566787447186627, 0.0 ], [ 44.949133818420847, 41.566787447186627, 0.0 ], [ 44.949103217238118, 41.566810961252934, 0.0 ], [ 44.949103217238118, 41.566810961252934, 0.0 ] ] ] } },
{ "type": "Feature", "properties": { "id": null }, "geometry": { "type": "MultiLineString", "coordinates": [ [ [ 44.950296663364789, 41.566793016308388, 0.0 ], [ 44.950296663364789, 41.566793016308388, 0.0 ], [ 44.950235460999309, 41.566810961252955, 0.0 ], [ 44.950235460999309, 41.566810961252955, 0.0 ], [ 44.950187491577729, 41.566824574655847, 0.0 ], [ 44.950187491577729, 41.566824574655847, 0.0 ], [ 44.950132078625209, 41.566841900800839, 0.0 ], [ 44.950132078625209, 41.566841900800839, 0.0 ], [ 44.950090725675558, 41.566859226941183, 0.0 ], [ 44.950090725675558, 41.566859226941183, 0.0 ], [ 44.950048545666938, 41.566878409448293, 0.0 ], [ 44.950048545666938, 41.566878409448293, 0.0 ], [ 44.950009673894272, 41.566898210739964, 0.0 ], [ 44.950009673894272, 41.566898210739964, 0.0 ], [ 44.949979072711535, 41.566914299284996, 0.0 ], [ 44.949979072711535, 41.566914299284996, 0.0 ], [ 44.94995095270577, 41.566931006615981, 0.0 ], [ 44.94995095270577, 41.566931006615981, 0.0 ], [ 44.949906291520165, 41.566961946106382, 0.0 ], [ 44.949906291520165, 41.566961946106382, 0.0 ] ] ] } },
{ "type": "Feature", "properties": { "id": null }, "geometry": { "type": "MultiLineString", "coordinates": [ [ [ 44.949753285606462, 41.567076422092036, 0.0 ], [ 44.949753285606462, 41.567076422092036, 0.0 ], [ 44.94969208324099, 41.567124068793852, 0.0 ], [ 44.94969208324099, 41.567124068793852, 0.0 ], [ 44.949657346763303, 41.56715005788913, 0.0 ], [ 44.949655692645315, 41.567150676676974, 0.0 ], [ 44.949625091462572, 41.567177284549153, 0.0 ], [ 44.949624264403582, 41.567177903336749, 0.0 ], [ 44.949597798515818, 41.567195848174414, 0.0 ], [ 44.949597798515818, 41.567195848174414, 0.0 ] ] ] } },
{ "type": "Feature", "properties": { "id": null }, "geometry": { "type": "MultiLineString", "coordinates": [ [ [ 44.949093292530186, 41.567250301444396, 0.0 ], [ 44.949093292530186, 41.567250301444396, 0.0 ], [ 44.94905524781651, 41.567313417677184, 0.0 ], [ 44.94905524781651, 41.567313417677184, 0.0 ], [ 44.949018857220814, 41.567367870848067, 0.0 ], [ 44.949018857220814, 41.567367870848067, 0.0 ], [ 44.94899073721507, 41.567413660978985, 0.0 ], [ 44.94899073721507, 41.567413660978985, 0.0 ], [ 44.948971714858224, 41.567441506313003, 0.0 ], [ 44.948971714858224, 41.567441506313003, 0.0 ] ] ] } },
{ "type": "Feature", "properties": { "id": null }, "geometry": { "type": "MultiLineString", "coordinates": [ [ [ 44.948706228921523, 41.568033062128734, 0.0 ], [ 44.948706228921523, 41.568033062128734, 0.0 ], [ 44.948680590092764, 41.568073282777284, 0.0 ], [ 44.948680590092764, 41.568073282777284, 0.0 ], [ 44.948658259499943, 41.568109171950248, 0.0 ], [ 44.948658259499943, 41.568109171950248, 0.0 ], [ 44.948637583025132, 41.56814134843318, 0.0 ], [ 44.948637583025132, 41.56814134843318, 0.0 ], [ 44.948620214786274, 41.568169812231652, 0.0 ], [ 44.948620214786274, 41.568169812231652, 0.0 ], [ 44.948596230075481, 41.568205082573236, 0.0 ], [ 44.948596230075481, 41.568205082573236, 0.0 ] ] ] } },
{ "type": "Feature", "properties": { "id": null }, "geometry": { "type": "MultiLineString", "coordinates": [ [ [ 44.948278639422227, 41.568302230607515, 0.0 ], [ 44.948278639422227, 41.568302230607515, 0.0 ], [ 44.948227361764665, 41.568286142408112, 0.0 ], [ 44.948227361764665, 41.568286142408112, 0.0 ], [ 44.94817277587115, 41.568266960318965, 0.0 ], [ 44.94817277587115, 41.568266960318965, 0.0 ], [ 44.948125633508546, 41.568249015778804, 0.0 ], [ 44.948125633508546, 41.568249015778804, 0.0 ], [ 44.948074355850991, 41.568227977346069, 0.0 ], [ 44.948074355850991, 41.568227977346069, 0.0 ], [ 44.948023078193451, 41.568210651572784, 0.0 ], [ 44.948023078193451, 41.568210651572784, 0.0 ], [ 44.947984206420784, 41.568195800906267, 0.0 ], [ 44.947984206420784, 41.568195800906267, 0.0 ], [ 44.947944507589128, 41.568180950236339, 0.0 ], [ 44.947944507589128, 41.568180950236339, 0.0 ], [ 44.947912252288411, 41.568171049787836, 0.0 ], [ 44.947912252288411, 41.568171049787836, 0.0 ] ] ] } },
{ "type": "Feature", "properties": { "id": null }, "geometry": { "type": "MultiLineString", "coordinates": [ [ [ 44.947762554610712, 41.567895074174892, 0.0 ], [ 44.947762554610712, 41.567895074174892, 0.0 ], [ 44.947843606392006, 41.56763642331503, 0.0 ], [ 44.947843606392006, 41.56763642331503, 0.0 ] ] ] } },
{ "type": "Feature", "properties": { "id": null }, "geometry": { "type": "MultiLineString", "coordinates": [ [ [ 44.948225707646706, 41.567620953733183, 0.0 ], [ 44.948225707646706, 41.567620953733183, 0.0 ], [ 44.948119844095615, 41.5677737930394, 0.0 ], [ 44.948119844095615, 41.5677737930394, 0.0 ] ] ] } },
{ "type": "Feature", "properties": { "id": null }, "geometry": { "type": "MultiLineString", "coordinates": [ [ [ 44.948492847701395, 41.567392003488685, 0.0 ], [ 44.948491193583408, 41.567393859845282, 0.0 ], [ 44.948359691203535, 41.567586301856394, 0.0 ], [ 44.948359691203535, 41.567586301856394, 0.0 ] ] ] } },
{ "type": "Feature", "properties": { "id": null }, "geometry": { "type": "MultiLineString", "coordinates": [ [ [ 44.948440742984843, 41.567945814174244, 0.0 ], [ 44.948440742984843, 41.567945814174244, 0.0 ], [ 44.948616079491323, 41.567672312730657, 0.0 ], [ 44.948616079491323, 41.567672312730657, 0.0 ] ] ] } },
{ "type": "Feature", "properties": { "id": null }, "geometry": { "type": "MultiLineString", "coordinates": [ [ [ 44.948626004199255, 41.566843138382445, 0.0 ], [ 44.948626004199255, 41.566843138382445, 0.0 ], [ 44.948992391333064, 41.566578914171522, 0.0 ], [ 44.948992391333064, 41.566578914171522, 0.0 ] ] ] } },
{ "type": "Feature", "properties": { "id": null }, "geometry": { "type": "MultiLineString", "coordinates": [ [ [ 44.949695391477, 41.566120386688162, 0.0 ], [ 44.949695391477, 41.566120386688162, 0.0 ], [ 44.949936065643918, 41.565985488644408, 0.0 ], [ 44.949936065643918, 41.565985488644408, 0.0 ] ] ] } }
]
}
