{
"type": "FeatureCollection",
"name": "track-outer",
"crs": { "type": "name", "properties": { "name": "urn:ogc:def:crs:OGC:1.3:CRS84" } },
"features": [
{ "type": "Feature", "properties": { "id": null }, "geometry": null },
{ "type": "Feature", "properties": { "id": 2.0 }, "geometry": null },
{ "type": "Feature", "properties": { "id": 10.0 }, "geometry": null },
{ "type": "Feature", "properties": { "id": 0.0 }, "geometry": null },
{ "type": "Feature", "properties": { "id": 1.0 }, "geometry": { "type": "LineString", "coordinates": [ [ 44.949426851452706, 41.566282376125748, 0.0 ], [ 44.949426851452706, 41.566282376125748, 0.0 ], [ 44.949536023239752, 41.566213689714544, 0.0 ], [ 44.949536023239752, 41.566213689714544, 0.0 ], [ 44.949598879723212, 41.56617547899922, 0.0 ], [ 44.949598879723212, 41.56617547899922, 0.0 ], [ 44.949643023996934, 41.566149566861604, 0.0 ], [ 44.949658531353052, 41.566140130199955, 0.0 ], [ 44.949658531353052, 41.566140130199955, 0.0 ], [ 44.949695955772476, 41.566119245779923, 0.0 ], [ 44.949695955772476, 41.566119245779923, 0.0 ], [ 44.94974930107751, 41.566090316979533, 0.0 ], [ 44.94974930107751, 41.566090316979533, 0.0 ], [ 44.949792928439386, 41.56606556505448, 0.0 ], [ 44.949792928439386, 41.56606556505448, 0.0 ], [ 44.949829939329305, 41.566045454108398, 0.0 ], [ 44.949829939329305, 41.566045454108398, 0.0 ], [ 44.949861160806293, 41.566028282449473, 0.0 ], [ 44.949861160806293, 41.566028282449473, 0.0 ], [ 44.949903754344426, 41.56600523219744, 0.0 ], [ 44.949903754344426, 41.56600523219744, 0.0 ], [ 44.949944486999819, 41.565983419535257, 0.0 ], [ 44.949944486999819, 41.565983419535257, 0.0 ], [ 44.950007343483279, 41.565949540279398, 0.0 ], [ 44.950007343483279, 41.565949540279398, 0.0 ], [ 44.950043940843713, 41.565929119897419, 0.0 ], [ 44.950043940843713, 41.565929119897419, 0.0 ], [ 44.950079090850906, 41.565911020008002, 0.0 ], [ 44.950079090850906, 41.565911020008002, 0.0 ], [ 44.950095218501268, 41.565903285010968, 0.0 ], [ 44.950095218501268, 41.565903130311021, 0.0 ], [ 44.950109485268896, 41.565899726912036, 0.0 ], [ 44.950109485268896, 41.565899726912036, 0.0 ], [ 44.950123545271772, 41.56589709701268, 0.0 ], [ 44.950123545271772, 41.56589709701268, 0.0 ], [ 44.950137605274655, 41.565895704712993, 0.0 ], [ 44.950137605274655, 41.565895704712993, 0.0 ], [ 44.950154559984007, 41.565894312413263, 0.0 ], [ 44.950154559984007, 41.565894312413263, 0.0 ], [ 44.950170067340117, 41.565893693613368, 0.0 ], [ 44.950170067340117, 41.565893693613368, 0.0 ], [ 44.950187022049469, 41.565894157713295, 0.0 ], [ 44.950187022049469, 41.565894157713295, 0.0 ], [ 44.950206251171061, 41.56589771581254, 0.0 ], [ 44.950206251171061, 41.56589771581254, 0.0 ], [ 44.950228788528605, 41.565904522610552, 0.0 ], [ 44.950228788528605, 41.565904522610552, 0.0 ], [ 44.950247190591192, 41.565913340506924, 0.0 ], [ 44.950247190591192, 41.565913340506924, 0.0 ], [ 44.950270141478249, 41.565928655797748, 0.0 ], [ 44.950270141478249, 41.565928655797748, 0.0 ], [ 44.950292265306302, 41.565945982183003, 0.0 ], [ 44.950292265306302, 41.565945982183003, 0.0 ], [ 44.950315216193367, 41.565963927362823, 0.0 ], [ 44.950315216193367, 41.565963927362823, 0.0 ], [ 44.950329689725734, 41.56597939734143, 0.0 ], [ 44.950329689725734, 41.56597939734143, 0.0 ], [ 44.950497582701281, 41.56612759954875, 0.0 ], [ 44.950497582701281, 41.56612759954875, 0.0 ], [ 44.950523221530041, 41.566147091671816, 0.0 ], [ 44.950523221530041, 41.566147091671816, 0.0 ], [ 44.950555890360263, 41.566168130782167, 0.0 ], [ 44.950555890360263, 41.566168130782167, 0.0 ], [ 44.950606340958835, 41.56619504845748, 0.0 ], [ 44.950606340958835, 41.56619504845748, 0.0 ], [ 44.950677468032211, 41.566230319877121, 0.0 ], [ 44.950677468032211, 41.566230319877121, 0.0 ], [ 44.950898706312806, 41.566344487761306, 0.0 ], [ 44.950898706312806, 41.566344487761306, 0.0 ], [ 44.951007878099851, 41.566403892109058, 0.0 ], [ 44.951007878099851, 41.566403892109058, 0.0 ], [ 44.951073629289787, 41.566435450646587, 0.0 ], [ 44.951073629289787, 41.566435450646587, 0.0 ], [ 44.951112914591953, 41.566462368210537, 0.0 ], [ 44.951112914591953, 41.566462368210537, 0.0 ], [ 44.951137726361736, 41.566485263600924, 0.0 ], [ 44.951137726361736, 41.566485263600924, 0.0 ], [ 44.951155508130086, 41.566506302601162, 0.0 ], [ 44.951155508130086, 41.566506302601162, 0.0 ], [ 44.951175771075413, 41.566540645660353, 0.0 ], [ 44.951175771075413, 41.566540645660353, 0.0 ], [ 44.951180319899869, 41.566569419560757, 0.0 ], [ 44.951180319899869, 41.566569419560757, 0.0 ], [ 44.951176598134403, 41.566599431034618, 0.0 ], [ 44.951176598134403, 41.566599431034618, 0.0 ], [ 44.951168327544472, 41.566624801548038, 0.0 ], [ 44.951168327544472, 41.566624801548038, 0.0 ], [ 44.951155921659577, 41.566649553258848, 0.0 ], [ 44.951155921659577, 41.566649553258848, 0.0 ], [ 44.951141861656701, 41.566668117035739, 0.0 ], [ 44.951141861656701, 41.566668117035739, 0.0 ], [ 44.951124079888366, 41.566684515034218, 0.0 ], [ 44.951124079888366, 41.566684515034218, 0.0 ], [ 44.951105471061027, 41.566699984840291, 0.0 ], [ 44.951105471061027, 41.566699984840291, 0.0 ], [ 44.951081899879725, 41.566715145246654, 0.0 ], [ 44.951081899879725, 41.566715145246654, 0.0 ], [ 44.95104633634304, 41.566731852629133, 0.0 ], [ 44.95104633634304, 41.566731852629133, 0.0 ], [ 44.951010772806335, 41.566745156652829, 0.0 ], [ 44.951010772806335, 41.566745156652829, 0.0 ], [ 44.950971073974692, 41.566751963361568, 0.0 ], [ 44.950971073974692, 41.566751963361568, 0.0 ], [ 44.950936337496977, 41.566755366715668, 0.0 ], [ 44.950936337496977, 41.566755366715668, 0.0 ], [ 44.950890435722869, 41.566756604298931, 0.0 ], [ 44.950890435722869, 41.566756604298931, 0.0 ], [ 44.950850323361728, 41.566756294903122, 0.0 ], [ 44.950850323361728, 41.566756294903122, 0.0 ], [ 44.950818895119994, 41.566751344569902, 0.0 ], [ 44.950818895119994, 41.566751344569902, 0.0 ], [ 44.950789948055245, 41.566741443902309, 0.0 ], [ 44.950789948055245, 41.566741443902309, 0.0 ], [ 44.950760173931499, 41.566724427126353, 0.0 ], [ 44.950760173931499, 41.566724427126353, 0.0 ], [ 44.950727918630783, 41.566700294236391, 0.0 ], [ 44.950727918630783, 41.566700294236391, 0.0 ], [ 44.950688219799126, 41.566665332469569, 0.0 ], [ 44.950688219799126, 41.566665332469569, 0.0 ], [ 44.950635701553075, 41.566622326376454, 0.0 ], [ 44.950635701553075, 41.566622326376454, 0.0 ], [ 44.950577393894086, 41.566574060511243, 0.0 ], [ 44.950577393894086, 41.566574060511243, 0.0 ], [ 44.95048889858186, 41.566504446219071, 0.0 ], [ 44.95048889858186, 41.566504446219071, 0.0 ], [ 44.95034871208258, 41.566388112834524, 0.0 ], [ 44.95034871208258, 41.566388112834524, 0.0 ], [ 44.950265179124301, 41.566318498342007, 0.0 ], [ 44.950265179124301, 41.566318498342007, 0.0 ], [ 44.950240367354517, 41.566301790852641, 0.0 ], [ 44.950240367354517, 41.566301790852641, 0.0 ], [ 44.950226307351642, 41.566294674698447, 0.0 ], [ 44.950226307351642, 41.566294674698447, 0.0 ], [ 44.950207956980229, 41.566287945291066, 0.0 ], [ 44.950207956980229, 41.566287945291066, 0.0 ], [ 44.950186866975919, 41.566281602630575, 0.0 ], [ 44.950186866975919, 41.566281602630575, 0.0 ], [ 44.950158540205408, 41.566277735154365, 0.0 ], [ 44.950158540205408, 41.566277735154365, 0.0 ], [ 44.950131247258639, 41.566276806960033, 0.0 ], [ 44.950131247258639, 41.566276806960033, 0.0 ], [ 44.950103127252888, 41.566277580455306, 0.0 ], [ 44.950103127252888, 41.566277580455306, 0.0 ], [ 44.950080383130576, 41.566281757329619, 0.0 ], [ 44.950080383130576, 41.566281757329619, 0.0 ], [ 44.950056605184542, 41.566288873485234, 0.0 ], [ 44.950056605184542, 41.566288873485234, 0.0 ], [ 44.950027451355048, 41.566301558804163, 0.0 ], [ 44.950027451355048, 41.566301558804163, 0.0 ], [ 44.950008842527701, 41.566312851829885, 0.0 ], [ 44.950008842527701, 41.566312851829885, 0.0 ], [ 44.94978491630539, 41.566442489435971, 0.0 ], [ 44.94978491630539, 41.566442489435971, 0.0 ], [ 44.949610613622646, 41.56655248008871, 0.0 ], [ 44.949610613622646, 41.56655248008871, 0.0 ], [ 44.949499994482352, 41.566627972861554, 0.0 ], [ 44.949499994482352, 41.566627972861554, 0.0 ], [ 44.949218174130536, 41.566823820504439, 0.0 ], [ 44.949218174130536, 41.566823820504439, 0.0 ], [ 44.949158005588821, 41.566867367905147, 0.0 ], [ 44.949158005588821, 41.566867367905147, 0.0 ], [ 44.94914704705716, 41.566881135993775, 0.0 ], [ 44.94914704705716, 41.566881135993775, 0.0 ], [ 44.949144669262559, 41.566897069845481, 0.0 ], [ 44.949144669262559, 41.566897069845481, 0.0 ], [ 44.949146736910031, 41.566913003693266, 0.0 ], [ 44.949146736910031, 41.566913003693266, 0.0 ], [ 44.949151389116864, 41.566925534192158, 0.0 ], [ 44.949151389116864, 41.566925534192158, 0.0 ], [ 44.949160486765777, 41.566936440365133, 0.0 ], [ 44.949160486765777, 41.566936440365133, 0.0 ], [ 44.949172685885927, 41.566946805095206, 0.0 ], [ 44.949172685885927, 41.566946805095206, 0.0 ], [ 44.949188916918658, 41.566954153223712, 0.0 ], [ 44.949188916918658, 41.566954153223712, 0.0 ], [ 44.949202072325761, 41.566958141516793, 0.0 ], [ 44.949224015234698, 41.566959954377211, 0.0 ], [ 44.949351563238729, 41.566957522727094, 0.0 ], [ 44.949400463101675, 41.566943986700934, 0.0 ], [ 44.949417107663905, 41.56693478220155, 0.0 ], [ 44.949436336785482, 41.566921168821871, 0.0 ], [ 44.949436336785482, 41.566921168821871, 0.0 ], [ 44.949566495194489, 41.566813421914496, 0.0 ], [ 44.949566495194489, 41.566813421914496, 0.0 ], [ 44.949691381102419, 41.566708691438926, 0.0 ], [ 44.949691381102419, 41.566708691438926, 0.0 ], [ 44.949757959351331, 41.566656712882832, 0.0 ], [ 44.949757959351331, 41.566656712882832, 0.0 ], [ 44.949921923796673, 41.566519186084832, 0.0 ], [ 44.949921923796673, 41.566519186084832, 0.0 ], [ 44.949965137629043, 41.566480202057349, 0.0 ], [ 44.949965137629043, 41.566480202057349, 0.0 ], [ 44.94998353969163, 41.56646596978748, 0.0 ], [ 44.94998353969163, 41.56646596978748, 0.0 ], [ 44.950012279991633, 41.566451737514484, 0.0 ], [ 44.950012279991633, 41.566451737514484, 0.0 ], [ 44.950045569116099, 41.56644245559562, 0.0 ], [ 44.950045569116099, 41.56644245559562, 0.0 ], [ 44.950073068827606, 41.566437969334359, 0.0 ], [ 44.950073068827606, 41.566437969334359, 0.0 ], [ 44.950101395598111, 41.566438588129039, 0.0 ], [ 44.950101395598111, 41.566438588129039, 0.0 ], [ 44.950134684722585, 41.566442455595627, 0.0 ], [ 44.950134684722585, 41.566442455595627, 0.0 ], [ 44.950159289727615, 41.566449571733543, 0.0 ], [ 44.950159289727615, 41.566449571733543, 0.0 ], [ 44.950182447379412, 41.566460245938941, 0.0 ], [ 44.950182447379412, 41.566460245938941, 0.0 ], [ 44.950219251504585, 41.566483605425759, 0.0 ], [ 44.950219251504585, 41.566483605425759, 0.0 ], [ 44.950283555341287, 41.566528158595773, 0.0 ], [ 44.950283555341287, 41.566528158595773, 0.0 ], [ 44.950338347999562, 41.566575960400264, 0.0 ], [ 44.950338347999562, 41.566575960400264, 0.0 ], [ 44.950370189770787, 41.566611386310214, 0.0 ], [ 44.950370189770787, 41.566611386310214, 0.0 ], [ 44.950390039186608, 41.566641707160947, 0.0 ], [ 44.950390039186608, 41.566641707160947, 0.0 ], [ 44.950398930070783, 41.566662282015855, 0.0 ], [ 44.950398930070783, 41.566662282015855, 0.0 ], [ 44.950398930070783, 41.566686105523857, 0.0 ], [ 44.950398930070783, 41.566686105523857, 0.0 ], [ 44.950396035364314, 41.566706680364604, 0.0 ], [ 44.950396035364314, 41.566706680364604, 0.0 ], [ 44.95038590389165, 41.566729420970461, 0.0 ], [ 44.95038590389165, 41.566729420970461, 0.0 ], [ 44.950369983006027, 41.566749222307791, 0.0 ], [ 44.950369983006027, 41.566749222307791, 0.0 ], [ 44.950344964471491, 41.566771189409316, 0.0 ], [ 44.950344964471491, 41.566771189409316, 0.0 ], [ 44.950295961226161, 41.566793620596812, 0.0 ], [ 44.950295961226161, 41.566793620596812, 0.0 ], [ 44.950226488270758, 41.566812184332306, 0.0 ], [ 44.950226488270758, 41.566812184332306, 0.0 ], [ 44.950178932378677, 41.566826725921388, 0.0 ], [ 44.950178932378677, 41.566826725921388, 0.0 ], [ 44.950133857663559, 41.566841886298008, 0.0 ], [ 44.950133857663559, 41.566841886298008, 0.0 ], [ 44.950084647653476, 41.566862615786803, 0.0 ], [ 44.950084647653476, 41.566862615786803, 0.0 ], [ 44.950041227056353, 41.566882417083328, 0.0 ], [ 44.950041227056353, 41.566882417083328, 0.0 ], [ 44.949983332926863, 41.566913665992054, 0.0 ], [ 44.949983332926863, 41.566913665992054, 0.0 ], [ 44.949919235854907, 41.566952030968253, 0.0 ], [ 44.949919235854907, 41.566952030968253, 0.0 ], [ 44.949751756408865, 41.567075788800693, 0.0 ], [ 44.949751756408865, 41.567075788800693, 0.0 ], [ 44.949598336965693, 41.567197380640195, 0.0 ], [ 44.949598336965693, 41.567197380640195, 0.0 ], [ 44.949516044595896, 41.567261734498274, 0.0 ], [ 44.949516044595896, 41.567261734498274, 0.0 ], [ 44.949476759293731, 41.567272253872815, 0.0 ], [ 44.949476759293731, 41.567272253872815, 0.0 ], [ 44.94943995516855, 41.567274729019516, 0.0 ], [ 44.94943995516855, 41.567274729019516, 0.0 ], [ 44.949393226335452, 41.567272563266165, 0.0 ], [ 44.949393226335452, 41.567272253872815, 0.0 ], [ 44.949359316916748, 41.567264519038751, 0.0 ], [ 44.949359316916748, 41.567264519038751, 0.0 ], [ 44.949286122195879, 41.567240695744026, 0.0 ], [ 44.949286122195879, 41.567240695744026, 0.0 ], [ 44.949259242778616, 41.567236673628464, 0.0 ], [ 44.949259242778616, 41.567236673628464, 0.0 ], [ 44.949233603949835, 41.56723822059601, 0.0 ], [ 44.949233603949835, 41.56723822059601, 0.0 ], [ 44.949207551591556, 41.567247811794012, 0.0 ], [ 44.949207551591556, 41.567247811794012, 0.0 ], [ 44.949194318647677, 41.567258640564233, 0.0 ], [ 44.949194318647677, 41.567258640564233, 0.0 ], [ 44.949175296290839, 41.567288961111217, 0.0 ], [ 44.949175296290839, 41.567288961111217, 0.0 ], [ 44.949127740398744, 41.56736383423771, 0.0 ], [ 44.949127740398744, 41.56736383423771, 0.0 ], [ 44.949014846846218, 41.567544828833839, 0.0 ], [ 44.949014846846218, 41.567544828833839, 0.0 ], [ 44.948893269174278, 41.567738507959731, 0.0 ], [ 44.948893269174278, 41.567738507959731, 0.0 ], [ 44.948821315041897, 41.567854838912794, 0.0 ], [ 44.948821315041897, 41.567854838912794, 0.0 ], [ 44.94870966207786, 41.568026241052387, 0.0 ], [ 44.94870966207786, 41.568026241052387, 0.0 ], [ 44.948598836172813, 41.568196095792665, 0.0 ], [ 44.948598836172813, 41.568196095792665, 0.0 ], [ 44.948567407931094, 41.568247763721608, 0.0 ], [ 44.948567407931094, 41.568247763721608, 0.0 ], [ 44.948539701454834, 41.568287056071057, 0.0 ], [ 44.948539701454834, 41.568287056071057, 0.0 ], [ 44.948514889685029, 41.568309641426467, 0.0 ], [ 44.948514889685029, 41.568309641426467, 0.0 ], [ 44.948482220854814, 41.568325110843411, 0.0 ], [ 44.948482220854814, 41.568325110843411, 0.0 ], [ 44.948438800257691, 41.568336558209566, 0.0 ], [ 44.948438800257691, 41.568336558209566, 0.0 ], [ 44.948395793190059, 41.568339033315503, 0.0 ], [ 44.948395793190059, 41.568339033315503, 0.0 ], [ 44.948357748476397, 41.568331917385706, 0.0 ], [ 44.948357748476397, 41.568331917385706, 0.0 ], [ 44.948288689050493, 41.568306238154236, 0.0 ], [ 44.948288689050493, 41.568306238154236, 0.0 ], [ 44.948187374323865, 41.568269420925041, 0.0 ], [ 44.948187374323865, 41.568269420925041, 0.0 ], [ 44.947927264270618, 41.568174438564647, 0.0 ], [ 44.947927264270618, 41.568174438564647, 0.0 ], [ 44.947857377785738, 41.568148759270578, 0.0 ], [ 44.947857377785738, 41.568148759270578, 0.0 ], [ 44.947818092483587, 41.568128648972923, 0.0 ], [ 44.947818092483587, 41.568128648972923, 0.0 ], [ 44.947783356005878, 41.56810451660747, 0.0 ], [ 44.947783356005878, 41.56810451660747, 0.0 ], [ 44.947754408941137, 41.568071102548117, 0.0 ], [ 44.947754408941137, 41.568071102548117, 0.0 ], [ 44.947740762467745, 41.568043257485463, 0.0 ], [ 44.947740762467745, 41.568043257485463, 0.0 ], [ 44.947732905407314, 41.568010462174065, 0.0 ], [ 44.947732905407314, 41.568010462174065, 0.0 ], [ 44.94773662717278, 41.567970550876403, 0.0 ], [ 44.94773662717278, 41.567970550876403, 0.0 ], [ 44.947763093060551, 41.56788856247438, 0.0 ], [ 44.947763093060551, 41.56788856247438, 0.0 ], [ 44.947846626018823, 41.567631149154963, 0.0 ], [ 44.947846626018823, 41.567631149154963, 0.0 ], [ 44.947887978968467, 41.567503679679596, 0.0 ], [ 44.947887978968467, 41.567503679679596, 0.0 ], [ 44.94791858015121, 41.567402508339306, 0.0 ], [ 44.94791858015121, 41.567402508339306, 0.0 ], [ 44.947943391920994, 41.56735888395103, 0.0 ], [ 44.947943391920994, 41.56735888395103, 0.0 ], [ 44.947981850164155, 41.567313712567582, 0.0 ], [ 44.947981850164155, 41.567313712567582, 0.0 ], [ 44.948025684290776, 41.567280607492542, 0.0 ], [ 44.948026097820268, 41.567279679312627, 0.0 ], [ 44.948076548418832, 41.567245646039737, 0.0 ], [ 44.948076548418832, 41.567245646039737, 0.0 ], [ 44.948125344899424, 41.567222750918802, 0.0 ], [ 44.948125344899424, 41.567222750918802, 0.0 ], [ 44.948171246673517, 41.567208209418858, 0.0 ], [ 44.948171246673517, 41.567208209418858, 0.0 ], [ 44.948216734918134, 41.567198308821283, 0.0 ], [ 44.948216734918134, 41.567198308821283, 0.0 ], [ 44.94826842610518, 41.567190264584625, 0.0 ], [ 44.948268839634679, 41.567190264584625, 0.0 ], [ 44.948310606113822, 41.567185933072174, 0.0 ], [ 44.948310606113822, 41.567185933072174, 0.0 ], [ 44.948356507887922, 41.567187170647188, 0.0 ], [ 44.948356921417421, 41.567187170647188, 0.0 ], [ 44.948398274367058, 41.567196452459065, 0.0 ], [ 44.948398274367058, 41.567196452459065, 0.0 ], [ 44.948433424374258, 41.567211922142555, 0.0 ], [ 44.948433424374258, 41.567211922142555, 0.0 ], [ 44.948462784968498, 41.567234198480286, 0.0 ], [ 44.948462784968498, 41.567234198480286, 0.0 ], [ 44.948485942620302, 41.567256165416914, 0.0 ], [ 44.948485942620302, 41.567256165416914, 0.0 ], [ 44.948500829682175, 41.567280607492549, 0.0 ], [ 44.948500829682175, 41.567280607492549, 0.0 ], [ 44.948510754390085, 41.567310618636064, 0.0 ], [ 44.948510754390085, 41.567310618636064, 0.0 ], [ 44.948513649096554, 41.567344033088723, 0.0 ], [ 44.948513649096554, 41.567344033088723, 0.0 ], [ 44.948503310859152, 41.567379613273943, 0.0 ], [ 44.948503310859152, 41.567379613273943, 0.0 ], [ 44.948460717321026, 41.56744056363268, 0.0 ], [ 44.948460717321026, 41.56744056363268, 0.0 ], [ 44.948358575535401, 41.567584121610793, 0.0 ], [ 44.948358575535401, 41.567584121610793, 0.0 ], [ 44.948320530821732, 41.56764259664407, 0.0 ], [ 44.948320530821732, 41.56764259664407, 0.0 ], [ 44.948301921994393, 41.567671060662285, 0.0 ], [ 44.948301921994393, 41.567671060662285, 0.0 ], [ 44.948295719051949, 41.567679414230469, 0.0 ], [ 44.948295719051949, 41.567679414230469, 0.0 ], [ 44.948202584455714, 41.567864927944562, 0.0 ], [ 44.948195567377113, 41.567883293168585, 0.0 ], [ 44.948199379602109, 41.567902364184917, 0.0 ], [ 44.948199379602109, 41.567902364184917, 0.0 ], [ 44.948211061810412, 41.567918607175002, 0.0 ], [ 44.948229257108252, 41.567929977265642, 0.0 ], [ 44.948244661082001, 41.567934231380669, 0.0 ], [ 44.948260788732355, 41.56793454077085, 0.0 ], [ 44.948271126969772, 41.567932916472415, 0.0 ], [ 44.948280741530553, 41.567930596046025, 0.0 ], [ 44.948294891992951, 41.567924606445047, 0.0 ], [ 44.948294891992951, 41.567924606445047, 0.0 ], [ 44.94830915876058, 41.567915479432919, 0.0 ], [ 44.94830915876058, 41.567915479432919, 0.0 ], [ 44.948320117292234, 41.567904341382466, 0.0 ], [ 44.948320117292234, 41.567904341382466, 0.0 ], [ 44.948473950264891, 41.567733867092876, 0.0 ], [ 44.948473950264891, 41.567733867092876, 0.0 ], [ 44.948559137341149, 41.567602994510906, 0.0 ], [ 44.948559137341149, 41.567602994510906, 0.0 ], [ 44.948672857952673, 41.567428806715156, 0.0 ], [ 44.948672857952673, 41.567428806715156, 0.0 ], [ 44.948755563851968, 41.567301646233794, 0.0 ], [ 44.948755563851968, 41.567301646233794, 0.0 ], [ 44.948765488559879, 41.567286485965056, 0.0 ], [ 44.948765488559879, 41.567286485965056, 0.0 ], [ 44.948773759149809, 41.567268850545922, 0.0 ], [ 44.948773759149809, 41.567268850545922, 0.0 ], [ 44.94877169150233, 41.56725028694165, 0.0 ], [ 44.94877169150233, 41.56725028694165, 0.0 ], [ 44.948763007382901, 41.567235745447896, 0.0 ], [ 44.948763007382901, 41.567235745447896, 0.0 ], [ 44.948751428557003, 41.567224607280266, 0.0 ], [ 44.948751428557003, 41.567224607280266, 0.0 ], [ 44.948738195613117, 41.567215016078819, 0.0 ], [ 44.948738195613117, 41.567215016078819, 0.0 ], [ 44.948723308551244, 41.567203568513939, 0.0 ], [ 44.948723308551244, 41.567203568513939, 0.0 ], [ 44.948580640874972, 41.567089711541989, 0.0 ], [ 44.948580640874972, 41.567089711541989, 0.0 ], [ 44.948558723811658, 41.567071147886239, 0.0 ], [ 44.948558723811658, 41.567071147886239, 0.0 ], [ 44.948541769102306, 41.567050727858749, 0.0 ], [ 44.948541769102306, 41.567050727858749, 0.0 ], [ 44.948531844394388, 41.567028451457759, 0.0 ], [ 44.948531844394388, 41.567028451457759, 0.0 ], [ 44.948525641451944, 41.567002771708204, 0.0 ], [ 44.948525641451944, 41.567002771708204, 0.0 ], [ 44.948524400863455, 41.566976163764174, 0.0 ], [ 44.948524400863455, 41.566976163764174, 0.0 ], [ 44.948530190276408, 41.566948008834714, 0.0 ], [ 44.948530190276408, 41.566948008834714, 0.0 ], [ 44.948542596161303, 41.566918306917799, 0.0 ], [ 44.948542596161303, 41.566918306917799, 0.0 ], [ 44.948553347928204, 41.566898505632274, 0.0 ], [ 44.948553347928204, 41.566898505632274, 0.0 ], [ 44.948590979112382, 41.566870041273702, 0.0 ], [ 44.948590979112382, 41.566870041273702, 0.0 ], [ 44.948662933244762, 41.566818062847418, 0.0 ], [ 44.948662933244762, 41.566818062847418, 0.0 ], [ 44.948791954447643, 41.566723387749256, 0.0 ], [ 44.948791954447643, 41.566723387749256, 0.0 ], [ 44.948867216815984, 41.566669552827648, 0.0 ], [ 44.948867216815984, 41.566669552827648, 0.0 ], [ 44.948925524474973, 41.566627784323082, 0.0 ], [ 44.948925524474973, 41.566627784323082, 0.0 ], [ 44.948981764486497, 41.566586634584759, 0.0 ], [ 44.948981764486497, 41.566586634584759, 0.0 ], [ 44.949047929205911, 41.566539915677168, 0.0 ], [ 44.949047929205911, 41.566539915677168, 0.0 ], [ 44.949112026277852, 41.56649505311821, 0.0 ], [ 44.949112026277852, 41.56649505311821, 0.0 ], [ 44.949204656885072, 41.566430079701725, 0.0 ], [ 44.949204656885072, 41.566430079701725, 0.0 ], [ 44.949272062192982, 41.566385217066504, 0.0 ], [ 44.949272062192982, 41.566385217066504, 0.0 ], [ 44.949346911031832, 41.566335094637203, 0.0 ], [ 44.949346911031832, 41.566335094637203, 0.0 ], [ 44.949426851452621, 41.566282371291443, 0.0 ], [ 44.949426851452621, 41.566282371291443, 0.0 ] ] } }
]
}
