{
"type": "FeatureCollection",
"name": "track-inner",
"crs": { "type": "name", "properties": { "name": "urn:ogc:def:crs:OGC:1.3:CRS84" } },
"features": [
{ "type": "Feature", "properties": { "id": 10 }, "geometry": { "type": "LineString", "coordinates": [ [ 44.949504582075157, 41.566349960234376, 0.0 ], [ 44.949504582075157, 41.566349960234376, 0.0 ], [ 44.949581188414371, 41.566301307418215, 0.0 ], [ 44.949581188414371, 41.566301307418215, 0.0 ], [ 44.949647870045681, 41.566261240365613, 0.0 ], [ 44.949647870045681, 41.566261240365613, 0.0 ], [ 44.94969976799748, 41.566229991141341, 0.0 ], [ 44.94969976799748, 41.566229991141341, 0.0 ], [ 44.949731713151095, 41.566210808441724, 0.0 ], [ 44.949731713151095, 41.566210808441724, 0.0 ], [ 44.949901053479884, 41.566114817508449, 0.0 ], [ 44.949901053479884, 41.566114817508449, 0.0 ], [ 44.950098307049679, 41.566006527807403, 0.0 ], [ 44.950098307049679, 41.566006527807403, 0.0 ], [ 44.950121051171969, 41.565998792821816, 0.0 ], [ 44.950121051171969, 41.565998792821816, 0.0 ], [ 44.950140487058299, 41.565995080028401, 0.0 ], [ 44.950140487058299, 41.565995080028401, 0.0 ], [ 44.950159095885638, 41.56599477062894, 0.0 ], [ 44.950159095885638, 41.56599477062894, 0.0 ], [ 44.950176464124496, 41.565996317626222, 0.0 ], [ 44.950176464124496, 41.565996317626222, 0.0 ], [ 44.950194245892845, 41.566000339818999, 0.0 ], [ 44.950194245892845, 41.566000339818999, 0.0 ], [ 44.950212027661181, 41.566008693603209, 0.0 ], [ 44.950212027661181, 41.566008693603209, 0.0 ], [ 44.950228982370533, 41.566021069577815, 0.0 ], [ 44.950228982370533, 41.566021069577815, 0.0 ], [ 44.950291838853992, 41.566073358044356, 0.0 ], [ 44.950291838853992, 41.566073358044356, 0.0 ], [ 44.950337327098588, 41.566112961115117, 0.0 ], [ 44.950337327098588, 41.566112961115117, 0.0 ], [ 44.950367101222341, 41.566135856629323, 0.0 ], [ 44.950367101222341, 41.566135856629323, 0.0 ], [ 44.950397288875592, 41.566159680331431, 0.0 ], [ 44.950397702405084, 41.566159680331431, 0.0 ], [ 44.950423754763349, 41.566180410039109, 0.0 ], [ 44.950423754763349, 41.566180410039109, 0.0 ], [ 44.950447325944651, 41.566196189364391, 0.0 ], [ 44.950447325944651, 41.566196189364391, 0.0 ], [ 44.950475859479901, 41.56621599086516, 0.0 ], [ 44.950475859479901, 41.56621599086516, 0.0 ], [ 44.950550708318737, 41.566254975052068, 0.0 ], [ 44.950550708318737, 41.566254975052068, 0.0 ], [ 44.950642098337461, 41.566302622359665, 0.0 ], [ 44.950642098337461, 41.566302622359665, 0.0 ], [ 44.950712398351847, 41.566337584322767, 0.0 ], [ 44.950712398351847, 41.566337584322767, 0.0 ], [ 44.950791796015167, 41.566376877833939, 0.0 ], [ 44.950791796015167, 41.566376877833939, 0.0 ], [ 44.950829427199338, 41.566395132291632, 0.0 ], [ 44.950829427199338, 41.566395132291632, 0.0 ], [ 44.950880704856914, 41.566422049872379, 0.0 ], [ 44.950880704856914, 41.566422049872379, 0.0 ], [ 44.950962170167678, 41.566464746701577, 0.0 ], [ 44.950962170167678, 41.566464746701577, 0.0 ], [ 44.951020891356173, 41.566496614606443, 0.0 ], [ 44.951020891356173, 41.566496614606443, 0.0 ], [ 44.951048597832447, 41.566514559633326, 0.0 ], [ 44.951048597832447, 41.566514559633326, 0.0 ], [ 44.951063898423818, 41.56652910128939, 0.0 ], [ 44.951063898423818, 41.56652910128939, 0.0 ], [ 44.951072582543233, 41.566544880529499, 0.0 ], [ 44.951072582543233, 41.566544880529499, 0.0 ], [ 44.951082093721652, 41.566565300716881, 0.0 ], [ 44.951082093721652, 41.566565300716881, 0.0 ], [ 44.951082093721652, 41.566583245724686, 0.0 ], [ 44.951082093721652, 41.566583245724686, 0.0 ], [ 44.95107175548425, 41.566612947795626, 0.0 ], [ 44.95107175548425, 41.566612947795626, 0.0 ], [ 44.95106431195331, 41.566627489429557, 0.0 ], [ 44.95106431195331, 41.566627489429557, 0.0 ], [ 44.951051906068422, 41.566639865285616, 0.0 ], [ 44.951051906068422, 41.566639865285616, 0.0 ], [ 44.951025026651159, 41.566659976046694, 0.0 ], [ 44.951025026651159, 41.566659976046694, 0.0 ], [ 44.951000214881361, 41.566671423707888, 0.0 ], [ 44.951000214881361, 41.566671423707888, 0.0 ], [ 44.950976230170568, 41.566678539820579, 0.0 ], [ 44.950976230170568, 41.566678539820579, 0.0 ], [ 44.950949764282804, 41.566683180763221, 0.0 ], [ 44.950949764282804, 41.566683180763221, 0.0 ], [ 44.950911306039629, 41.566684418347862, 0.0 ], [ 44.950911306039629, 41.566684418347862, 0.0 ], [ 44.950875328973446, 41.566681324386202, 0.0 ], [ 44.950875328973446, 41.566681324386202, 0.0 ], [ 44.950836870730278, 41.566670495519219, 0.0 ], [ 44.950836870730278, 41.566670495519219, 0.0 ], [ 44.950817434843948, 41.566660904235505, 0.0 ], [ 44.950817434843948, 41.566660904235505, 0.0 ], [ 44.950798826016609, 41.566649765968776, 0.0 ], [ 44.950798826016609, 41.566649765968776, 0.0 ], [ 44.950654917751848, 41.56653405163965, 0.0 ], [ 44.950654917751848, 41.56653405163965, 0.0 ], [ 44.950510182428104, 41.566415243128873, 0.0 ], [ 44.950510182428104, 41.566415243128873, 0.0 ], [ 44.950475445950389, 41.566387706750142, 0.0 ], [ 44.950475445950389, 41.566387706750142, 0.0 ], [ 44.950439055354728, 41.566357695177928, 0.0 ], [ 44.950439055354728, 41.566357695177928, 0.0 ], [ 44.95041093534897, 41.566333871548821, 0.0 ], [ 44.95041093534897, 41.566333871548821, 0.0 ], [ 44.950378680048253, 41.566309429115023, 0.0 ], [ 44.950378680048253, 41.566309429115023, 0.0 ], [ 44.950351387101492, 41.566285914866192, 0.0 ], [ 44.950351387101492, 41.566285914866192, 0.0 ], [ 44.950315823564793, 41.566258069034127, 0.0 ], [ 44.950315823564793, 41.566258069034127, 0.0 ], [ 44.950273643556166, 41.566234554766609, 0.0 ], [ 44.950273643556166, 41.566234554766609, 0.0 ], [ 44.950231050018033, 41.566220941239393, 0.0 ], [ 44.950231050018033, 41.566220941239393, 0.0 ], [ 44.950185975302915, 41.566211349888952, 0.0 ], [ 44.950185975302915, 41.566211349888952, 0.0 ], [ 44.950129321761914, 41.566208565303086, 0.0 ], [ 44.950129321761914, 41.566208565303086, 0.0 ], [ 44.950066878807938, 41.566213515677902, 0.0 ], [ 44.950066878807938, 41.566213515677902, 0.0 ], [ 44.950017255268364, 41.566227438605019, 0.0 ], [ 44.950017255268364, 41.566227438605019, 0.0 ], [ 44.949963909963337, 41.566252190468063, 0.0 ], [ 44.949963909963337, 41.566252190468063, 0.0 ], [ 44.949926692308658, 41.566272610747944, 0.0 ], [ 44.949926692308658, 41.566272610747944, 0.0 ], [ 44.949666582255382, 41.566424525051644, 0.0 ], [ 44.949666582255382, 41.566424525051644, 0.0 ], [ 44.949432524560422, 41.566577985981525, 0.0 ], [ 44.949432524560422, 41.566577985981525, 0.0 ], [ 44.949290270413648, 41.566676064651034, 0.0 ], [ 44.949290270413648, 41.566676064651034, 0.0 ], [ 44.949157527445294, 41.566771977401523, 0.0 ], [ 44.949157527445294, 41.566771977401523, 0.0 ], [ 44.949091776255372, 41.566817767954753, 0.0 ], [ 44.949091776255372, 41.566817767954753, 0.0 ], [ 44.949057039777671, 41.566859536336509, 0.0 ], [ 44.949057039777671, 41.566859536336509, 0.0 ], [ 44.949049182717239, 41.566895426183699, 0.0 ], [ 44.949049182717239, 41.566895426183699, 0.0 ], [ 44.949050423305721, 41.566923890531086, 0.0 ], [ 44.949050423305721, 41.566923890531086, 0.0 ], [ 44.949059520954634, 41.566950189101775, 0.0 ], [ 44.949059520954634, 41.566950189101775, 0.0 ], [ 44.949072340369042, 41.566969990371447, 0.0 ], [ 44.949072340369042, 41.566969990371447, 0.0 ], [ 44.949090122137385, 41.566987316477451, 0.0 ], [ 44.949090122137385, 41.566987316477451, 0.0 ], [ 44.949112866259689, 41.567004023789544, 0.0 ], [ 44.949112866259689, 41.567004023789544, 0.0 ], [ 44.949142640383442, 41.567019184124561, 0.0 ], [ 44.949142640383442, 41.567019184124561, 0.0 ], [ 44.949167865682718, 41.567030941116613, 0.0 ], [ 44.949167865682718, 41.567030941116613, 0.0 ], [ 44.949196399217961, 41.567039604162019, 0.0 ], [ 44.949196399217961, 41.567039604162019, 0.0 ], [ 44.949217489222285, 41.567047029628576, 0.0 ], [ 44.949217489222285, 41.567047029628576, 0.0 ], [ 44.949247676875522, 41.56705259872794, 0.0 ], [ 44.949247676875522, 41.56705259872794, 0.0 ], [ 44.949271248056824, 41.567057239643717, 0.0 ], [ 44.949271248056824, 41.567057239643717, 0.0 ], [ 44.949302676298558, 41.567059405404301, 0.0 ], [ 44.949302676298558, 41.567059405404301, 0.0 ], [ 44.949336585717262, 41.56705693024935, 0.0 ], [ 44.949336585717262, 41.56705693024935, 0.0 ], [ 44.94936387866403, 41.56705259872794, 0.0 ], [ 44.94936387866403, 41.56705259872794, 0.0 ], [ 44.949396961023737, 41.567043316895408, 0.0 ], [ 44.949396961023737, 41.567043316895408, 0.0 ], [ 44.94942466749999, 41.567031869300102, 0.0 ], [ 44.94942466749999, 41.567031869300102, 0.0 ], [ 44.949458576918694, 41.56700928349801, 0.0 ], [ 44.949458576918694, 41.56700928349801, 0.0 ], [ 44.949568989294256, 41.56691863081565, 0.0 ], [ 44.949568989294256, 41.56691863081565, 0.0 ], [ 44.949712897559003, 41.566797038451575, 0.0 ], [ 44.949712897559003, 41.566797038451575, 0.0 ], [ 44.949901467009369, 41.566639865285616, 0.0 ], [ 44.949901467009369, 41.566639865285616, 0.0 ], [ 44.950009811737416, 41.566550140275353, 0.0 ], [ 44.950009811737416, 41.566550140275353, 0.0 ], [ 44.950035864095682, 41.566526935511042, 0.0 ], [ 44.950035864095682, 41.566526626114126, 0.0 ], [ 44.950054472923021, 41.5665148690303, 0.0 ], [ 44.950056540570515, 41.566513940839386, 0.0 ], [ 44.950078871163321, 41.566507752899582, 0.0 ], [ 44.950078871163321, 41.566507752899582, 0.0 ], [ 44.950107404698571, 41.566509609281582, 0.0 ], [ 44.950107404698571, 41.566509609281582, 0.0 ], [ 44.95013345705685, 41.566520128778585, 0.0 ], [ 44.95013345705685, 41.566520128778585, 0.0 ], [ 44.950154547061153, 41.56653281405211, 0.0 ], [ 44.950154547061153, 41.56653281405211, 0.0 ], [ 44.950176877653973, 41.566551377862538, 0.0 ], [ 44.950176877653973, 41.566551377862538, 0.0 ], [ 44.950261237671249, 41.566617588742979, 0.0 ], [ 44.950261237671249, 41.566617588742979, 0.0 ], [ 44.950293079442467, 41.566645434420067, 0.0 ], [ 44.950293079442467, 41.566645434420067, 0.0 ], [ 44.950303004150378, 41.566670186122984, 0.0 ], [ 44.950303004150378, 41.566670186122984, 0.0 ], [ 44.950295560619445, 41.566696794193028, 0.0 ], [ 44.950295560619445, 41.566696794193028, 0.0 ], [ 44.950279432969076, 41.566718761312373, 0.0 ], [ 44.950279432969076, 41.566718761312373, 0.0 ], [ 44.950248004727349, 41.566730827755038, 0.0 ], [ 44.950248004727349, 41.566731137150967, 0.0 ], [ 44.950213268249641, 41.566740419028363, 0.0 ], [ 44.950213268249641, 41.566740419028363, 0.0 ], [ 44.950093344695688, 41.566778165316016, 0.0 ], [ 44.950093344695688, 41.566778165316016, 0.0 ], [ 44.950001541147472, 41.566819624327863, 0.0 ], [ 44.950001541147472, 41.566819624327863, 0.0 ], [ 44.949913459364744, 41.566865105452031, 0.0 ], [ 44.949913459364744, 41.566865105452031, 0.0 ], [ 44.949846467586319, 41.566908420778631, 0.0 ], [ 44.949846467586319, 41.566908420778631, 0.0 ], [ 44.949700905203571, 41.567012686838574, 0.0 ], [ 44.949700905203571, 41.567012686838574, 0.0 ], [ 44.949542523406443, 41.567135825766819, 0.0 ], [ 44.949542523406443, 41.567135825766819, 0.0 ], [ 44.949483388688442, 41.567185638181179, 0.0 ], [ 44.949483388688442, 41.567185638181179, 0.0 ], [ 44.949462712213631, 41.56720110786727, 0.0 ], [ 44.949462712213631, 41.56720110786727, 0.0 ], [ 44.949433765148875, 41.567206367559692, 0.0 ], [ 44.949433765148875, 41.567206367559692, 0.0 ], [ 44.949404404554635, 41.567204820591371, 0.0 ], [ 44.949404404554635, 41.567204820591371, 0.0 ], [ 44.949385382197804, 41.567198632717741, 0.0 ], [ 44.949385382197804, 41.567198632717741, 0.0 ], [ 44.949321698655353, 41.567178212730546, 0.0 ], [ 44.949321698655353, 41.567178212730546, 0.0 ], [ 44.949289443354623, 41.567166765159143, 0.0 ], [ 44.949289443354623, 41.567166765159143, 0.0 ], [ 44.949263390996357, 41.56716212425124, 0.0 ], [ 44.949263390996357, 41.56716212425124, 0.0 ], [ 44.94923651157908, 41.567159030312446, 0.0 ], [ 44.94923651157908, 41.567159030312446, 0.0 ], [ 44.94920715098484, 41.567159649100219, 0.0 ], [ 44.94920715098484, 41.567159649100219, 0.0 ], [ 44.94917282803663, 41.567165836977594, 0.0 ], [ 44.94917282803663, 41.567165836977594, 0.0 ], [ 44.949145948619368, 41.567175428186339, 0.0 ], [ 44.949145948619368, 41.567175428186339, 0.0 ], [ 44.949126099203532, 41.567199560898828, 0.0 ], [ 44.949126099203532, 41.567199560898828, 0.0 ], [ 44.949090122137356, 41.567257108099923, 0.0 ], [ 44.949090122137356, 41.567257108099923, 0.0 ], [ 44.948992529176202, 41.56741025765956, 0.0 ], [ 44.948992529176202, 41.56741025765956, 0.0 ], [ 44.948895763274024, 41.56755876597677, 0.0 ], [ 44.948895763274024, 41.56755876597677, 0.0 ], [ 44.948774599131596, 41.567742853937773, 0.0 ], [ 44.948774599131596, 41.567742853937773, 0.0 ], [ 44.948678246758902, 41.567893836613436, 0.0 ], [ 44.948678246758902, 41.567893836613436, 0.0 ], [ 44.948592232623653, 41.5680222334883, 0.0 ], [ 44.948592232623653, 41.5680222334883, 0.0 ], [ 44.948516970255305, 41.568137945152088, 0.0 ], [ 44.948516970255305, 41.568137945152088, 0.0 ], [ 44.9484723090697, 41.568215601794208, 0.0 ], [ 44.9484723090697, 41.568215601794208, 0.0 ], [ 44.948456181419324, 41.568236640230971, 0.0 ], [ 44.948456181419324, 41.568236640230971, 0.0 ], [ 44.948432196708531, 41.568248087612801, 0.0 ], [ 44.948432196708531, 41.568248087612801, 0.0 ], [ 44.948403663173288, 41.568251490888088, 0.0 ], [ 44.948403663173288, 41.568251490888088, 0.0 ], [ 44.948370994343065, 41.568245612503397, 0.0 ], [ 44.948370994343065, 41.568245612503397, 0.0 ], [ 44.948337498453874, 41.568236021453508, 0.0 ], [ 44.948337498453874, 41.568236021453508, 0.0 ], [ 44.94811874135025, 41.568163315061383, 0.0 ], [ 44.94811874135025, 41.568163315061383, 0.0 ], [ 44.947982276616436, 41.568113812790131, 0.0 ], [ 44.947982276616436, 41.568113812790131, 0.0 ], [ 44.947881375419307, 41.568075448503812, 0.0 ], [ 44.947881375419307, 41.568075448503812, 0.0 ], [ 44.947854909531536, 41.568058432079198, 0.0 ], [ 44.94785449600203, 41.568058122689628, 0.0 ], [ 44.947838781881181, 41.568040178091458, 0.0 ], [ 44.947838368351668, 41.568039868701796, 0.0 ], [ 44.947827616584767, 41.568015736303174, 0.0 ], [ 44.947827616584767, 41.568015736303174, 0.0 ], [ 44.947827203055276, 41.567986344267055, 0.0 ], [ 44.947827203055276, 41.567986344267055, 0.0 ], [ 44.947835887174712, 41.56795540526722, 0.0 ], [ 44.947835887174712, 41.56795540526722, 0.0 ], [ 44.947847466000603, 41.567925085033004, 0.0 ], [ 44.947847466000603, 41.567925085033004, 0.0 ], [ 44.947865661298437, 41.567868157207869, 0.0 ], [ 44.947865661298437, 41.567868157207869, 0.0 ], [ 44.947892127186208, 41.56778833441205, 0.0 ], [ 44.947892127186208, 41.56778833441205, 0.0 ], [ 44.947913217190525, 41.567724290469712, 0.0 ], [ 44.947913217190525, 41.567724290469712, 0.0 ], [ 44.947943404843762, 41.567628379132941, 0.0 ], [ 44.947943404843762, 41.567628379132941, 0.0 ], [ 44.947964081318581, 41.567567738343328, 0.0 ], [ 44.947964081318581, 41.567567738343328, 0.0 ], [ 44.947982276616436, 41.567499672083109, 0.0 ], [ 44.947982276616436, 41.567499672083109, 0.0 ], [ 44.948007915445217, 41.567424489721439, 0.0 ], [ 44.948007915445217, 41.567424489721439, 0.0 ], [ 44.948023216036574, 41.567391075310375, 0.0 ], [ 44.94802362956608, 41.567391075310375, 0.0 ], [ 44.948043478981901, 41.567366323883647, 0.0 ], [ 44.948043478981901, 41.567366323883647, 0.0 ], [ 44.948093102521469, 41.567324555829522, 0.0 ], [ 44.948093929580466, 41.567323627650246, 0.0 ], [ 44.948127011940173, 41.567305992241259, 0.0 ], [ 44.948127011940173, 41.567305992241259, 0.0 ], [ 44.948158440181906, 41.567292997726298, 0.0 ], [ 44.948158440181906, 41.567292997726298, 0.0 ], [ 44.948195657836585, 41.567282168961825, 0.0 ], [ 44.948195657836585, 41.567281859568524, 0.0 ], [ 44.948237424315721, 41.56726948383541, 0.0 ], [ 44.948237424315721, 41.56726948383541, 0.0 ], [ 44.948286634325797, 41.567258345673608, 0.0 ], [ 44.948286634325797, 41.567258345673608, 0.0 ], [ 44.948328814334424, 41.567252157805093, 0.0 ], [ 44.948328814334424, 41.567252157805093, 0.0 ], [ 44.948364377871115, 41.567258964460429, 0.0 ], [ 44.948364377871115, 41.567258964460429, 0.0 ], [ 44.948394151994862, 41.567274743522276, 0.0 ], [ 44.948394151994862, 41.567274743522276, 0.0 ], [ 44.948416896117173, 41.567300113770528, 0.0 ], [ 44.948417309646658, 41.567300423163729, 0.0 ], [ 44.94842723435459, 41.567333528228609, 0.0 ], [ 44.94842723435459, 41.567333528228609, 0.0 ], [ 44.948414414940196, 41.567354876345576, 0.0 ], [ 44.948414414940196, 41.567354876345576, 0.0 ], [ 44.948381746109987, 41.567397881951081, 0.0 ], [ 44.948381746109987, 41.567397881951081, 0.0 ], [ 44.948321784333004, 41.567486058822482, 0.0 ], [ 44.948321784333004, 41.567486058822482, 0.0 ], [ 44.948282499030832, 41.567542986984279, 0.0 ], [ 44.948282499030832, 41.567542986984279, 0.0 ], [ 44.948237424315721, 41.567607649889851, 0.0 ], [ 44.948237424315721, 41.567607649889851, 0.0 ], [ 44.948136936648098, 41.567749041759313, 0.0 ], [ 44.948136936648098, 41.567749041759313, 0.0 ], [ 44.948092275462471, 41.567813704458651, 0.0 ], [ 44.948092275462471, 41.567813704458651, 0.0 ], [ 44.948073666635139, 41.567855472196541, 0.0 ], [ 44.948073666635139, 41.567855472196541, 0.0 ], [ 44.948072426046643, 41.567896002346011, 0.0 ], [ 44.948072426046643, 41.567896002346011, 0.0 ], [ 44.948084831931546, 41.56793343856836, 0.0 ], [ 44.948084831931546, 41.56793343856836, 0.0 ], [ 44.94810385428837, 41.567962830628552, 0.0 ], [ 44.94810385428837, 41.567962830628552, 0.0 ], [ 44.948121222527227, 41.567979228298427, 0.0 ], [ 44.948121222527227, 41.567979228298427, 0.0 ], [ 44.948144380179023, 41.567996244743902, 0.0 ], [ 44.948144793708515, 41.567996554133771, 0.0 ], [ 44.948170019007804, 41.568008310947974, 0.0 ], [ 44.948171259596286, 41.568008620337793, 0.0 ], [ 44.948217988429391, 41.568022852267831, 0.0 ], [ 44.948217988429391, 41.568022852267831, 0.0 ], [ 44.948255206084063, 41.568027493113895, 0.0 ], [ 44.948255206084063, 41.568027493113895, 0.0 ], [ 44.948301107858171, 41.568025327385769, 0.0 ], [ 44.948301107858171, 41.568025327385769, 0.0 ], [ 44.948350731397738, 41.568012642405293, 0.0 ], [ 44.948350731397738, 41.568012642405293, 0.0 ], [ 44.948385467875433, 41.567996244743902, 0.0 ], [ 44.948385467875433, 41.567996244743902, 0.0 ], [ 44.948419790823642, 41.567973659278934, 0.0 ], [ 44.948419790823642, 41.567973659278934, 0.0 ], [ 44.948439640239478, 41.567945195394032, 0.0 ], [ 44.948439640239478, 41.567945195394032, 0.0 ], [ 44.948459903184791, 41.5679142563745, 0.0 ], [ 44.948459903184791, 41.5679142563745, 0.0 ], [ 44.948509940253842, 41.56783690876081, 0.0 ], [ 44.948509940253842, 41.56783690876081, 0.0 ], [ 44.948544263202045, 41.567787096848583, 0.0 ], [ 44.948544263202045, 41.567787096848583, 0.0 ], [ 44.948590578505666, 41.567713461777544, 0.0 ], [ 44.948590578505666, 41.567713461777544, 0.0 ], [ 44.948628209689844, 41.567655914982922, 0.0 ], [ 44.948628209689844, 41.567655914982922, 0.0 ], [ 44.948668322050999, 41.567598677528842, 0.0 ], [ 44.948668322050999, 41.567597439961702, 0.0 ], [ 44.948695201468254, 41.567556600232955, 0.0 ], [ 44.948695201468254, 41.567556600232955, 0.0 ], [ 44.948767982659646, 41.567439959350338, 0.0 ], [ 44.948767982659646, 41.567439959350338, 0.0 ], [ 44.948821741494186, 41.56736137359718, 0.0 ], [ 44.948821741494186, 41.56736137359718, 0.0 ], [ 44.948853376500665, 41.567310633138831, 0.0 ], [ 44.948872398857503, 41.567277218668892, 0.0 ], [ 44.948875293563987, 41.567242876001217, 0.0 ], [ 44.948868263562531, 41.567209770889882, 0.0 ], [ 44.948846760028722, 41.567175737580172, 0.0 ], [ 44.948817812963988, 41.567152842434453, 0.0 ], [ 44.948765708247414, 41.5671126212129, 0.0 ], [ 44.948706573529442, 41.567067759051611, 0.0 ], [ 44.948664393520801, 41.567035891428461, 0.0 ], [ 44.948647438811449, 41.567007117735798, 0.0 ], [ 44.948642889986971, 41.566980819188288, 0.0 ], [ 44.948651987635905, 41.566955448814667, 0.0 ], [ 44.948673904699206, 41.566932553590881, 0.0 ], [ 44.948673904699206, 41.566932553590881, 0.0 ], [ 44.948714844119365, 41.566902851666867, 0.0 ], [ 44.948714844119365, 41.566902851666867, 0.0 ], [ 44.948758264716488, 41.56687129335765, 0.0 ], [ 44.948758264716488, 41.56687129335765, 0.0 ], [ 44.94889638356829, 41.566771049214324, 0.0 ], [ 44.94889638356829, 41.566771049214324, 0.0 ], [ 44.949062622425856, 41.566649456572492, 0.0 ], [ 44.949062622425856, 41.566649456572492, 0.0 ], [ 44.949186681274782, 41.566562206749545, 0.0 ], [ 44.949186681274782, 41.566562206749545, 0.0 ], [ 44.949292958355365, 41.566487332694066, 0.0 ], [ 44.949292958355365, 41.566487332694066, 0.0 ], [ 44.949376491313629, 41.566433806973116, 0.0 ], [ 44.949376491313629, 41.566433806973116, 0.0 ], [ 44.949469948979832, 41.566371927471685, 0.0 ], [ 44.949469948979832, 41.566371927471685, 0.0 ], [ 44.94950179075105, 41.566351816620937, 0.0 ], [ 44.94950179075105, 41.566351816620937, 0.0 ] ] } }
]
}
