{
  "type": "FeatureCollection",
  "features": [
    {
      "type": "Feature",
      "properties": {
        "name": "U",
        "type": "track_line",
        "points": 614
      },
      "geometry": {
        "type": "LineString",
        "coordinates": [
          [
            44.949442,
            41.566285
          ],
          [
            44.949462,
            41.566273
          ],
          [
            44.949481,
            41.566261
          ],
          [
            44.9495,
            41.566249
          ],
          [
            44.94952,
            41.566237
          ],
          [
            44.949539,
            41.566225
          ],
          [
            44.949559,
            41.566213
          ],
          [
            44.949579,
            41.566201
          ],
          [
            44.949598,
            41.566189
          ],
          [
            44.949618,
            41.566178
          ],
          [
            44.949638,
            41.566166
          ],
          [
            44.949658,
            41.566154
          ],
          [
            44.949678,
            41.566143
          ],
          [
            44.949698,
            41.566131
          ],
          [
            44.949717,
            41.566119
          ],
          [
            44.949737,
            41.566108
          ],
          [
            44.949757,
            41.566096
          ],
          [
            44.949777,
            41.566085
          ],
          [
            44.949798,
            41.566073
          ],
          [
            44.949818,
            41.566062
          ],
          [
            44.949839,
            41.566052
          ],
          [
            44.94986,
            41.566042
          ],
          [
            44.949882,
            41.566032
          ],
          [
            44.949904,
            41.566024
          ],
          [
            44.949927,
            41.566016
          ],
          [
            44.949951,
            41.566009
          ],
          [
            44.949975,
            41.566003
          ],
          [
            44.949999,
            41.565998
          ],
          [
            44.950024,
            41.565994
          ],
          [
            44.950049,
            41.565991
          ],
          [
            44.950074,
            41.565989
          ],
          [
            44.950099,
            41.565988
          ],
          [
            44.950124,
            41.565988
          ],
          [
            44.950149,
            41.565989
          ],
          [
            44.950174,
            41.56599
          ],
          [
            44.950199,
            41.565992
          ],
          [
            44.950224,
            41.565996
          ],
          [
            44.950248,
            41.566001
          ],
          [
            44.950272,
            41.566007
          ],
          [
            44.950295,
            41.566014
          ],
          [
            44.950317,
            41.566023
          ],
          [
            44.950339,
            41.566033
          ],
          [
            44.95036,
            41.566043
          ],
          [
            44.950381,
            41.566054
          ],
          [
            44.950401,
            41.566066
          ],
          [
            44.95042,
            41.566078
          ],
          [
            44.950438,
            41.566091
          ],
          [
            44.950457,
            41.566104
          ],
          [
            44.950474,
            41.566117
          ],
          [
            44.950492,
            41.566131
          ],
          [
            44.95051,
            41.566144
          ],
          [
            44.950529,
            41.566157
          ],
          [
            44.950548,
            41.566169
          ],
          [
            44.950567,
            41.566182
          ],
          [
            44.950586,
            41.566194
          ],
          [
            44.950606,
            41.566206
          ],
          [
            44.950626,
            41.566217
          ],
          [
            44.950646,
            41.566228
          ],
          [
            44.950667,
            41.566239
          ],
          [
            44.950687,
            41.56625
          ],
          [
            44.950708,
            41.566261
          ],
          [
            44.950729,
            41.566271
          ],
          [
            44.95075,
            41.566281
          ],
          [
            44.950771,
            41.566292
          ],
          [
            44.950793,
            41.566302
          ],
          [
            44.950814,
            41.566312
          ],
          [
            44.950835,
            41.566323
          ],
          [
            44.950856,
            41.566333
          ],
          [
            44.950876,
            41.566344
          ],
          [
            44.950897,
            41.566355
          ],
          [
            44.950918,
            41.566365
          ],
          [
            44.950939,
            41.566376
          ],
          [
            44.95096,
            41.566387
          ],
          [
            44.95098,
            41.566398
          ],
          [
            44.951,
            41.566409
          ],
          [
            44.951019,
            41.566422
          ],
          [
            44.951037,
            41.566435
          ],
          [
            44.951053,
            41.56645
          ],
          [
            44.951067,
            41.566466
          ],
          [
            44.951078,
            41.566482
          ],
          [
            44.951088,
            41.5665
          ],
          [
            44.951095,
            41.566518
          ],
          [
            44.9511,
            41.566536
          ],
          [
            44.951101,
            41.566555
          ],
          [
            44.9511,
            41.566574
          ],
          [
            44.951096,
            41.566593
          ],
          [
            44.951088,
            41.566611
          ],
          [
            44.951078,
            41.566628
          ],
          [
            44.951064,
            41.566644
          ],
          [
            44.951049,
            41.566659
          ],
          [
            44.951031,
            41.566672
          ],
          [
            44.95101,
            41.566683
          ],
          [
            44.950988,
            41.566692
          ],
          [
            44.950965,
            41.566699
          ],
          [
            44.95094,
            41.566703
          ],
          [
            44.950915,
            41.566706
          ],
          [
            44.95089,
            41.566706
          ],
          [
            44.950865,
            41.566704
          ],
          [
            44.950841,
            41.566701
          ],
          [
            44.950817,
            41.566695
          ],
          [
            44.950793,
            41.566688
          ],
          [
            44.950771,
            41.566679
          ],
          [
            44.95075,
            41.566668
          ],
          [
            44.95073,
            41.566656
          ],
          [
            44.950713,
            41.566643
          ],
          [
            44.950696,
            41.566629
          ],
          [
            44.950681,
            41.566614
          ],
          [
            44.950666,
            41.566598
          ],
          [
            44.950653,
            41.566582
          ],
          [
            44.950639,
            41.566566
          ],
          [
            44.950626,
            41.56655
          ],
          [
            44.950612,
            41.566534
          ],
          [
            44.950599,
            41.566518
          ],
          [
            44.950585,
            41.566502
          ],
          [
            44.950572,
            41.566486
          ],
          [
            44.950559,
            41.56647
          ],
          [
            44.950545,
            41.566454
          ],
          [
            44.950531,
            41.566439
          ],
          [
            44.950517,
            41.566423
          ],
          [
            44.950502,
            41.566408
          ],
          [
            44.950485,
            41.566394
          ],
          [
            44.950468,
            41.56638
          ],
          [
            44.95045,
            41.566366
          ],
          [
            44.950431,
            41.566354
          ],
          [
            44.950412,
            41.566342
          ],
          [
            44.950392,
            41.566331
          ],
          [
            44.950371,
            41.56632
          ],
          [
            44.950349,
            41.566311
          ],
          [
            44.950326,
            41.566303
          ],
          [
            44.950303,
            41.566295
          ],
          [
            44.950279,
            41.566288
          ],
          [
            44.950256,
            41.566282
          ],
          [
            44.950231,
            41.566278
          ],
          [
            44.950206,
            41.566274
          ],
          [
            44.950181,
            41.566271
          ],
          [
            44.950156,
            41.56627
          ],
          [
            44.950131,
            41.566269
          ],
          [
            44.950106,
            41.56627
          ],
          [
            44.950081,
            41.566272
          ],
          [
            44.950056,
            41.566275
          ],
          [
            44.950031,
            41.566279
          ],
          [
            44.950007,
            41.566283
          ],
          [
            44.949983,
            41.566289
          ],
          [
            44.949959,
            41.566296
          ],
          [
            44.949936,
            41.566303
          ],
          [
            44.949914,
            41.566312
          ],
          [
            44.949892,
            41.566321
          ],
          [
            44.94987,
            41.56633
          ],
          [
            44.949848,
            41.56634
          ],
          [
            44.949827,
            41.56635
          ],
          [
            44.949806,
            41.566361
          ],
          [
            44.949786,
            41.566372
          ],
          [
            44.949766,
            41.566384
          ],
          [
            44.949746,
            41.566395
          ],
          [
            44.949726,
            41.566407
          ],
          [
            44.949706,
            41.566418
          ],
          [
            44.949687,
            41.56643
          ],
          [
            44.949667,
            41.566442
          ],
          [
            44.949648,
            41.566454
          ],
          [
            44.949628,
            41.566466
          ],
          [
            44.949609,
            41.566478
          ],
          [
            44.949589,
            41.56649
          ],
          [
            44.94957,
            41.566503
          ],
          [
            44.949551,
            41.566515
          ],
          [
            44.949532,
            41.566527
          ],
          [
            44.949513,
            41.56654
          ],
          [
            44.949494,
            41.566552
          ],
          [
            44.949475,
            41.566565
          ],
          [
            44.949456,
            41.566577
          ],
          [
            44.949437,
            41.56659
          ],
          [
            44.949418,
            41.566602
          ],
          [
            44.949399,
            41.566615
          ],
          [
            44.949381,
            41.566627
          ],
          [
            44.949362,
            41.56664
          ],
          [
            44.949343,
            41.566652
          ],
          [
            44.949324,
            41.566665
          ],
          [
            44.949306,
            41.566678
          ],
          [
            44.949287,
            41.566691
          ],
          [
            44.949268,
            41.566703
          ],
          [
            44.94925,
            41.566716
          ],
          [
            44.949232,
            41.56673
          ],
          [
            44.949214,
            41.566743
          ],
          [
            44.949197,
            41.566757
          ],
          [
            44.949181,
            41.566772
          ],
          [
            44.949167,
            41.566787
          ],
          [
            44.949153,
            41.566803
          ],
          [
            44.949142,
            41.56682
          ],
          [
            44.949134,
            41.566838
          ],
          [
            44.949129,
            41.566856
          ],
          [
            44.949128,
            41.566875
          ],
          [
            44.94913,
            41.566894
          ],
          [
            44.949137,
            41.566912
          ],
          [
            44.949147,
            41.566929
          ],
          [
            44.949161,
            41.566945
          ],
          [
            44.94918,
            41.566958
          ],
          [
            44.9492,
            41.566969
          ],
          [
            44.949222,
            41.566978
          ],
          [
            44.949246,
            41.566985
          ],
          [
            44.94927,
            41.566989
          ],
          [
            44.949295,
            41.566992
          ],
          [
            44.94932,
            41.566992
          ],
          [
            44.949345,
            41.566991
          ],
          [
            44.94937,
            41.566988
          ],
          [
            44.949395,
            41.566983
          ],
          [
            44.949418,
            41.566977
          ],
          [
            44.949441,
            41.566969
          ],
          [
            44.949463,
            41.56696
          ],
          [
            44.949484,
            41.56695
          ],
          [
            44.949505,
            41.566938
          ],
          [
            44.949524,
            41.566926
          ],
          [
            44.949543,
            41.566914
          ],
          [
            44.949561,
            41.566901
          ],
          [
            44.949579,
            41.566887
          ],
          [
            44.949595,
            41.566873
          ],
          [
            44.949611,
            41.566858
          ],
          [
            44.949626,
            41.566843
          ],
          [
            44.94964,
            41.566827
          ],
          [
            44.949654,
            41.566811
          ],
          [
            44.949667,
            41.566795
          ],
          [
            44.94968,
            41.566779
          ],
          [
            44.949693,
            41.566763
          ],
          [
            44.949707,
            41.566747
          ],
          [
            44.94972,
            41.566731
          ],
          [
            44.949733,
            41.566715
          ],
          [
            44.949747,
            41.566699
          ],
          [
            44.949761,
            41.566683
          ],
          [
            44.949775,
            41.566667
          ],
          [
            44.94979,
            41.566652
          ],
          [
            44.949805,
            41.566637
          ],
          [
            44.94982,
            41.566622
          ],
          [
            44.949836,
            41.566607
          ],
          [
            44.949853,
            41.566593
          ],
          [
            44.94987,
            41.566579
          ],
          [
            44.949888,
            41.566566
          ],
          [
            44.949906,
            41.566553
          ],
          [
            44.949926,
            41.566541
          ],
          [
            44.949947,
            41.56653
          ],
          [
            44.949969,
            41.566521
          ],
          [
            44.949991,
            41.566513
          ],
          [
            44.950015,
            41.566506
          ],
          [
            44.950039,
            41.566501
          ],
          [
            44.950064,
            41.566498
          ],
          [
            44.950089,
            41.566496
          ],
          [
            44.950114,
            41.566497
          ],
          [
            44.950139,
            41.566499
          ],
          [
            44.950164,
            41.566504
          ],
          [
            44.950187,
            41.56651
          ],
          [
            44.95021,
            41.566518
          ],
          [
            44.950232,
            41.566527
          ],
          [
            44.950252,
            41.566539
          ],
          [
            44.95027,
            41.566552
          ],
          [
            44.950286,
            41.566566
          ],
          [
            44.950301,
            41.566582
          ],
          [
            44.950313,
            41.566599
          ],
          [
            44.950321,
            41.566616
          ],
          [
            44.950327,
            41.566635
          ],
          [
            44.95033,
            41.566654
          ],
          [
            44.950329,
            41.566672
          ],
          [
            44.950326,
            41.566691
          ],
          [
            44.95032,
            41.566709
          ],
          [
            44.950309,
            41.566727
          ],
          [
            44.950297,
            41.566743
          ],
          [
            44.950282,
            41.566758
          ],
          [
            44.950265,
            41.566772
          ],
          [
            44.950247,
            41.566785
          ],
          [
            44.950227,
            41.566797
          ],
          [
            44.950207,
            41.566808
          ],
          [
            44.950185,
            41.566818
          ],
          [
            44.950164,
            41.566828
          ],
          [
            44.950142,
            41.566838
          ],
          [
            44.95012,
            41.566847
          ],
          [
            44.950098,
            41.566856
          ],
          [
            44.950077,
            41.566866
          ],
          [
            44.950055,
            41.566876
          ],
          [
            44.950034,
            41.566886
          ],
          [
            44.950012,
            41.566896
          ],
          [
            44.949991,
            41.566906
          ],
          [
            44.94997,
            41.566917
          ],
          [
            44.949949,
            41.566927
          ],
          [
            44.949929,
            41.566939
          ],
          [
            44.949909,
            41.56695
          ],
          [
            44.94989,
            41.566962
          ],
          [
            44.949871,
            41.566975
          ],
          [
            44.949853,
            41.566988
          ],
          [
            44.949835,
            41.567001
          ],
          [
            44.949817,
            41.567015
          ],
          [
            44.9498,
            41.567028
          ],
          [
            44.949783,
            41.567042
          ],
          [
            44.949766,
            41.567057
          ],
          [
            44.949749,
            41.567071
          ],
          [
            44.949733,
            41.567085
          ],
          [
            44.949716,
            41.567099
          ],
          [
            44.949698,
            41.567112
          ],
          [
            44.949679,
            41.567125
          ],
          [
            44.94966,
            41.567137
          ],
          [
            44.94964,
            41.567148
          ],
          [
            44.949619,
            41.567159
          ],
          [
            44.949597,
            41.567169
          ],
          [
            44.949575,
            41.567178
          ],
          [
            44.949552,
            41.567186
          ],
          [
            44.949529,
            41.567193
          ],
          [
            44.949505,
            41.567199
          ],
          [
            44.94948,
            41.567203
          ],
          [
            44.949455,
            41.567205
          ],
          [
            44.94943,
            41.567207
          ],
          [
            44.949405,
            41.567208
          ],
          [
            44.94938,
            41.567209
          ],
          [
            44.949355,
            41.567211
          ],
          [
            44.94933,
            41.567213
          ],
          [
            44.949305,
            41.567217
          ],
          [
            44.949281,
            41.567222
          ],
          [
            44.949257,
            41.567228
          ],
          [
            44.949234,
            41.567235
          ],
          [
            44.949211,
            41.567244
          ],
          [
            44.949189,
            41.567252
          ],
          [
            44.949167,
            41.567262
          ],
          [
            44.949146,
            41.567272
          ],
          [
            44.949126,
            41.567283
          ],
          [
            44.949107,
            41.567296
          ],
          [
            44.949088,
            41.567309
          ],
          [
            44.949072,
            41.567323
          ],
          [
            44.949057,
            41.567338
          ],
          [
            44.949042,
            41.567354
          ],
          [
            44.949028,
            41.567369
          ],
          [
            44.949015,
            41.567386
          ],
          [
            44.949003,
            41.567402
          ],
          [
            44.948991,
            41.567419
          ],
          [
            44.94898,
            41.567436
          ],
          [
            44.948969,
            41.567453
          ],
          [
            44.948959,
            41.56747
          ],
          [
            44.94895,
            41.567488
          ],
          [
            44.948941,
            41.567505
          ],
          [
            44.948932,
            41.567523
          ],
          [
            44.948923,
            41.567541
          ],
          [
            44.948914,
            41.567559
          ],
          [
            44.948905,
            41.567576
          ],
          [
            44.948897,
            41.567594
          ],
          [
            44.948888,
            41.567612
          ],
          [
            44.94888,
            41.56763
          ],
          [
            44.948872,
            41.567648
          ],
          [
            44.948863,
            41.567666
          ],
          [
            44.948855,
            41.567683
          ],
          [
            44.948847,
            41.567701
          ],
          [
            44.948839,
            41.567719
          ],
          [
            44.948831,
            41.567737
          ],
          [
            44.948823,
            41.567755
          ],
          [
            44.948814,
            41.567773
          ],
          [
            44.948806,
            41.567791
          ],
          [
            44.948798,
            41.567809
          ],
          [
            44.94879,
            41.567827
          ],
          [
            44.948782,
            41.567845
          ],
          [
            44.948774,
            41.567862
          ],
          [
            44.948765,
            41.56788
          ],
          [
            44.948757,
            41.567898
          ],
          [
            44.948749,
            41.567916
          ],
          [
            44.948741,
            41.567934
          ],
          [
            44.948732,
            41.567952
          ],
          [
            44.948724,
            41.56797
          ],
          [
            44.948715,
            41.567988
          ],
          [
            44.948707,
            41.568005
          ],
          [
            44.948698,
            41.568023
          ],
          [
            44.948689,
            41.568041
          ],
          [
            44.94868,
            41.568058
          ],
          [
            44.94867,
            41.568076
          ],
          [
            44.948659,
            41.568093
          ],
          [
            44.948647,
            41.56811
          ],
          [
            44.948635,
            41.568126
          ],
          [
            44.948621,
            41.568142
          ],
          [
            44.948607,
            41.568157
          ],
          [
            44.948591,
            41.568172
          ],
          [
            44.948573,
            41.568186
          ],
          [
            44.948555,
            41.568199
          ],
          [
            44.948536,
            41.568211
          ],
          [
            44.948515,
            41.568222
          ],
          [
            44.948494,
            41.568232
          ],
          [
            44.948472,
            41.568241
          ],
          [
            44.948448,
            41.568247
          ],
          [
            44.948424,
            41.568252
          ],
          [
            44.948399,
            41.568255
          ],
          [
            44.948374,
            41.568256
          ],
          [
            44.948349,
            41.568258
          ],
          [
            44.948323,
            41.568258
          ],
          [
            44.948298,
            41.568256
          ],
          [
            44.948273,
            41.568253
          ],
          [
            44.948249,
            41.568249
          ],
          [
            44.948224,
            41.568245
          ],
          [
            44.9482,
            41.568241
          ],
          [
            44.948175,
            41.568236
          ],
          [
            44.948151,
            41.568231
          ],
          [
            44.948127,
            41.568224
          ],
          [
            44.948104,
            41.568218
          ],
          [
            44.948081,
            41.56821
          ],
          [
            44.948058,
            41.568203
          ],
          [
            44.948035,
            41.568194
          ],
          [
            44.948013,
            41.568184
          ],
          [
            44.947992,
            41.568174
          ],
          [
            44.947971,
            41.568163
          ],
          [
            44.947951,
            41.568152
          ],
          [
            44.947932,
            41.56814
          ],
          [
            44.947914,
            41.568126
          ],
          [
            44.947897,
            41.568112
          ],
          [
            44.947881,
            41.568098
          ],
          [
            44.947867,
            41.568082
          ],
          [
            44.947854,
            41.568066
          ],
          [
            44.947843,
            41.568049
          ],
          [
            44.947833,
            41.568032
          ],
          [
            44.947826,
            41.568014
          ],
          [
            44.94782,
            41.567995
          ],
          [
            44.947816,
            41.567977
          ],
          [
            44.947813,
            41.567958
          ],
          [
            44.947812,
            41.567939
          ],
          [
            44.947811,
            41.56792
          ],
          [
            44.94781,
            41.567901
          ],
          [
            44.94781,
            41.567882
          ],
          [
            44.947811,
            41.567863
          ],
          [
            44.947813,
            41.567844
          ],
          [
            44.947815,
            41.567825
          ],
          [
            44.947818,
            41.567807
          ],
          [
            44.947821,
            41.567788
          ],
          [
            44.947825,
            41.567769
          ],
          [
            44.947829,
            41.56775
          ],
          [
            44.947833,
            41.567732
          ],
          [
            44.947838,
            41.567713
          ],
          [
            44.947843,
            41.567695
          ],
          [
            44.947849,
            41.567676
          ],
          [
            44.947855,
            41.567658
          ],
          [
            44.947861,
            41.56764
          ],
          [
            44.947869,
            41.567622
          ],
          [
            44.947876,
            41.567603
          ],
          [
            44.947884,
            41.567585
          ],
          [
            44.947892,
            41.567568
          ],
          [
            44.947901,
            41.56755
          ],
          [
            44.94791,
            41.567532
          ],
          [
            44.947919,
            41.567515
          ],
          [
            44.947929,
            41.567497
          ],
          [
            44.94794,
            41.56748
          ],
          [
            44.947951,
            41.567463
          ],
          [
            44.947962,
            41.567446
          ],
          [
            44.947974,
            41.56743
          ],
          [
            44.947987,
            41.567413
          ],
          [
            44.948001,
            41.567397
          ],
          [
            44.948015,
            41.567382
          ],
          [
            44.948031,
            41.567367
          ],
          [
            44.948047,
            41.567353
          ],
          [
            44.948064,
            41.567339
          ],
          [
            44.948082,
            41.567325
          ],
          [
            44.948102,
            41.567313
          ],
          [
            44.948121,
            41.567301
          ],
          [
            44.948142,
            41.567291
          ],
          [
            44.948163,
            41.56728
          ],
          [
            44.948185,
            41.567271
          ],
          [
            44.948208,
            41.567263
          ],
          [
            44.948231,
            41.567256
          ],
          [
            44.948256,
            41.567251
          ],
          [
            44.94828,
            41.567248
          ],
          [
            44.948305,
            41.567246
          ],
          [
            44.948331,
            41.567246
          ],
          [
            44.948355,
            41.567249
          ],
          [
            44.948379,
            41.567255
          ],
          [
            44.948401,
            41.567264
          ],
          [
            44.948421,
            41.567276
          ],
          [
            44.948439,
            41.567289
          ],
          [
            44.948454,
            41.567304
          ],
          [
            44.948465,
            41.567321
          ],
          [
            44.948474,
            41.567339
          ],
          [
            44.948478,
            41.567357
          ],
          [
            44.94848,
            41.567376
          ],
          [
            44.948477,
            41.567395
          ],
          [
            44.948472,
            41.567414
          ],
          [
            44.948464,
            41.567431
          ],
          [
            44.948453,
            41.567448
          ],
          [
            44.94844,
            41.567465
          ],
          [
            44.948426,
            41.56748
          ],
          [
            44.948411,
            41.567495
          ],
          [
            44.948395,
            41.56751
          ],
          [
            44.948379,
            41.567525
          ],
          [
            44.948362,
            41.567539
          ],
          [
            44.948345,
            41.567553
          ],
          [
            44.948328,
            41.567567
          ],
          [
            44.94831,
            41.56758
          ],
          [
            44.948293,
            41.567594
          ],
          [
            44.948275,
            41.567608
          ],
          [
            44.948258,
            41.567622
          ],
          [
            44.948242,
            41.567636
          ],
          [
            44.948226,
            41.56765
          ],
          [
            44.94821,
            41.567665
          ],
          [
            44.948196,
            41.567681
          ],
          [
            44.948182,
            41.567697
          ],
          [
            44.94817,
            41.567713
          ],
          [
            44.94816,
            41.567731
          ],
          [
            44.948151,
            41.567748
          ],
          [
            44.948145,
            41.567767
          ],
          [
            44.948141,
            41.567785
          ],
          [
            44.948139,
            41.567804
          ],
          [
            44.948141,
            41.567823
          ],
          [
            44.948145,
            41.567842
          ],
          [
            44.948152,
            41.56786
          ],
          [
            44.948161,
            41.567878
          ],
          [
            44.948173,
            41.567894
          ],
          [
            44.948188,
            41.56791
          ],
          [
            44.948205,
            41.567923
          ],
          [
            44.948226,
            41.567934
          ],
          [
            44.948248,
            41.567942
          ],
          [
            44.948272,
            41.567948
          ],
          [
            44.948297,
            41.56795
          ],
          [
            44.948322,
            41.567949
          ],
          [
            44.948347,
            41.567946
          ],
          [
            44.948371,
            41.56794
          ],
          [
            44.948393,
            41.567931
          ],
          [
            44.948415,
            41.567921
          ],
          [
            44.948435,
            41.56791
          ],
          [
            44.948453,
            41.567897
          ],
          [
            44.94847,
            41.567883
          ],
          [
            44.948486,
            41.567868
          ],
          [
            44.948501,
            41.567853
          ],
          [
            44.948514,
            41.567837
          ],
          [
            44.948526,
            41.56782
          ],
          [
            44.948538,
            41.567804
          ],
          [
            44.948549,
            41.567786
          ],
          [
            44.948559,
            41.567769
          ],
          [
            44.948569,
            41.567752
          ],
          [
            44.948578,
            41.567734
          ],
          [
            44.948588,
            41.567717
          ],
          [
            44.948598,
            41.567699
          ],
          [
            44.948608,
            41.567682
          ],
          [
            44.948618,
            41.567665
          ],
          [
            44.948628,
            41.567647
          ],
          [
            44.948638,
            41.56763
          ],
          [
            44.948648,
            41.567613
          ],
          [
            44.948659,
            41.567596
          ],
          [
            44.94867,
            41.567578
          ],
          [
            44.948681,
            41.567561
          ],
          [
            44.948692,
            41.567545
          ],
          [
            44.948703,
            41.567528
          ],
          [
            44.948715,
            41.567511
          ],
          [
            44.948727,
            41.567494
          ],
          [
            44.94874,
            41.567478
          ],
          [
            44.948751,
            41.567461
          ],
          [
            44.948762,
            41.567444
          ],
          [
            44.948772,
            41.567426
          ],
          [
            44.94878,
            41.567409
          ],
          [
            44.948787,
            41.567391
          ],
          [
            44.948792,
            41.567372
          ],
          [
            44.948796,
            41.567353
          ],
          [
            44.948798,
            41.567334
          ],
          [
            44.948798,
            41.567316
          ],
          [
            44.948797,
            41.567297
          ],
          [
            44.948794,
            41.567278
          ],
          [
            44.94879,
            41.567259
          ],
          [
            44.948782,
            41.567241
          ],
          [
            44.948773,
            41.567224
          ],
          [
            44.948762,
            41.567207
          ],
          [
            44.948749,
            41.56719
          ],
          [
            44.948735,
            41.567174
          ],
          [
            44.948721,
            41.567159
          ],
          [
            44.948706,
            41.567143
          ],
          [
            44.948693,
            41.567127
          ],
          [
            44.948681,
            41.567111
          ],
          [
            44.94867,
            41.567094
          ],
          [
            44.94866,
            41.567076
          ],
          [
            44.948652,
            41.567058
          ],
          [
            44.948646,
            41.56704
          ],
          [
            44.948641,
            41.567022
          ],
          [
            44.948639,
            41.567003
          ],
          [
            44.948637,
            41.566984
          ],
          [
            44.948638,
            41.566965
          ],
          [
            44.94864,
            41.566946
          ],
          [
            44.948644,
            41.566927
          ],
          [
            44.94865,
            41.566909
          ],
          [
            44.948657,
            41.566891
          ],
          [
            44.948667,
            41.566873
          ],
          [
            44.948677,
            41.566856
          ],
          [
            44.948688,
            41.566839
          ],
          [
            44.948701,
            41.566823
          ],
          [
            44.948715,
            41.566807
          ],
          [
            44.94873,
            41.566792
          ],
          [
            44.948746,
            41.566777
          ],
          [
            44.948762,
            41.566763
          ],
          [
            44.948779,
            41.566749
          ],
          [
            44.948797,
            41.566736
          ],
          [
            44.948815,
            41.566722
          ],
          [
            44.948834,
            41.566709
          ],
          [
            44.948852,
            41.566697
          ],
          [
            44.948871,
            41.566684
          ],
          [
            44.948889,
            41.566671
          ],
          [
            44.948908,
            41.566658
          ],
          [
            44.948927,
            41.566646
          ],
          [
            44.948945,
            41.566633
          ],
          [
            44.948964,
            41.56662
          ],
          [
            44.948982,
            41.566607
          ],
          [
            44.949,
            41.566594
          ],
          [
            44.949019,
            41.566581
          ],
          [
            44.949037,
            41.566568
          ],
          [
            44.949056,
            41.566555
          ],
          [
            44.949074,
            41.566543
          ],
          [
            44.949093,
            41.56653
          ],
          [
            44.949111,
            41.566517
          ],
          [
            44.94913,
            41.566504
          ],
          [
            44.949148,
            41.566491
          ],
          [
            44.949167,
            41.566479
          ],
          [
            44.949186,
            41.566466
          ],
          [
            44.949204,
            41.566453
          ],
          [
            44.949223,
            41.56644
          ],
          [
            44.949242,
            41.566428
          ],
          [
            44.94926,
            41.566415
          ],
          [
            44.949279,
            41.566402
          ],
          [
            44.949298,
            41.56639
          ],
          [
            44.949316,
            41.566377
          ],
          [
            44.949335,
            41.566364
          ],
          [
            44.949354,
            41.566352
          ],
          [
            44.949373,
            41.566339
          ],
          [
            44.949392,
            41.566327
          ],
          [
            44.949411,
            41.566314
          ],
          [
            44.949429,
            41.566301
          ]
        ]
      }
    },
    {
      "type": "Feature",
      "properties": {
        "name": "center",
        "type": "center_point"
      },
      "geometry": {
        "type": "Point",
        "coordinates": [
          44.949289,
          41.567023
        ]
      }
    }
  ]
}