{
  "type": "FeatureCollection",
  "features": [
    {
      "type": "Feature",
      "properties": {
        "name": "RIMSportKarting",
        "source": "C:\\Users\\macbook\\Documents\\MoTeC\\Logged Data",
        "coordinate_count": 9
      },
      "geometry": {
        "type": "LineString",
        "coordinates": [
          [
            44.9501264,
            41.5666153,
            0.0
          ],
          [
            44.949354,
            41.5668062,
            0.0
          ],
          [
            44.9488183,
            41.5672256,
            0.0
          ],
          [
            44.9482604,
            41.5677659,
            0.0
          ],
          [
            44.9478655,
            41.5682528,
            0.0
          ],
          [
            44.9484177,
            41.567722,
            0.0
          ],
          [
            44.9481507,
            41.5672475,
            0.0
          ],
          [
            44.9487108,
            41.5679253,
            0.0
          ],
          [
            44.9487369,
            41.5674496,
            0.0
          ]
        ]
      }
    }
  ]
}