{
  "type": "FeatureCollection",
  "features": [
    {
      "type": "Feature",
      "properties": {
        "name": "U",
        "type": "track_line",
        "points": 614
      },
      "geometry": {
        "type": "LineString",
        "coordinates": [
          [
            44.948633,
            41.568132
          ],
          [
            44.948618,
            41.568151
          ],
          [
            44.948603,
            41.568166
          ],
          [
            44.948586,
            41.568182
          ],
          [
            44.948568,
            41.568197
          ],
          [
            44.948549,
            41.568211
          ],
          [
            44.948529,
            41.568224
          ],
          [
            44.948509,
            41.568236
          ],
          [
            44.948488,
            41.568247
          ],
          [
            44.948464,
            41.568256
          ],
          [
            44.948443,
            41.568264
          ],
          [
            44.948419,
            41.568271
          ],
          [
            44.948394,
            41.568274
          ],
          [
            44.948371,
            41.568276
          ],
          [
            44.948346,
            41.568277
          ],
          [
            44.948321,
            41.568277
          ],
          [
            44.948294,
            41.568277
          ],
          [
            44.948269,
            41.568276
          ],
          [
            44.948243,
            41.568274
          ],
          [
            44.948218,
            41.568271
          ],
          [
            44.948191,
            41.568266
          ],
          [
            44.948166,
            41.568259
          ],
          [
            44.948139,
            41.568254
          ],
          [
            44.948114,
            41.568246
          ],
          [
            44.948089,
            41.568237
          ],
          [
            44.948064,
            41.568229
          ],
          [
            44.948039,
            41.568219
          ],
          [
            44.948016,
            41.568207
          ],
          [
            44.947993,
            41.568196
          ],
          [
            44.947969,
            41.568182
          ],
          [
            44.947946,
            41.568169
          ],
          [
            44.947924,
            41.568156
          ],
          [
            44.947904,
            41.568141
          ],
          [
            44.947886,
            41.568124
          ],
          [
            44.947868,
            41.568107
          ],
          [
            44.947853,
            41.568089
          ],
          [
            44.947838,
            41.568072
          ],
          [
            44.947826,
            41.568052
          ],
          [
            44.947818,
            41.568032
          ],
          [
            44.947811,
            41.568012
          ],
          [
            44.947806,
            41.567992
          ],
          [
            44.947803,
            41.567971
          ],
          [
            44.947801,
            41.567949
          ],
          [
            44.947799,
            41.567927
          ],
          [
            44.947801,
            41.567906
          ],
          [
            44.947803,
            41.567884
          ],
          [
            44.947804,
            41.567862
          ],
          [
            44.947806,
            41.567841
          ],
          [
            44.947809,
            41.567819
          ],
          [
            44.947814,
            41.567796
          ],
          [
            44.947819,
            41.567774
          ],
          [
            44.947824,
            41.567752
          ],
          [
            44.947831,
            41.567729
          ],
          [
            44.947836,
            41.567707
          ],
          [
            44.947843,
            41.567684
          ],
          [
            44.947851,
            41.567662
          ],
          [
            44.947858,
            41.567639
          ],
          [
            44.947866,
            41.567616
          ],
          [
            44.947874,
            41.567594
          ],
          [
            44.947883,
            41.567571
          ],
          [
            44.947893,
            41.567547
          ],
          [
            44.947903,
            41.567526
          ],
          [
            44.947913,
            41.567506
          ],
          [
            44.947924,
            41.567484
          ],
          [
            44.947936,
            41.567464
          ],
          [
            44.947948,
            41.567446
          ],
          [
            44.947959,
            41.567427
          ],
          [
            44.947971,
            41.567409
          ],
          [
            44.947984,
            41.567391
          ],
          [
            44.947999,
            41.567376
          ],
          [
            44.948013,
            41.567359
          ],
          [
            44.948028,
            41.567344
          ],
          [
            44.948044,
            41.567331
          ],
          [
            44.948061,
            41.567317
          ],
          [
            44.948078,
            41.567306
          ],
          [
            44.948094,
            41.567294
          ],
          [
            44.948113,
            41.567284
          ],
          [
            44.948133,
            41.567276
          ],
          [
            44.948151,
            41.567267
          ],
          [
            44.948171,
            41.567261
          ],
          [
            44.948191,
            41.567256
          ],
          [
            44.948209,
            41.567251
          ],
          [
            44.948229,
            41.567249
          ],
          [
            44.948248,
            41.567247
          ],
          [
            44.948266,
            41.567247
          ],
          [
            44.948284,
            41.567247
          ],
          [
            44.948303,
            41.567251
          ],
          [
            44.948321,
            41.567254
          ],
          [
            44.948338,
            41.567259
          ],
          [
            44.948353,
            41.567266
          ],
          [
            44.948369,
            41.567272
          ],
          [
            44.948384,
            41.567281
          ],
          [
            44.948398,
            41.567289
          ],
          [
            44.948411,
            41.567301
          ],
          [
            44.948421,
            41.567312
          ],
          [
            44.948433,
            41.567324
          ],
          [
            44.948441,
            41.567337
          ],
          [
            44.948446,
            41.567351
          ],
          [
            44.948453,
            41.567366
          ],
          [
            44.948454,
            41.567381
          ],
          [
            44.948456,
            41.567396
          ],
          [
            44.948456,
            41.567411
          ],
          [
            44.948454,
            41.567426
          ],
          [
            44.948451,
            41.567441
          ],
          [
            44.948446,
            41.567456
          ],
          [
            44.948439,
            41.567471
          ],
          [
            44.948431,
            41.567486
          ],
          [
            44.948423,
            41.567501
          ],
          [
            44.948411,
            41.567516
          ],
          [
            44.948399,
            41.567531
          ],
          [
            44.948384,
            41.567544
          ],
          [
            44.948371,
            41.567557
          ],
          [
            44.948354,
            41.567572
          ],
          [
            44.948338,
            41.567586
          ],
          [
            44.948321,
            41.567599
          ],
          [
            44.948303,
            41.567614
          ],
          [
            44.948284,
            41.567627
          ],
          [
            44.948268,
            41.567642
          ],
          [
            44.948249,
            41.567659
          ],
          [
            44.948231,
            41.567674
          ],
          [
            44.948214,
            41.567689
          ],
          [
            44.948199,
            41.567704
          ],
          [
            44.948184,
            41.567719
          ],
          [
            44.948171,
            41.567736
          ],
          [
            44.948159,
            41.567751
          ],
          [
            44.948148,
            41.567766
          ],
          [
            44.948139,
            41.567781
          ],
          [
            44.948133,
            41.567797
          ],
          [
            44.948128,
            41.567812
          ],
          [
            44.948124,
            41.567827
          ],
          [
            44.948123,
            41.567842
          ],
          [
            44.948123,
            41.567857
          ],
          [
            44.948124,
            41.567871
          ],
          [
            44.948128,
            41.567886
          ],
          [
            44.948133,
            41.567899
          ],
          [
            44.948139,
            41.567912
          ],
          [
            44.948148,
            41.567924
          ],
          [
            44.948158,
            41.567936
          ],
          [
            44.948169,
            41.567946
          ],
          [
            44.948181,
            41.567954
          ],
          [
            44.948196,
            41.567961
          ],
          [
            44.948211,
            41.567967
          ],
          [
            44.948229,
            41.567972
          ],
          [
            44.948246,
            41.567976
          ],
          [
            44.948264,
            41.567977
          ],
          [
            44.948283,
            41.567977
          ],
          [
            44.948301,
            41.567977
          ],
          [
            44.948319,
            41.567974
          ],
          [
            44.948338,
            41.567971
          ],
          [
            44.948356,
            41.567967
          ],
          [
            44.948373,
            41.567961
          ],
          [
            44.948391,
            41.567954
          ],
          [
            44.948406,
            41.567946
          ],
          [
            44.948423,
            41.567936
          ],
          [
            44.948438,
            41.567926
          ],
          [
            44.948451,
            41.567914
          ],
          [
            44.948464,
            41.567901
          ],
          [
            44.948476,
            41.567887
          ],
          [
            44.948488,
            41.567872
          ],
          [
            44.948496,
            41.567857
          ],
          [
            44.948506,
            41.567842
          ],
          [
            44.948514,
            41.567826
          ],
          [
            44.948524,
            41.567809
          ],
          [
            44.948536,
            41.567794
          ],
          [
            44.948546,
            41.567776
          ],
          [
            44.948556,
            41.567759
          ],
          [
            44.948568,
            41.567741
          ],
          [
            44.948578,
            41.567724
          ],
          [
            44.948589,
            41.567706
          ],
          [
            44.948601,
            41.567687
          ],
          [
            44.948613,
            41.567669
          ],
          [
            44.948626,
            41.567651
          ],
          [
            44.948638,
            41.567631
          ],
          [
            44.948651,
            41.567612
          ],
          [
            44.948664,
            41.567594
          ],
          [
            44.948678,
            41.567574
          ],
          [
            44.948691,
            41.567554
          ],
          [
            44.948706,
            41.567536
          ],
          [
            44.948718,
            41.567517
          ],
          [
            44.948731,
            41.567499
          ],
          [
            44.948743,
            41.567481
          ],
          [
            44.948753,
            41.567462
          ],
          [
            44.948761,
            41.567444
          ],
          [
            44.948769,
            41.567426
          ],
          [
            44.948774,
            41.567407
          ],
          [
            44.948781,
            41.567389
          ],
          [
            44.948784,
            41.567369
          ],
          [
            44.948786,
            41.567349
          ],
          [
            44.948788,
            41.567331
          ],
          [
            44.948788,
            41.567312
          ],
          [
            44.948786,
            41.567292
          ],
          [
            44.948781,
            41.567276
          ],
          [
            44.948774,
            41.567257
          ],
          [
            44.948766,
            41.567241
          ],
          [
            44.948758,
            41.567224
          ],
          [
            44.948748,
            41.567207
          ],
          [
            44.948734,
            41.567191
          ],
          [
            44.948721,
            41.567176
          ],
          [
            44.948708,
            41.567161
          ],
          [
            44.948694,
            41.567146
          ],
          [
            44.948681,
            41.567131
          ],
          [
            44.948669,
            41.567114
          ],
          [
            44.948659,
            41.567097
          ],
          [
            44.948651,
            41.567081
          ],
          [
            44.948644,
            41.567064
          ],
          [
            44.948639,
            41.567046
          ],
          [
            44.948636,
            41.567029
          ],
          [
            44.948634,
            41.567011
          ],
          [
            44.948634,
            41.566994
          ],
          [
            44.948634,
            41.566976
          ],
          [
            44.948639,
            41.566959
          ],
          [
            44.948644,
            41.566942
          ],
          [
            44.948651,
            41.566926
          ],
          [
            44.948659,
            41.566909
          ],
          [
            44.948669,
            41.566892
          ],
          [
            44.948681,
            41.566877
          ],
          [
            44.948693,
            41.566861
          ],
          [
            44.948706,
            41.566844
          ],
          [
            44.948721,
            41.566827
          ],
          [
            44.948734,
            41.566812
          ],
          [
            44.948751,
            41.566796
          ],
          [
            44.948768,
            41.566779
          ],
          [
            44.948784,
            41.566764
          ],
          [
            44.948803,
            41.566747
          ],
          [
            44.948821,
            41.566732
          ],
          [
            44.948841,
            41.566717
          ],
          [
            44.948861,
            41.566701
          ],
          [
            44.948881,
            41.566686
          ],
          [
            44.948903,
            41.566671
          ],
          [
            44.948924,
            41.566655
          ],
          [
            44.948946,
            41.56664
          ],
          [
            44.948969,
            41.566625
          ],
          [
            44.948991,
            41.566608
          ],
          [
            44.949013,
            41.566593
          ],
          [
            44.949036,
            41.566576
          ],
          [
            44.949058,
            41.56656
          ],
          [
            44.949081,
            41.566545
          ],
          [
            44.949104,
            41.566528
          ],
          [
            44.949128,
            41.566511
          ],
          [
            44.949151,
            41.566495
          ],
          [
            44.949174,
            41.566478
          ],
          [
            44.949198,
            41.566463
          ],
          [
            44.949223,
            41.566446
          ],
          [
            44.949246,
            41.56643
          ],
          [
            44.949269,
            41.566415
          ],
          [
            44.949294,
            41.566398
          ],
          [
            44.949319,
            41.566381
          ],
          [
            44.949344,
            41.566366
          ],
          [
            44.949368,
            41.56635
          ],
          [
            44.949393,
            41.566333
          ],
          [
            44.949418,
            41.566318
          ],
          [
            44.949443,
            41.566301
          ],
          [
            44.949468,
            41.566285
          ],
          [
            44.949494,
            41.56627
          ],
          [
            44.949519,
            41.566253
          ],
          [
            44.949544,
            41.566236
          ],
          [
            44.949571,
            41.566221
          ],
          [
            44.949596,
            41.566205
          ],
          [
            44.949623,
            41.56619
          ],
          [
            44.949648,
            41.566175
          ],
          [
            44.949671,
            41.56616
          ],
          [
            44.949696,
            41.566146
          ],
          [
            44.949719,
            41.566131
          ],
          [
            44.949743,
            41.566118
          ],
          [
            44.949764,
            41.566106
          ],
          [
            44.949788,
            41.566093
          ],
          [
            44.949808,
            41.566081
          ],
          [
            44.949829,
            41.56607
          ],
          [
            44.949851,
            41.56606
          ],
          [
            44.949873,
            41.56605
          ],
          [
            44.949896,
            41.566041
          ],
          [
            44.949918,
            41.566033
          ],
          [
            44.949943,
            41.566026
          ],
          [
            44.949966,
            41.56602
          ],
          [
            44.949991,
            41.566015
          ],
          [
            44.950016,
            41.56601
          ],
          [
            44.950041,
            41.566008
          ],
          [
            44.950065,
            41.566006
          ],
          [
            44.950091,
            41.566006
          ],
          [
            44.950116,
            41.566006
          ],
          [
            44.950141,
            41.566008
          ],
          [
            44.950166,
            41.56601
          ],
          [
            44.950191,
            41.566015
          ],
          [
            44.950215,
            41.56602
          ],
          [
            44.950238,
            41.566026
          ],
          [
            44.950261,
            41.566033
          ],
          [
            44.950283,
            41.566043
          ],
          [
            44.950306,
            41.566051
          ],
          [
            44.95033,
            41.566061
          ],
          [
            44.950351,
            41.566073
          ],
          [
            44.950373,
            41.566085
          ],
          [
            44.950395,
            41.566098
          ],
          [
            44.950416,
            41.56611
          ],
          [
            44.950438,
            41.566125
          ],
          [
            44.95046,
            41.566138
          ],
          [
            44.950481,
            41.566153
          ],
          [
            44.950503,
            41.566168
          ],
          [
            44.950526,
            41.566183
          ],
          [
            44.95055,
            41.566196
          ],
          [
            44.950573,
            41.56621
          ],
          [
            44.950598,
            41.566225
          ],
          [
            44.950623,
            41.566238
          ],
          [
            44.950648,
            41.566251
          ],
          [
            44.950675,
            41.566265
          ],
          [
            44.950701,
            41.566278
          ],
          [
            44.950726,
            41.56629
          ],
          [
            44.950751,
            41.566303
          ],
          [
            44.950776,
            41.566316
          ],
          [
            44.950801,
            41.566328
          ],
          [
            44.950826,
            41.56634
          ],
          [
            44.95085,
            41.566353
          ],
          [
            44.950871,
            41.566365
          ],
          [
            44.950893,
            41.566376
          ],
          [
            44.950915,
            41.566386
          ],
          [
            44.950936,
            41.566398
          ],
          [
            44.950955,
            41.56641
          ],
          [
            44.950975,
            41.566423
          ],
          [
            44.950991,
            41.566435
          ],
          [
            44.951006,
            41.566448
          ],
          [
            44.95102,
            41.566461
          ],
          [
            44.951033,
            41.566475
          ],
          [
            44.951043,
            41.56649
          ],
          [
            44.951053,
            41.566505
          ],
          [
            44.95106,
            41.56652
          ],
          [
            44.951066,
            41.566535
          ],
          [
            44.951071,
            41.566551
          ],
          [
            44.951075,
            41.566566
          ],
          [
            44.951078,
            41.566581
          ],
          [
            44.951078,
            41.566598
          ],
          [
            44.951076,
            41.566613
          ],
          [
            44.951071,
            41.566626
          ],
          [
            44.951066,
            41.566641
          ],
          [
            44.951058,
            41.566653
          ],
          [
            44.95105,
            41.566665
          ],
          [
            44.951041,
            41.566676
          ],
          [
            44.951028,
            41.566686
          ],
          [
            44.951015,
            41.566696
          ],
          [
            44.951,
            41.566706
          ],
          [
            44.950985,
            41.566712
          ],
          [
            44.950968,
            41.566719
          ],
          [
            44.950951,
            41.566724
          ],
          [
            44.950933,
            41.566727
          ],
          [
            44.950915,
            41.566729
          ],
          [
            44.950896,
            41.566731
          ],
          [
            44.950876,
            41.566732
          ],
          [
            44.950856,
            41.566731
          ],
          [
            44.950836,
            41.566727
          ],
          [
            44.950818,
            41.566724
          ],
          [
            44.950798,
            41.566719
          ],
          [
            44.95078,
            41.566712
          ],
          [
            44.950761,
            41.566704
          ],
          [
            44.950745,
            41.566696
          ],
          [
            44.950728,
            41.566684
          ],
          [
            44.950711,
            41.566674
          ],
          [
            44.950698,
            41.566661
          ],
          [
            44.950683,
            41.566648
          ],
          [
            44.950671,
            41.566635
          ],
          [
            44.95066,
            41.56662
          ],
          [
            44.950648,
            41.566605
          ],
          [
            44.950636,
            41.56659
          ],
          [
            44.950623,
            41.566575
          ],
          [
            44.950611,
            41.566558
          ],
          [
            44.950598,
            41.566541
          ],
          [
            44.950585,
            41.566526
          ],
          [
            44.95057,
            41.56651
          ],
          [
            44.950556,
            41.566493
          ],
          [
            44.950541,
            41.566476
          ],
          [
            44.950525,
            41.56646
          ],
          [
            44.950508,
            41.566443
          ],
          [
            44.95049,
            41.566428
          ],
          [
            44.950471,
            41.566411
          ],
          [
            44.950451,
            41.566396
          ],
          [
            44.95043,
            41.566381
          ],
          [
            44.950408,
            41.566368
          ],
          [
            44.950385,
            41.566355
          ],
          [
            44.950361,
            41.566341
          ],
          [
            44.950336,
            41.566331
          ],
          [
            44.950311,
            41.56632
          ],
          [
            44.950285,
            41.566311
          ],
          [
            44.950258,
            41.566301
          ],
          [
            44.95023,
            41.566295
          ],
          [
            44.950201,
            41.56629
          ],
          [
            44.950173,
            41.566285
          ],
          [
            44.950145,
            41.566281
          ],
          [
            44.950116,
            41.56628
          ],
          [
            44.950088,
            41.56628
          ],
          [
            44.95006,
            41.566281
          ],
          [
            44.950031,
            41.566283
          ],
          [
            44.950005,
            41.566288
          ],
          [
            44.949976,
            41.566293
          ],
          [
            44.949949,
            41.566298
          ],
          [
            44.949923,
            41.566306
          ],
          [
            44.949898,
            41.566316
          ],
          [
            44.949873,
            41.566326
          ],
          [
            44.949848,
            41.566336
          ],
          [
            44.949824,
            41.56635
          ],
          [
            44.949801,
            41.566361
          ],
          [
            44.949779,
            41.566376
          ],
          [
            44.949756,
            41.566391
          ],
          [
            44.949734,
            41.566406
          ],
          [
            44.949711,
            41.566421
          ],
          [
            44.949688,
            41.566435
          ],
          [
            44.949666,
            41.56645
          ],
          [
            44.949641,
            41.566465
          ],
          [
            44.949618,
            41.56648
          ],
          [
            44.949594,
            41.566495
          ],
          [
            44.949571,
            41.56651
          ],
          [
            44.949546,
            41.566526
          ],
          [
            44.949523,
            41.566541
          ],
          [
            44.949498,
            41.566556
          ],
          [
            44.949474,
            41.566573
          ],
          [
            44.949449,
            41.566588
          ],
          [
            44.949426,
            41.566605
          ],
          [
            44.949403,
            41.56662
          ],
          [
            44.949379,
            41.566635
          ],
          [
            44.949358,
            41.56665
          ],
          [
            44.949336,
            41.566663
          ],
          [
            44.949316,
            41.566677
          ],
          [
            44.949296,
            41.566691
          ],
          [
            44.949276,
            41.566704
          ],
          [
            44.949258,
            41.566716
          ],
          [
            44.949239,
            41.566727
          ],
          [
            44.949223,
            41.566739
          ],
          [
            44.949206,
            41.566751
          ],
          [
            44.949189,
            41.566762
          ],
          [
            44.949176,
            41.566774
          ],
          [
            44.949163,
            41.566786
          ],
          [
            44.949151,
            41.566797
          ],
          [
            44.949143,
            41.566811
          ],
          [
            44.949134,
            41.566824
          ],
          [
            44.949128,
            41.566836
          ],
          [
            44.949123,
            41.566849
          ],
          [
            44.949121,
            41.566864
          ],
          [
            44.949119,
            41.566877
          ],
          [
            44.949119,
            41.566891
          ],
          [
            44.949121,
            41.566902
          ],
          [
            44.949126,
            41.566916
          ],
          [
            44.949131,
            41.566929
          ],
          [
            44.949138,
            41.566941
          ],
          [
            44.949146,
            41.566951
          ],
          [
            44.949156,
            41.566961
          ],
          [
            44.949166,
            41.566971
          ],
          [
            44.949179,
            41.566981
          ],
          [
            44.949194,
            41.566987
          ],
          [
            44.949209,
            41.566994
          ],
          [
            44.949224,
            41.567001
          ],
          [
            44.949243,
            41.567006
          ],
          [
            44.949261,
            41.567009
          ],
          [
            44.949278,
            41.567012
          ],
          [
            44.949298,
            41.567014
          ],
          [
            44.949318,
            41.567014
          ],
          [
            44.949336,
            41.567014
          ],
          [
            44.949358,
            41.567012
          ],
          [
            44.949378,
            41.567009
          ],
          [
            44.949398,
            41.567006
          ],
          [
            44.949416,
            41.566999
          ],
          [
            44.949436,
            41.566994
          ],
          [
            44.949456,
            41.566986
          ],
          [
            44.949473,
            41.566976
          ],
          [
            44.949491,
            41.566966
          ],
          [
            44.949508,
            41.566954
          ],
          [
            44.949524,
            41.566941
          ],
          [
            44.949541,
            41.566927
          ],
          [
            44.949556,
            41.566914
          ],
          [
            44.949571,
            41.566899
          ],
          [
            44.949584,
            41.566882
          ],
          [
            44.949599,
            41.566867
          ],
          [
            44.949614,
            41.566851
          ],
          [
            44.949628,
            41.566832
          ],
          [
            44.949643,
            41.566816
          ],
          [
            44.949658,
            41.566799
          ],
          [
            44.949673,
            41.566781
          ],
          [
            44.949688,
            41.566762
          ],
          [
            44.949703,
            41.566744
          ],
          [
            44.949719,
            41.566726
          ],
          [
            44.949736,
            41.566709
          ],
          [
            44.949753,
            41.566691
          ],
          [
            44.949771,
            41.566674
          ],
          [
            44.949788,
            41.566658
          ],
          [
            44.949804,
            41.566641
          ],
          [
            44.949821,
            41.566626
          ],
          [
            44.949838,
            41.566611
          ],
          [
            44.949854,
            41.566596
          ],
          [
            44.949869,
            41.566583
          ],
          [
            44.949886,
            41.566571
          ],
          [
            44.949903,
            41.566558
          ],
          [
            44.949919,
            41.566548
          ],
          [
            44.949938,
            41.566538
          ],
          [
            44.949956,
            41.56653
          ],
          [
            44.949974,
            41.566521
          ],
          [
            44.949994,
            41.566515
          ],
          [
            44.950015,
            41.56651
          ],
          [
            44.950035,
            41.566505
          ],
          [
            44.950055,
            41.566501
          ],
          [
            44.950075,
            41.5665
          ],
          [
            44.950095,
            41.5665
          ],
          [
            44.950115,
            41.566501
          ],
          [
            44.950135,
            41.566505
          ],
          [
            44.950155,
            41.56651
          ],
          [
            44.950173,
            41.566515
          ],
          [
            44.950191,
            41.566521
          ],
          [
            44.950208,
            41.566528
          ],
          [
            44.950225,
            41.566536
          ],
          [
            44.950238,
            41.566546
          ],
          [
            44.950251,
            41.566556
          ],
          [
            44.950265,
            41.566568
          ],
          [
            44.950275,
            41.56658
          ],
          [
            44.950283,
            41.566593
          ],
          [
            44.950291,
            41.566606
          ],
          [
            44.950296,
            41.56662
          ],
          [
            44.950301,
            41.566633
          ],
          [
            44.950305,
            41.566648
          ],
          [
            44.950306,
            41.566663
          ],
          [
            44.950305,
            41.566677
          ],
          [
            44.950303,
            41.566694
          ],
          [
            44.9503,
            41.566709
          ],
          [
            44.950293,
            41.566724
          ],
          [
            44.950285,
            41.566739
          ],
          [
            44.950275,
            41.566752
          ],
          [
            44.950265,
            41.566767
          ],
          [
            44.95025,
            41.566779
          ],
          [
            44.950235,
            41.566792
          ],
          [
            44.95022,
            41.566804
          ],
          [
            44.950201,
            41.566816
          ],
          [
            44.950183,
            41.566827
          ],
          [
            44.950163,
            41.566837
          ],
          [
            44.950141,
            41.566846
          ],
          [
            44.95012,
            41.566854
          ],
          [
            44.950098,
            41.566862
          ],
          [
            44.950075,
            41.566871
          ],
          [
            44.950053,
            41.566881
          ],
          [
            44.95003,
            41.566891
          ],
          [
            44.950008,
            41.566902
          ],
          [
            44.949984,
            41.566912
          ],
          [
            44.949963,
            41.566926
          ],
          [
            44.949941,
            41.566937
          ],
          [
            44.949919,
            41.566951
          ],
          [
            44.949898,
            41.566966
          ],
          [
            44.949876,
            41.566981
          ],
          [
            44.949854,
            41.566994
          ],
          [
            44.949834,
            41.567011
          ],
          [
            44.949813,
            41.567026
          ],
          [
            44.949793,
            41.567042
          ],
          [
            44.949771,
            41.567059
          ],
          [
            44.949751,
            41.567076
          ],
          [
            44.949731,
            41.567092
          ],
          [
            44.949711,
            41.567107
          ],
          [
            44.949691,
            41.567122
          ],
          [
            44.949671,
            41.567137
          ],
          [
            44.949651,
            41.567151
          ],
          [
            44.949629,
            41.567164
          ],
          [
            44.949606,
            41.567176
          ],
          [
            44.949583,
            41.567186
          ],
          [
            44.949559,
            41.567196
          ],
          [
            44.949534,
            41.567204
          ],
          [
            44.949509,
            41.567212
          ],
          [
            44.949486,
            41.567217
          ],
          [
            44.949459,
            41.567222
          ],
          [
            44.949436,
            41.567224
          ],
          [
            44.949411,
            41.567226
          ],
          [
            44.949386,
            41.567226
          ],
          [
            44.949361,
            41.567227
          ],
          [
            44.949336,
            41.567229
          ],
          [
            44.949311,
            41.567231
          ],
          [
            44.949288,
            41.567234
          ],
          [
            44.949264,
            41.567239
          ],
          [
            44.949241,
            41.567246
          ],
          [
            44.949219,
            41.567252
          ],
          [
            44.949198,
            41.567259
          ],
          [
            44.949176,
            41.567267
          ],
          [
            44.949156,
            41.567277
          ],
          [
            44.949138,
            41.567287
          ],
          [
            44.949119,
            41.567299
          ],
          [
            44.949101,
            41.567311
          ],
          [
            44.949083,
            41.567322
          ],
          [
            44.949068,
            41.567337
          ],
          [
            44.949051,
            41.567351
          ],
          [
            44.949036,
            41.567366
          ],
          [
            44.949021,
            41.567382
          ],
          [
            44.949009,
            41.567401
          ],
          [
            44.948996,
            41.567417
          ],
          [
            44.948984,
            41.567436
          ],
          [
            44.948974,
            41.567456
          ],
          [
            44.948964,
            41.567476
          ],
          [
            44.948954,
            41.567496
          ],
          [
            44.948944,
            41.567516
          ],
          [
            44.948936,
            41.567536
          ],
          [
            44.948926,
            41.567557
          ],
          [
            44.948918,
            41.567579
          ],
          [
            44.948908,
            41.567599
          ],
          [
            44.948899,
            41.567621
          ],
          [
            44.948889,
            41.567644
          ],
          [
            44.948881,
            41.567666
          ],
          [
            44.948871,
            41.567687
          ],
          [
            44.948861,
            41.567709
          ],
          [
            44.948851,
            41.567731
          ],
          [
            44.948841,
            41.567754
          ],
          [
            44.948831,
            41.567776
          ],
          [
            44.948821,
            41.567799
          ],
          [
            44.948809,
            41.567821
          ],
          [
            44.948799,
            41.567844
          ],
          [
            44.948788,
            41.567866
          ],
          [
            44.948776,
            41.567889
          ],
          [
            44.948764,
            41.567911
          ],
          [
            44.948751,
            41.567934
          ],
          [
            44.948739,
            41.567957
          ],
          [
            44.948726,
            41.567979
          ],
          [
            44.948714,
            41.568001
          ],
          [
            44.948703,
            41.568022
          ],
          [
            44.948689,
            41.568042
          ],
          [
            44.948678,
            41.568064
          ],
          [
            44.948666,
            41.568082
          ],
          [
            44.948653,
            41.568102
          ],
          [
            44.948639,
            41.568119
          ]
        ]
      }
    },
    {
      "type": "Feature",
      "properties": {
        "name": "center",
        "type": "center_point"
      },
      "geometry": {
        "type": "Point",
        "coordinates": [
          44.949418,
          41.566318
        ]
      }
    },
    {
      "type": "Feature",
      "properties": {
        "type": "apex",
        "index": 99,
        "speed_raw": 5
      },
      "geometry": {
        "type": "Point",
        "coordinates": [
          44.948454,
          41.567381
        ]
      }
    },
    {
      "type": "Feature",
      "properties": {
        "type": "apex",
        "index": 100,
        "speed_raw": 4
      },
      "geometry": {
        "type": "Point",
        "coordinates": [
          44.948456,
          41.567396
        ]
      }
    },
    {
      "type": "Feature",
      "properties": {
        "type": "apex",
        "index": 101,
        "speed_raw": 0
      },
      "geometry": {
        "type": "Point",
        "coordinates": [
          44.948456,
          41.567411
        ]
      }
    },
    {
      "type": "Feature",
      "properties": {
        "type": "apex",
        "index": 132,
        "speed_raw": 2
      },
      "geometry": {
        "type": "Point",
        "coordinates": [
          44.948124,
          41.567871
        ]
      }
    },
    {
      "type": "Feature",
      "properties": {
        "type": "apex",
        "index": 133,
        "speed_raw": 4
      },
      "geometry": {
        "type": "Point",
        "coordinates": [
          44.948128,
          41.567886
        ]
      }
    },
    {
      "type": "Feature",
      "properties": {
        "type": "apex",
        "index": 134,
        "speed_raw": 7
      },
      "geometry": {
        "type": "Point",
        "coordinates": [
          44.948133,
          41.567899
        ]
      }
    },
    {
      "type": "Feature",
      "properties": {
        "type": "apex",
        "index": 325,
        "speed_raw": 8
      },
      "geometry": {
        "type": "Point",
        "coordinates": [
          44.951071,
          41.566551
        ]
      }
    },
    {
      "type": "Feature",
      "properties": {
        "type": "apex",
        "index": 326,
        "speed_raw": 6
      },
      "geometry": {
        "type": "Point",
        "coordinates": [
          44.951075,
          41.566566
        ]
      }
    },
    {
      "type": "Feature",
      "properties": {
        "type": "apex",
        "index": 327,
        "speed_raw": 4
      },
      "geometry": {
        "type": "Point",
        "coordinates": [
          44.951078,
          41.566581
        ]
      }
    },
    {
      "type": "Feature",
      "properties": {
        "type": "apex",
        "index": 328,
        "speed_raw": 1
      },
      "geometry": {
        "type": "Point",
        "coordinates": [
          44.951078,
          41.566598
        ]
      }
    },
    {
      "type": "Feature",
      "properties": {
        "type": "apex",
        "index": 435,
        "speed_raw": 2
      },
      "geometry": {
        "type": "Point",
        "coordinates": [
          44.949121,
          41.566902
        ]
      }
    },
    {
      "type": "Feature",
      "properties": {
        "type": "apex",
        "index": 436,
        "speed_raw": 5
      },
      "geometry": {
        "type": "Point",
        "coordinates": [
          44.949126,
          41.566916
        ]
      }
    },
    {
      "type": "Feature",
      "properties": {
        "type": "apex",
        "index": 437,
        "speed_raw": 8
      },
      "geometry": {
        "type": "Point",
        "coordinates": [
          44.949131,
          41.566929
        ]
      }
    },
    {
      "type": "Feature",
      "properties": {
        "type": "apex",
        "index": 510,
        "speed_raw": 8
      },
      "geometry": {
        "type": "Point",
        "coordinates": [
          44.950301,
          41.566633
        ]
      }
    },
    {
      "type": "Feature",
      "properties": {
        "type": "apex",
        "index": 511,
        "speed_raw": 5
      },
      "geometry": {
        "type": "Point",
        "coordinates": [
          44.950305,
          41.566648
        ]
      }
    },
    {
      "type": "Feature",
      "properties": {
        "type": "apex",
        "index": 512,
        "speed_raw": 4
      },
      "geometry": {
        "type": "Point",
        "coordinates": [
          44.950306,
          41.566663
        ]
      }
    },
    {
      "type": "Feature",
      "properties": {
        "type": "apex",
        "index": 513,
        "speed_raw": 0
      },
      "geometry": {
        "type": "Point",
        "coordinates": [
          44.950305,
          41.566677
        ]
      }
    }
  ]
}